NHPDPropertyID,PropertyName,PropertyAddress,City,State,Zip,CBSACode,CBSAType,County,CountyCode,CensusTract,CongressionalDistrict,Latitude,Longitude,ReacScore1,ReacScore2,TargetTenantType,S8_1_ProgramName,S8_1_AssistedUnits,S8_1_RentToFMR,LIHTC_1_ProgramName,S8_2_ID
1000918,PARTHENIA TOWNHOUSES,21218 Parthenia St,Los Angeles,CA,91304-1650,31080,Metropolitan Statistical Area,Los Angeles,6037,6037113234,30,34.23,-119,95a,92b,Family,Preservation,11,84.61,,
1017934,CANOGA PARK,6824 Winnetka Ave,Los Angeles,CA,91306-3900,31080,Metropolitan Statistical Area,Los Angeles,6037,6037134800,30,34.19,-119,65c,94c,Family,Sec 8 NC,14,89.17,,
1017936,MILWOOD APARTMENTS,6922 Milwood Ave,Los Angeles,CA,91303-2142,31080,Metropolitan Statistical Area,Los Angeles,6037,6037134520,30,34.2,-119,91b,91b,Elderly,Preservation,8,92.21,,
1027217,ROSCOE PARK APARTMENTS,8332 Variel Ave,Los Angeles,CA,91304-4385,31080,Metropolitan Statistical Area,Los Angeles,6037,6037113234,30,34.22,-119,92b,92b,Family,Preservation,37,94.07,,
1027508,DE SOTO GARDENS,8722 De Soto Ave,Los Angeles,CA,91304-1908,31080,Metropolitan Statistical Area,Los Angeles,6037,6037113421,30,34.23,-119,66c*,95c*,Family,Preservation,238,98.19,,
1028585,ALABAMA COURT,7440 Alabama Ave,Los Angeles,CA,91303-1345,31080,Metropolitan Statistical Area,Los Angeles,6037,6037134522,30,34.21,-119,,,Family,,,,9% Tax Credit,
1028673,NOBLE PINES APARTMENTS,21611 Saticoy St,Los Angeles,CA,91304-4944,31080,Metropolitan Statistical Area,Los Angeles,6037,6037134306,30,34.21,-119,,,Family,,,,9% Tax Credit,
1029129,CASA DE CANOGA APARTMENTS,20717 Vanowen St,Los Angeles,CA,91306-3706,31080,Metropolitan Statistical Area,Los Angeles,6037,6037134904,30,34.19,-119,,,,,,,9% Tax Credit,
1029473,VINTAGE CROSSING SENIOR APARTMENTS,6830 Jordan Ave,Los Angeles,CA,91303-4663,31080,Metropolitan Statistical Area,Los Angeles,6037,6037134520,30,34.19,-119,,,Elderly or disabled,,,,9% Tax Credit,
1029845,HART VILLAGE,6941 Owensmouth Ave,Los Angeles,CA,91303-2070,31080,Metropolitan Statistical Area,Los Angeles,6037,6037134520,30,34.2,-119,,,Family,,,,9% Tax Credit,
1031013,CASA MADRID,20721 Vanowen St,Los Angeles,CA,91306-3724,31080,Metropolitan Statistical Area,Los Angeles,6037,6037134904,30,34.23,-118,,,Family,,,,9% Tax Credit,
1027568,VILLAGE WAY,20661 Lemarsh St,Los Angeles,CA,91311-3219,31080,Metropolitan Statistical Area,Los Angeles,6037,6037113322,30,34.26,-119,90c,90c,Disabled,PRAC/811,12,20.76,,
1008694,CASTLEWOOD TERRACE II,16930 Chatsworth St,Los Angeles,CA,91344-7840,31080,Metropolitan Statistical Area,Los Angeles,6037,6037111400,30,34.26,-119,95b,95b,Elderly,PRAC/202,90,68.16,,
1009513,RESEDA HORIZON,17831 San Jose St,Los Angeles,CA,91344-5925,31080,Metropolitan Statistical Area,Los Angeles,6037,6037111301,30,34.26,-119,91b,100a,Disabled,PRAC/811,6,135.63,,
1018091,GRANADA GARDENS,16700 Chatsworth St,Los Angeles,CA,91344-6503,31080,Metropolitan Statistical Area,Los Angeles,6037,6037111400,30,34.26,-118,79c*,82c*,Family,LMSA,33,36.03,,
1027154,PROJECT INDEPENDENCE,10454 Amestoy Ave,Los Angeles,CA,91344-6225,31080,Metropolitan Statistical Area,Los Angeles,6037,6037111301,30,34.26,-119,78b,94b,Disabled,PRAC/811,24,67.97,,
1027324,CASTLEWOOD TERRACE,16920 Chatsworth St,Los Angeles,CA,91344-7839,31080,Metropolitan Statistical Area,Los Angeles,6037,6037111400,30,34.26,-119,89b,89b,Elderly,PRAC/202,67,77.25,,
1030897,GREAT EXPECTATIONS,17026 Rinaldi St,Los Angeles,CA,91344-3543,31080,Metropolitan Statistical Area,Los Angeles,6037,6037106642,30,34.28,-119,98a,54c,Disabled,PRAC/811,6,55.92,,
1001114,GOOD SHEPHERD HOMES,510 Centinela Ave,Inglewood,CA,90302-3246,31080,Metropolitan Statistical Area,Los Angeles,6037,6037600902,43,33.97,-118,96b,96b,Disabled,202/8 NC,39,93.94,4% Tax Credit,
1009492,GRACE MANOR,508 Grace Ave,Inglewood,CA,90301-1338,31080,Metropolitan Statistical Area,Los Angeles,6037,6037601001,43,33.97,-118,72b,72c,Disabled,PRAC/811,5,74.34,,
1018103,HOMEWARD BOUND 2000,419 E Tamarack Ave,Inglewood,CA,90301-6309,31080,Metropolitan Statistical Area,Los Angeles,6037,6037601002,43,33.96,-118,79b,,Disabled,PRAC/811,2,122.11,,
1018105,HOMEWARD BOUND-INGLEWOOD,550 W Regent St,Inglewood,CA,90301-1080,31080,Metropolitan Statistical Area,Los Angeles,6037,6037601401,43,33.96,-118,75b,75b,Disabled,PRAC/811,4,67.78,,
1023141,PACIFIC RIM APARTMENTS,230 S Grevillea Ave,Inglewood,CA,90301-2349,31080,Metropolitan Statistical Area,Los Angeles,6037,6037601211,43,33.96,-118,93b,75c*,Disabled,202/8 NC,39,99.62,,
1027162,REGENT PLAZA,201 W Regent St,Inglewood,CA,90301-1249,31080,Metropolitan Statistical Area,Los Angeles,6037,6037601211,43,33.96,-118,99a,87b,Elderly,Sec 8 NC,106,100.09,4% Tax Credit,
1027188,REGENCY TOWERS,151 N Locust St,Inglewood,CA,90301-1864,31080,Metropolitan Statistical Area,Los Angeles,6037,6037601001,43,33.96,-118,99b,99b,Elderly,Sec 8 NC,103,101.3,4% Tax Credit,
1029513,OSAGE SENIOR VILLAS,924 S Osage Ave,Inglewood,CA,90301-4100,31080,Metropolitan Statistical Area,Los Angeles,6037,6037601100,43,33.95,-118,,,Elderly or disabled,,,,9% Tax Credit,
1031617,PATH VILLAS OSAGE APARTMENTS,812 S Osage Ave,Inglewood,CA,90301-3550,31080,Metropolitan Statistical Area,Los Angeles,6037,6037601002,43,33.95,-118,,,Family,,,,9% Tax Credit,
1032788,REGENT SQUARE,527 W Regent St,Inglewood,CA,90301-1198,31080,Metropolitan Statistical Area,Los Angeles,6037,6037601401,43,33.96,-118,,,,,,,4% Tax Credit,
1032789,WESTSIDE II,725 Hindry Ave,Inglewood,CA,90301-3259,31080,Metropolitan Statistical Area,Los Angeles,6037,6037601401,43,33.95,-118,,,,,,,TCEP,
1105142,EUCALYPTUS PARK,811 N Eucalyptus Ave,Inglewood,CA,90302-2236,31080,Metropolitan Statistical Area,Los Angeles,6037,6037601303,43,33.97,-118,98a,100b,Elderly,Sec 8 NC,92,104.04,9% Tax Credit,
1106387,INGLEWOOD MEADOWS,1 S Locust St,Inglewood,CA,90301-1808,31080,Metropolitan Statistical Area,Los Angeles,6037,6037601001,43,33.96,-118,97c,99b,Elderly,Sec 8 NC,198,106.04,4% Tax Credit,
1107761,MARKET PARK APARTMENTS,601 N Market St,Inglewood,CA,90302-3047,31080,Metropolitan Statistical Area,Los Angeles,6037,6037600902,43,33.97,-118,70c*,81c,Family,Preservation,50,84.27,4% Tax Credit,
1162221,PATH VILLAS EUCALYPTUS,240 Lime St,Inglewood,CA,90301-2642,31080,Metropolitan Statistical Area,Los Angeles,6037,6037601212,43,33.96,-118,,,Elderly or disabled,,,,9% Tax Credit,
1001148,BUDLONG MANOR,11998 Terra Bella St,Los Angeles,CA,91342-7149,31080,Metropolitan Statistical Area,Los Angeles,6037,6037104108,29,34.28,-118,87c,88b,Elderly,Sec 8 NC,59,82.74,,
1028391,OSAGE APARTMENTS,11128 S Osage Ave,Inglewood,CA,90304-2902,31080,Metropolitan Statistical Area,Los Angeles,6037,6037601700,43,33.93,-118,,,Family,,,,9% Tax Credit,
1000161,MERIT HALL APARTMENTS,1035 Lewis Ave,Long Beach,CA,90813-3682,31080,Metropolitan Statistical Area,Los Angeles,6037,6037576401,47,33.78,-118,83c*,83c*,Disabled,PRAC/811,19,58.13,,
1001162,DEL AMO GARDENS,225 W Del Amo Blvd,Long Beach,CA,90745,31080,Metropolitan Statistical Area,Los Angeles,6037,6037543501,44,33.83,-118,93c*,93c*,Elderly,Preservation,230,95.51,,
1014452,AMERICAN GOLD STAR MANOR,3021 N Gold Star Dr,Long Beach,CA,90810-2708,31080,Metropolitan Statistical Area,Los Angeles,6037,6037572500,47,33.81,-118,95c,95c,Elderly or disabled,,,,4% Tax Credit,
1014457,PARK PACIFIC TOWER,714 Pacific Ave,Long Beach,CA,90813-4234,31080,Metropolitan Statistical Area,Los Angeles,6037,6037575803,47,33.78,-118,91c*,94b,Elderly,LMSA,84,100.81,,CA16M000333
1018077,SEAMIST TOWER,1451 Atlantic Ave,Long Beach,CA,90813-2076,31080,Metropolitan Statistical Area,Los Angeles,6037,6037575300,47,33.78,-118,99b,99b,Elderly,202/8 NC,74,106.88,4% Tax Credit,
1018079,LONG BEACH MANOR,2209 Clark Ave,Long Beach,CA,90815-2522,31080,Metropolitan Statistical Area,Los Angeles,6037,6037574202,47,33.8,-118,90c*,84c,Disabled,PRAC/811,6,47.18,,
1018081,BELMENO MANOR,2441 Belmont Ave,Long Beach,CA,90815-1704,31080,Metropolitan Statistical Area,Los Angeles,6037,6037574202,47,33.8,-118,92a,92a,Disabled,PRAC/811,6,55,,
1018083,SCHERER PARK APARTMENTS,4676 Long Beach Blvd,Long Beach,CA,90805-6961,31080,Metropolitan Statistical Area,Los Angeles,6037,6037571502,47,33.84,-118,74c*,74c*,Elderly,Sec 8 NC,57,92.71,,
1018085,BEACHWOOD APARTMENTS,505 W 6th St,Long Beach,CA,90802-1109,31080,Metropolitan Statistical Area,Los Angeles,6037,6037575901,47,33.77,-118,52c*,66c*,Disabled,202/8 NC,44,102.15,4% Tax Credit,
1018086,PACIFIC COAST VILLA,690 E Pacific Coast Hwy,Long Beach,CA,90806-5520,31080,Metropolitan Statistical Area,Los Angeles,6037,6037573202,47,33.79,-118,73c*,75b,Family,Sec 8 NC,50,93.7,,
1027088,CASA CORAZON,408 Elm Ave,Long Beach,CA,90802-2428,31080,Metropolitan Statistical Area,Los Angeles,6037,6037576200,47,33.77,-118,91b,56c*,Disabled,PRAC/811,24,57.57,,
1027094,CASITAS DEL MAR II,1030 Olive Ave,Long Beach,CA,90813-3519,31080,Metropolitan Statistical Area,Los Angeles,6037,6037576302,47,33.78,-118,86b,79b,Family,Sec 8 NC,3,70.34,,
1027118,NORTHPOINTE APARTMENTS II,5441 N Paramount Blvd,Long Beach,CA,90805-5128,31080,Metropolitan Statistical Area,Los Angeles,6037,6037570603,44,33.86,-118,83c*,90c,Family,Preservation,87,92.94,4% Tax Credit,CA16M000378
1027168,FEDERATION TOWER,3801 E Willow St,Long Beach,CA,90815-1734,31080,Metropolitan Statistical Area,Los Angeles,6037,6037574202,47,33.81,-118,95a,95a,Elderly,202/8 NC,50,129.01,,
1027204,LUTHERAN TOWERS,2340 E 4th St,Long Beach,CA,90814-1173,31080,Metropolitan Statistical Area,Los Angeles,6037,6037576801,47,33.77,-118,66c,87c,Elderly,202/8 NC,92,111.9,,
1027246,CASITAS DEL MAR I,1324 E Hellman St,Long Beach,CA,90813-4981,31080,Metropolitan Statistical Area,Los Angeles,6037,6037576402,47,33.78,-118,54c,79b,Family,Sec 8 NC,4,72.83,,
1027258,PLYMOUTH WEST,240 Chestnut Ave,Long Beach,CA,90802-2949,31080,Metropolitan Statistical Area,Los Angeles,6037,6037575902,47,33.77,-118,82b*,84c,Elderly,LMSA,137,109.26,4% Tax Credit,
1027278,NEW HOPE HOME,1150 E New York St,Long Beach,CA,90813-2217,31080,Metropolitan Statistical Area,Los Angeles,6037,6037575201,47,33.78,-118,80c,88c,Elderly,LMSA,140,86.1,4% Tax Credit,
1027286,COVENANT MANOR,600 E 4th St,Long Beach,CA,90802-2681,31080,Metropolitan Statistical Area,Los Angeles,6037,6037576200,47,33.77,-118,90b,90b,Elderly,202/8 NC,100,102.36,4% Tax Credit,
1027293,PROVIDENCE GARDENS,1011 Pine Ave,Long Beach,CA,90813-3149,31080,Metropolitan Statistical Area,Los Angeles,6037,6037575803,47,33.78,-118,98b,90c,Elderly,LMSA,157,111.52,4% Tax Credit,
1027314,CASITAS DEL MAR III,1430 E 17th St,Long Beach,CA,90813-2312,31080,Metropolitan Statistical Area,Los Angeles,6037,6037575201,47,33.79,-118,53c*,60b*,Family,Sec 8 NC,3,74,,
1027335,ST MARY'S TOWER,1120 Atlantic Ave,Long Beach,CA,90813-3378,31080,Metropolitan Statistical Area,Los Angeles,6037,6037576302,47,33.78,-118,97c,69c,Elderly,202/8 NC,148,101.37,,
1027462,LONG BEACH SENIOR HOUSING,575 E Vernon St,Long Beach,CA,90806-3180,31080,Metropolitan Statistical Area,Los Angeles,6037,6037573201,47,33.8,-118,92b,91b,Elderly,PRAC/202,65,48.9,,
1028107,CITYVIEW APARTMENTS (FKA BRETHREN MANOR),3333 Pacific Pl,Long Beach,CA,90806-1259,31080,Metropolitan Statistical Area,Los Angeles,6037,6037572201,47,33.82,-118,92b,92b,,,,,4% Tax Credit,
1028297,BEECHWOOD TERRACE,1117 Elm Ave,Long Beach,CA,90813-3299,31080,Metropolitan Statistical Area,Los Angeles,6037,6037576301,47,33.78,-118,,,Family,,,,9% Tax Credit,
1028393,PACIFIC COURT APARTMENTS,250 Pacific Ave,Long Beach,CA,90802-3000,31080,Metropolitan Statistical Area,Los Angeles,6037,6037575902,47,33.77,-118,,,,,,,4% Tax Credit,
1028430,CAMBRIDGE PLACE,421 W 33rd St,Long Beach,CA,90806-7386,31080,Metropolitan Statistical Area,Los Angeles,6037,6037572201,47,33.82,-118,,,Family,,,,9% Tax Credit,
1028562,SEA GATE VILLAGE,1450 Locust Ave,Long Beach,CA,90813-5626,31080,Metropolitan Statistical Area,Los Angeles,6037,6037575402,47,33.78,-118,,,Elderly or disabled,,,,9% Tax Credit,
1029070,VILLAGES AT CABRILLO,2001 River Ave,Long Beach,CA,90810-3622,31080,Metropolitan Statistical Area,Los Angeles,6037,6037572800,47,33.79,-118,,,,,,,9% Tax Credit,
1029202,SPRINGDALE WEST APARTMENTS I & II,3120 N Springdale Dr,Long Beach,CA,90810-2696,31080,Metropolitan Statistical Area,Los Angeles,6037,6037572500,47,33.82,-118,90b,84c,Family,LMSA,186,83.95,4% Tax Credit,CA16M000304
1029516,FAMILY COMMONS AT CABRILLO,2111 W Williams St,Long Beach,CA,90810-3627,31080,Metropolitan Statistical Area,Los Angeles,6037,6037572800,47,33.79,-118,,,Family,,,,9% Tax Credit,
1029568,GRISHAM COMMUNITY HOUSING,11 W 49th St,Long Beach,CA,90805-7704,31080,Metropolitan Statistical Area,Los Angeles,6037,6037571701,44,33.85,-118,,,Family,,,,4% Tax Credit,
1029741,DECRO LONG BEACH,745 Alamitos Ave,Long Beach,CA,90813-4700,31080,Metropolitan Statistical Area,Los Angeles,6037,6037576401,47,33.78,-118,,,Family,,,,4% Tax Credit,
1029889,PACIFIC CITY LIGHTS,1643 Pacific Ave,Long Beach,CA,90813-6703,31080,Metropolitan Statistical Area,Los Angeles,6037,6037575401,47,33.79,-118,,,Family,,,,9% Tax Credit,
1030193,EVERGREEN APARTMENTS,1528 Freeman Ave,Long Beach,CA,90804-1774,31080,Metropolitan Statistical Area,Los Angeles,6037,6037575103,47,33.79,-118,,,,,,,4% Tax Credit,
1030854,ELM AVENUE APARTMENTS,530 Elm Ave,Long Beach,CA,90802-2413,31080,Metropolitan Statistical Area,Los Angeles,6037,6037576200,47,33.77,-118,,,,,,,9% Tax Credit,
1030955,PUERTO DEL SOL APARTMENTS,745 W 3rd St,Long Beach,CA,90802-2709,31080,Metropolitan Statistical Area,Los Angeles,6037,6037575901,47,33.77,-118,,,Family,,,,4% Tax Credit,
1031173,LONG BEACH BURNETT APARTMENTS,2355 Long Beach Blvd,Long Beach,CA,90806-3289,31080,Metropolitan Statistical Area,Los Angeles,6037,6037573100,47,33.8,-118,,,Family,,,,9% Tax Credit,
1031574,CASITAS DEL MAR IV,851 Martin Luther King Jr Ave,Long Beach,CA,90813-4733,31080,Metropolitan Statistical Area,Los Angeles,6037,6037576302,47,33.78,-118,81a*,95a,Family,Sec 8 NC,2,76.45,,
1031620,PALACE HOTEL,2640 E Anaheim St,Long Beach,CA,90804-1209,31080,Metropolitan Statistical Area,Los Angeles,6037,6037576903,47,33.78,-118,,,,,,,TCEP,
1031667,COURTYARDS IN LONG BEACH,1027 Redondo Ave,Long Beach,CA,90804,31080,Metropolitan Statistical Area,Los Angeles,6037,6037576903,47,33.78,-118,,,,,,,9% Tax Credit,
1032798,LONG BEACH SENIOR ARTISTS COLONY,200 E Anaheim St,Long Beach,CA,90813-5432,31080,Metropolitan Statistical Area,Los Angeles,6037,6037576301,47,33.78,-118,,,Elderly or disabled,,,,4% Tax Credit,
1032799,LONG BEACH & ANAHEIM,225 E 12th St,Long Beach,CA,90813-3190,31080,Metropolitan Statistical Area,Los Angeles,6037,6037576301,47,33.78,-118,,,Elderly or disabled,,,,9% Tax Credit,
1102597,CABRILLO GATEWAY,2000 San Gabriel Ave,Long Beach,CA,90810-3601,31080,Metropolitan Statistical Area,Los Angeles,6037,6037572800,47,33.79,-118,,,Family,,,,9% Tax Credit,
1103443,RAMONA PARK SENIOR,3290 E Artesia Blvd,Long Beach,CA,90805-7000,31080,Metropolitan Statistical Area,Los Angeles,6037,6037570204,44,33.87,-118,,,Elderly or disabled,,,,4% Tax Credit,
1104052,LONG BEACH + 21ST APARTMENTS,2114 Long Beach Blvd,Long Beach,CA,90806-4814,31080,Metropolitan Statistical Area,Los Angeles,6037,6037573202,47,33.8,-118,,,Elderly or disabled,,,,,
1127126,IMMANUEL PLACE (FKA IMMANUEL SENIOR HOUSING),3215 E 3rd St,Long Beach,CA,90814-2511,31080,Metropolitan Statistical Area,Los Angeles,6037,6037577100,47,33.77,-118,,,Elderly or disabled,,,,9% Tax Credit,
1162222,BEACON PLACE,1201 Long Beach Blvd,Long Beach,CA,90813-3435,31080,Metropolitan Statistical Area,Los Angeles,6037,6037576301,47,33.78,-118,,,,,,,9% Tax Credit,
1000045,WESTERN GARDENS,1742 W 84th Pl,Los Angeles,CA,90047-3065,31080,Metropolitan Statistical Area,Los Angeles,6037,6037238100,37,33.96,-118,83b,77b,Family,Sec 8 NC,35,90.06,,
1000047,GEORGE MCDONALD COURT APARTMENTS,1800 E 92nd St,Los Angeles,CA,90002-2461,31080,Metropolitan Statistical Area,Los Angeles,6037,6037242200,44,33.95,-118,90b,90b,Elderly,PRAC/202,60,59.68,,
1000049,SUBSIDIZED HOUSING CORPORATION 4,232 S Avenue 56,Los Angeles,CA,90042-4610,31080,Metropolitan Statistical Area,Los Angeles,6037,6037183820,34,34.11,-118,98a,97a,Family,Sec 8 NC,1,60.22,,CA160060023
1000051,ST NICHOLAS CEDARS MANOR,2323 W 4th St,Los Angeles,CA,90057-2748,31080,Metropolitan Statistical Area,Los Angeles,6037,6037208802,34,34.06,-118,93b*,93b*,Elderly,Sec 8 NC,26,87.75,,
1000053,MIDWILSHIRE APARTMENTS,2826 S La Salle Ave,Los Angeles,CA,90018-3184,31080,Metropolitan Statistical Area,Los Angeles,6037,6037222200,37,34.03,-118,89b,89b,Family,LMSA,7,90.09,,CA16L000001
1000054,SUBSIDIZED HOUSING CORPORATION 44,5415 Geer St,Los Angeles,CA,90016-3323,31080,Metropolitan Statistical Area,Los Angeles,6037,6037219901,37,34.03,-118,80c,87b,Family,Sec 8 NC,1,60.3,,CA160068019
1000056,E VICTOR VILLA,555 W 92nd St,Los Angeles,CA,90044-5654,31080,Metropolitan Statistical Area,Los Angeles,6037,6037240300,43,33.95,-118,73c*,75c*,Elderly,LMSA,42,85.05,4% Tax Credit,
1000058,MARIPOSA MANOR,756 S Mariposa Ave,Los Angeles,CA,90005-2082,31080,Metropolitan Statistical Area,Los Angeles,6037,6037212304,34,34.06,-118,94b,94b,Elderly,PRAC/202,69,43.17,,
1000060,DIANE APARTMENTS,782 N Van Ness Ave,Los Angeles,CA,90038-3136,31080,Metropolitan Statistical Area,Los Angeles,6037,6037191710,28,34.09,-118,86c,70c,Family,Sec 8 SR,61,95.94,,
1000168,HOLLYWOOD PARKVIEW APARTMENTS,1244 S Lake St,Los Angeles,CA,90006-3668,31080,Metropolitan Statistical Area,Los Angeles,6037,6037209810,34,34.05,-118,84c*,94b,Family,LMSA,32,43.3,,
1001174,ONE SANTA FE,100 N Santa Fe Ave,Los Angeles,CA,90012-4021,31080,Metropolitan Statistical Area,Los Angeles,6037,6037206031,34,34.05,-118,69c,66c*,,,,,4% Tax Credit,
1001178,WATTS ARMS I,10130 Beach St,Los Angeles,CA,90002-3921,31080,Metropolitan Statistical Area,Los Angeles,6037,6037242200,44,33.94,-118,87c,80c,Family,LMSA,104,80.46,,
1001188,LA PRO II,1100 S Berendo St,Los Angeles,CA,90006-3353,31080,Metropolitan Statistical Area,Los Angeles,6037,6037213320,34,34.05,-118,84c,85c,Family,LMSA,80,95.4,,
1001190,BILLY G MILLS MANOR,1115 W 37th Pl,Los Angeles,CA,90007-4276,31080,Metropolitan Statistical Area,Los Angeles,6037,6037222600,37,34.02,-118,84b*,96c*,Family,Sec 8 NC,102,106.57,,
1001192,DOLORES-FRANCES APARTMENTS,1119 W 17th St,Los Angeles,CA,90015-3385,31080,Metropolitan Statistical Area,Los Angeles,6037,6037224320,34,34.04,-118,73b,79c,Family,Sec 8 NC,18,88.28,,CA168023019
1001194,SUNSET-NORMANDIE TOWERS,1428 N Normandie Ave,Los Angeles,CA,90027-5846,31080,Metropolitan Statistical Area,Los Angeles,6037,6037191201,28,34.1,-118,78c,95b,Elderly,Sec 8 NC,147,107.72,,
1001196,LA POSADA,151 N Sunol Dr,Los Angeles,CA,90063-1400,31080,Metropolitan Statistical Area,Los Angeles,6037,6037531102,40,34.04,-118,88c,82c,Elderly,202/8 NC,74,84.88,,
1001204,HARVARD GARDENS,1938 S Harvard Blvd,Los Angeles,CA,90018,31080,Metropolitan Statistical Area,Los Angeles,6037,6037221402,34,34.04,-118,92c,96b*,Family,Sec 8 NC,35,93.9,,
1001206,ST ANDREWS GARDENS,2062 W Adams Blvd,Los Angeles,CA,90018-2054,31080,Metropolitan Statistical Area,Los Angeles,6037,6037221401,37,34.03,-118,91b,91b,Family,Preservation,175,97.7,,
1001212,MIYAKO GARDEN APARTMENTS,223 S Central Ave,Los Angeles,CA,90012-4211,31080,Metropolitan Statistical Area,Los Angeles,6037,6037206200,34,34.05,-118,81c,92a,Elderly,Sec 8 NC,100,137.79,,
1001216,VAN BUREN APARTMENTS,2723 Van Buren Pl,Los Angeles,CA,90007-2166,31080,Metropolitan Statistical Area,Los Angeles,6037,6037222200,37,34.03,-118,93b,93b,Family,LMSA,28,58.4,,
1001222,LAS PALOMAS APARTMENTS,3025 Gleason Ave,Los Angeles,CA,90063-3066,31080,Metropolitan Statistical Area,Los Angeles,6037,6037204110,34,34.04,-118,35c,84b,Elderly,Sec 8 NC,47,98.69,,
1001234,FAIRMOUNT TERRACE I AND II,4000 Fairmount St,Los Angeles,CA,90063-3349,31080,Metropolitan Statistical Area,Los Angeles,6037,6037530902,34,34.05,-118,88c,93b,Elderly,LMSA,207,105.13,,
1001236,STOVALL TERRACE APARTMENTS,4075 S Figueroa St,Los Angeles,CA,90037-2055,31080,Metropolitan Statistical Area,Los Angeles,6037,6037231720,37,34.01,-118,95b,95b,Elderly,202/8 NC,95,117.67,,
1001241,CASA SERENA APARTMENTS,5017 Axtell St,Los Angeles,CA,90032-2262,31080,Metropolitan Statistical Area,Los Angeles,6037,6037201503,34,34.09,-118,84b,93b,Elderly,Sec 8 NC,29,88.72,,
1001243,WESTSIDE JEWISH CENTER APARTMENTS,5877 San Vicente Blvd,Los Angeles,CA,90019-6623,31080,Metropolitan Statistical Area,Los Angeles,6037,6037216300,37,34.06,-118,96c,84b,Elderly,202/8 NC,102,120.06,,
1001245,HOLLYWOOD FOUNTAIN SOUTH,6222 Fountain Ave,Los Angeles,CA,90028-8273,31080,Metropolitan Statistical Area,Los Angeles,6037,6037190801,28,34.09,-118,90b,90b,Elderly,Sec 8 NC,72,118,,
1001260,HOLLYWOOD FOUNTAIN NORTH,6233 Fountain Ave,Los Angeles,CA,90028-8266,31080,Metropolitan Statistical Area,Los Angeles,6037,6037190801,28,34.09,-118,94c,94b*,Elderly,Sec 8 NC,88,120.74,,
1001262,80TH STREET APARTMENTS,710 W 80th St,Los Angeles,CA,90044-5945,31080,Metropolitan Statistical Area,Los Angeles,6037,6037238310,37,33.97,-118,93b,93b,Family,LMSA,16,83.43,,
1008098,CASA TELACU,251 S Arizona Ave,Los Angeles,CA,90022-1600,31080,Metropolitan Statistical Area,Los Angeles,6037,6037530500,40,34.03,-118,96b,80b,Elderly,202/8 NC,74,77.14,,
1008100,ADAMS BLVD APARTMENTS,4230 W Adams Blvd,Los Angeles,CA,90018-2275,31080,Metropolitan Statistical Area,Los Angeles,6037,6037218702,37,34.03,-118,99a,99a,Family,Sec 8 NC,12,94.06,,
1008102,CARONDELET SNR CIT APARTMENTS,512 S Carondelet St,Los Angeles,CA,90057-1868,31080,Metropolitan Statistical Area,Los Angeles,6037,6037208802,34,34.06,-118,99a,93b,Elderly,Sec 8 NC,46,100.47,,
1008104,S & J LIMITED II,679 E 41st St,Los Angeles,CA,90011-2738,31080,Metropolitan Statistical Area,Los Angeles,6037,6037228310,40,34.01,-118,91c*,85c*,Family,Sec 8 SR,73,84.47,,
1008105,IMOGENE HOUSING,716 Imogen Ave,Los Angeles,CA,90026-3582,31080,Metropolitan Statistical Area,Los Angeles,6037,6037195903,28,34.08,-118,86c,89b,Family,Sec 8 NC,16,100.73,,
1008488,ALLESANDRO STREET APARTMENTS,1934 Allesandro St,Los Angeles,CA,90039-3984,31080,Metropolitan Statistical Area,Los Angeles,6037,6037197410,28,34.09,-118,67c,67c,Disabled,PRAC/811,17,59.43,,
1008920,ECHO PARK SENIOR HOUSING,1727 Morton Ave,Los Angeles,CA,90026-2697,31080,Metropolitan Statistical Area,Los Angeles,6037,6037197300,28,34.08,-118,87b,87b,Elderly,PRAC/202,40,63.3,,
1009260,HELMS MANOR,3704 Military Ave,Los Angeles,CA,90034-7017,31080,Metropolitan Statistical Area,Los Angeles,6037,6037271801,37,34.02,-118,92b,90b,Disabled,PRAC/811,5,71.65,,
1009600,PALMS MANOR,3740 Kelton Ave,Los Angeles,CA,90034-7124,31080,Metropolitan Statistical Area,Los Angeles,6037,6037271802,37,34.02,-118,96b,96b,Disabled,PRAC/811,5,69.41,,
1013138,LIME HOUSE,1800 W Martin Luther King Jr Blvd,Los Angeles,CA,90062-1577,31080,Metropolitan Statistical Area,Los Angeles,6037,6037231500,37,34.01,-118,88c*,83c,Elderly,PRAC/202,33,56.51,,
1013301,WATERLOO HEIGHTS APARTMENTS,1011 Waterloo St,Los Angeles,CA,90026-3087,31080,Metropolitan Statistical Area,Los Angeles,6037,6037195710,28,34.08,-118,86c,96b,Disabled,PRAC/811,17,65.65,,
1013307,WESTMINSTER ARMS,3405 Arlington Ave,Los Angeles,CA,90018-3755,31080,Metropolitan Statistical Area,Los Angeles,6037,6037219020,37,34.03,-118,97a,91b,Elderly,PRAC/202,55,43.22,,
1014461,BEVERLY PARK SENIOR,1071 S La Cienega Blvd,Los Angeles,CA,90035-2560,31080,Metropolitan Statistical Area,Los Angeles,6037,6037216401,37,34.06,-118,88b,95b,Family,Sec 8 NC,49,129.96,4% Tax Credit,
1014465,HOLIDAY 101 A,1102 W 41st Pl,Los Angeles,CA,90037-1838,31080,Metropolitan Statistical Area,Los Angeles,6037,6037231600,37,34.01,-118,87b,87b,Family,LMSA,71,86.3,,CA16M000223
1014467,BROWNING APARTMENTS,1104 Browning Blvd,Los Angeles,CA,90037-1662,31080,Metropolitan Statistical Area,Los Angeles,6037,6037231220,37,34.01,-118,99a,96b*,Family,Sec 8 NC,5,101.94,,
1014475,GRIFFITH GARDENS,1144 E 24th St,Los Angeles,CA,90011-1642,31080,Metropolitan Statistical Area,Los Angeles,6037,6037226420,40,34.02,-118,89c,97a,Family,LMSA,39,104.52,,
1014482,TOWNE SQUARE APARTMENTS,11620 Towne Ave,Los Angeles,CA,90061-2955,31080,Metropolitan Statistical Area,Los Angeles,6037,6037241001,43,33.93,-118,97b,88b,Family,LMSA,50,88.33,,
1014490,METRO WEST VILLAGE APARTMENTS,1212 W 110th St,Los Angeles,CA,90044-1447,31080,Metropolitan Statistical Area,Los Angeles,6037,6037600303,43,33.94,-118,68c*,78c*,Family,LMSA,40,60.89,,CA16M000217
1014503,L A PRO 30,1340 S Westlake Ave,Los Angeles,CA,90006-5076,31080,Metropolitan Statistical Area,Los Angeles,6037,6037224310,34,34.05,-118,90c,90c,Family,LMSA,101,79.86,,
1014507,VENDOME COURTS,135 S Reno St,Los Angeles,CA,90057-1140,31080,Metropolitan Statistical Area,Los Angeles,6037,6037208610,34,34.07,-118,94b,94b,Family,LMSA,50,121.92,,
1014549,JEWEL TERRACES,1420 W 27th St,Los Angeles,CA,90007-2171,31080,Metropolitan Statistical Area,Los Angeles,6037,6037221810,37,34.03,-118,83c,86b*,Family,LMSA,32,96.08,,
1014553,MANHATTAN GARDENS,1424 S Manhattan Pl,Los Angeles,CA,90019-4703,31080,Metropolitan Statistical Area,Los Angeles,6037,6037221303,34,34.05,-118,96a,96a,Family,Sec 8 NC,5,92.45,,
1014575,SUNSET APARTMENTS,1711 Park Ave,Los Angeles,CA,90026-3261,31080,Metropolitan Statistical Area,Los Angeles,6037,6037197500,28,34.08,-118,77c,96c,Family,LMSA,81,45.15,,
1014577,WATTS ARMS II,1720 E Century Blvd,Los Angeles,CA,90002-3063,31080,Metropolitan Statistical Area,Los Angeles,6037,6037242200,44,33.95,-118,89b,79c*,Elderly,LMSA,40,77.94,,
1014583,VILLA ST ANDREWS,1840 S St Andrews Pl,Los Angeles,CA,90019-6456,31080,Metropolitan Statistical Area,Los Angeles,6037,6037221302,34,34.04,-118,88a,99b,Family,LMSA,13,46.8,,
1014587,CASTLE ARGYLE APARTMENTS,1919 Argyle Ave,Los Angeles,CA,90068-3965,31080,Metropolitan Statistical Area,Los Angeles,6037,6037189500,28,34.11,-118,92b,92b,Elderly,LMSA,97,54.64,,
1014591,CASA DE WOODS,1951 W 22nd St,Los Angeles,CA,90018-1660,31080,Metropolitan Statistical Area,Los Angeles,6037,6037221500,37,34.04,-118,81b*,69b*,Family,LMSA,20,99.1,,
1014607,CASA LONGWOOD,2535 S Longwood Ave,Los Angeles,CA,90016-2853,31080,Metropolitan Statistical Area,Los Angeles,6037,6037219700,37,34.03,-118,80c,80c,Elderly,LMSA,20,62.4,,
1014609,LOS ANGELES GARDENS,2624 S Harvard Blvd,Los Angeles,CA,90018-3556,31080,Metropolitan Statistical Area,Los Angeles,6037,6037222200,37,34.03,-118,92b,97b,Family,LMSA,101,54,,
1014613,PRESERVATION I,2628 West Blvd,Los Angeles,CA,90016-3065,31080,Metropolitan Statistical Area,Los Angeles,6037,6037220000,37,34.03,-118,84c*,73c,Family,LMSA,60,71.76,,CA16M000347
1014619,VISTA TOWER,3000 Leeward Ave,Los Angeles,CA,90005-1463,31080,Metropolitan Statistical Area,Los Angeles,6037,6037212203,34,34.06,-118,99b,99b,Elderly,LMSA,146,103.06,4% Tax Credit,
1014623,BEVERLY MANOR,334 N Normandie Ave,Los Angeles,CA,90004-4433,31080,Metropolitan Statistical Area,Los Angeles,6037,6037192620,34,34.08,-118,64c,64c,Family,LMSA,58,40.94,,
1014625,PREMIER APARTMENTS,368 E Imperial Hwy,Los Angeles,CA,90061-3046,31080,Metropolitan Statistical Area,Los Angeles,6037,6037241001,43,33.93,-118,76c,91c*,Family,LMSA,120,65.47,,
1014627,HUBBARD STREET ARMS,3739 Hubbard St,Los Angeles,CA,90023-1844,31080,Metropolitan Statistical Area,Los Angeles,6037,6037531202,40,34.03,-118,97a,97a,Family,LMSA,6,94.66,,
1014639,HOLIDAY 101 B,4163 Monroe St,Los Angeles,CA,90029-2854,31080,Metropolitan Statistical Area,Los Angeles,6037,6037191420,28,34.09,-118,97b,97b,Family,LMSA,117,94.81,,
1014643,TWO WORLDS II,420 S Union Ave,Los Angeles,CA,90017-1056,31080,Metropolitan Statistical Area,Los Angeles,6037,6037209102,34,34.06,-118,85c,85c,Family,LMSA,60,83.42,,
1014645,HOLIDAY 102,427 Union Dr,Los Angeles,CA,90017-1551,31080,Metropolitan Statistical Area,Los Angeles,6037,6037208904,34,34.06,-118,90c,67c*,Family,LMSA,54,92.45,,CA16M000231
1014647,LITTLE TOKYO TOWERS,455 E 3rd St,Los Angeles,CA,90013-1634,31080,Metropolitan Statistical Area,Los Angeles,6037,6037206200,34,34.05,-118,88c,89a,Elderly,LMSA,180,43.05,,
1014649,FIGUEROA GARDENS APARTMENTS,4550 N Figueroa St,Los Angeles,CA,90065-3042,31080,Metropolitan Statistical Area,Los Angeles,6037,6037185100,34,34.1,-118,81c*,96b,Family,Preservation,71,84.24,,
1014655,HOLLYWOOD WEST APARTMENTS,5822 Willoughby Ave,Los Angeles,CA,90038-3048,31080,Metropolitan Statistical Area,Los Angeles,6037,6037191820,28,34.09,-118,82c,94c,Family,LMSA,79,46.67,,
1014657,615 MANHATTAN,615 S Manhattan Pl,Los Angeles,CA,90005-3068,31080,Metropolitan Statistical Area,Los Angeles,6037,6037211704,34,34.06,-118,61c*,92b,Elderly,LMSA,115,104.11,4% Tax Credit,CA16M000330
1014659,JUANITA APARTMENTS,624 N Juanita Ave,Los Angeles,CA,90004-2200,31080,Metropolitan Statistical Area,Los Angeles,6037,6037192700,28,34.08,-118,88b,88b,Family,Sec 8 NC,5,93.76,,
1014681,HAVEN 502,825 W Adams Blvd,Los Angeles,CA,90007-2565,31080,Metropolitan Statistical Area,Los Angeles,6037,6037224420,37,34.03,-118,90c,82b,Family,LMSA,102,75.57,,
1014685,CANNON APARTMENTS,9215 Hooper Ave,Los Angeles,CA,90002-2033,31080,Metropolitan Statistical Area,Los Angeles,6037,6037535200,44,33.95,-118,91c*,71c*,Family,Preservation,35,70.52,,
1017182,BUDLONG APARTMENTS,11015 S Budlong Ave,Los Angeles,CA,90044-1565,31080,Metropolitan Statistical Area,Los Angeles,6037,6037600303,43,33.93,-118,95b,95b,Family,LMSA,20,62.43,,
1017184,LEASTER APARTMENTS,1422 Miramar St,Los Angeles,CA,90026-6054,31080,Metropolitan Statistical Area,Los Angeles,6037,6037208302,34,34.06,-118,78c,94b*,Family,202/8 NC,35,75.51,,CA16L000019
1017190,PRINCESS APARTMENTS,1648 N Kingsley Dr,Los Angeles,CA,90027-5067,31080,Metropolitan Statistical Area,Los Angeles,6037,6037190520,28,34.1,-118,90c,91c,Family,LMSA,58,91.26,,
1017194,OXFORD PARK,1920 S Oxford Ave,Los Angeles,CA,90018-1549,31080,Metropolitan Statistical Area,Los Angeles,6037,6037221402,34,34.04,-118,99a,95b,Elderly,Preservation,108,97.19,,
1017197,DUDLEY OAKS,2119 Oak St,Los Angeles,CA,90007-1912,31080,Metropolitan Statistical Area,Los Angeles,6037,6037224410,37,34.03,-118,80b,80b,Family,Preservation,20,113.93,,
1017198,MCA #3 APARTMENTS,3940 Gibraltar Ave,Los Angeles,CA,90008-1265,31080,Metropolitan Statistical Area,Los Angeles,6037,6037236202,37,34.02,-118,81c*,62c*,Family,PD/8 Existing,20,104.35,,
1018088,1035 W 39TH ST APARTMENTS,1035 W 39th St,Los Angeles,CA,90037-1592,31080,Metropolitan Statistical Area,Los Angeles,6037,6037231220,37,34.02,-118,73c,68b,Family,Sec 8 NC,5,123.08,,
1018090,MAIN STREET NEW HOPE COURTYARD,109 W 56th St,Los Angeles,CA,90037-4511,31080,Metropolitan Statistical Area,Los Angeles,6037,6037232800,40,33.99,-118,93b,93b,Elderly,PRAC/811,24,64.73,,
1018092,SOUTHSIDE APARTMENTS,10950 S Central Ave,Los Angeles,CA,90059-1024,31080,Metropolitan Statistical Area,Los Angeles,6037,6037242000,43,33.94,-118,89b,89c,Disabled,PD/8 Existing,32,52.49,,
1018094,GRANDVIEW HOMES,1114 S Grand View St,Los Angeles,CA,90006-3657,31080,Metropolitan Statistical Area,Los Angeles,6037,6037209810,34,34.05,-118,98b,93b,Family,Sec 8 NC,26,98.07,,
1018096,CASA DEVELOPMENT,1151 N New Hampshire Ave,Los Angeles,CA,90029-1707,31080,Metropolitan Statistical Area,Los Angeles,6037,6037191203,28,34.09,-118,96b,96b*,Family,LMSA,158,47.85,,
1018100,JEFFERSON VILLAS,1286 W Jefferson Blvd,Los Angeles,CA,90007,31080,Metropolitan Statistical Area,Los Angeles,6037,6037222600,37,34.03,-118,84c,84c,Family,Sec 8 NC,5,93.57,,
1018102,HAVEN 501,1330 S Burlington Ave,Los Angeles,CA,90006-5468,31080,Metropolitan Statistical Area,Los Angeles,6037,6037224320,34,34.05,-118,83c,79b,Family,LMSA,48,37.25,,
1018106,TELACU PICO ALISO,1450 E 1st St,Los Angeles,CA,90033-3327,31080,Metropolitan Statistical Area,Los Angeles,6037,6037206032,34,34.05,-118,94b,94b,Elderly,PRAC/202,74,49.34,,
1018108,WILLS MANOR,1510 W 27th St,Los Angeles,CA,90007-2143,31080,Metropolitan Statistical Area,Los Angeles,6037,6037221810,37,34.03,-118,90b*,93c,Disabled,PRAC/811,7,84.42,,
1018110,CORONADO VILLAS,1632 N Coronado St,Los Angeles,CA,90026,31080,Metropolitan Statistical Area,Los Angeles,6037,6037195500,28,34.09,-118,91b,91b,Family,Sec 8 NC,5,129.51,,
1018114,JEFFERSON TOWNHOMES,1693 W Jefferson Blvd,Los Angeles,CA,90018-3973,31080,Metropolitan Statistical Area,Los Angeles,6037,6037222100,37,34.03,-118,85c*,85c*,Family,Sec 8 NC,30,110.49,4% Tax Credit,
1018118,GLAD PROJECT,2222 Laverna Ave,Los Angeles,CA,90041-2660,31080,Metropolitan Statistical Area,Los Angeles,6037,6037181600,34,34.13,-118,45c,42c,Family,PRAC/811,14,92.18,,
1018120,PARK VIEW TERRACE APARTMENTS,2451 W 7th St,Los Angeles,CA,90057-3959,31080,Metropolitan Statistical Area,Los Angeles,6037,6037208802,34,34.06,-118,95c,95c,Elderly,Sec 8 NC,94,97.02,,
1018122,SUBSIDIZED HOUSING CORPORATION 116,247 W 84th St,Los Angeles,CA,90003-2815,31080,Metropolitan Statistical Area,Los Angeles,6037,6037239702,43,33.96,-118,81b,82b,Family,Sec 8 NC,1,65.17,,CA160068024
1018124,WESTSIDE CLOVERDALE,3006 S Cloverdale Ave,Los Angeles,CA,90016-3835,31080,Metropolitan Statistical Area,Los Angeles,6037,6037219901,37,34.03,-118,51b,51b,Family,PD/8 Existing,8,94.39,,
1018126,GREENFIELD MANOR,3753 Greenfield Ave,Los Angeles,CA,90034-7029,31080,Metropolitan Statistical Area,Los Angeles,6037,6037271801,37,34.02,-118,84b,84b,Disabled,PRAC/811,5,91.4,,
1018128,BALDWIN VILLA PLAZA,3939 Marlton Ave,Los Angeles,CA,90008-1753,31080,Metropolitan Statistical Area,Los Angeles,6037,6037236100,37,34.01,-118,98b,90c,Elderly,HFDA/8 NC,200,108.41,,
1018130,WILTON WILSHIRE ARMS,3966 Wilshire Blvd,Los Angeles,CA,90010-3309,31080,Metropolitan Statistical Area,Los Angeles,6037,6037212610,34,34.06,-118,94b,98b,Elderly,Sec 8 NC,72,99.34,,
1018134,WILLOW BROOK VILLA,4341 Willow Brook Ave Apt 316,Los Angeles,CA,90029-2922,31080,Metropolitan Statistical Area,Los Angeles,6037,6037191410,28,34.09,-118,99a,90c*,Elderly,Sec 8 NC,84,116.19,,
1018138,UNION FERRARO TOWERS,455 S Union Ave,Los Angeles,CA,90017-1005,31080,Metropolitan Statistical Area,Los Angeles,6037,6037208904,34,34.06,-118,95b,95b,Family,Sec 8 NC,200,107.16,,
1018142,10TH AVE TOWN HOMES,6312 10th Ave,Los Angeles,CA,90043-4171,31080,Metropolitan Statistical Area,Los Angeles,6037,6037234901,37,33.98,-118,55c*,55c*,Family,Sec 8 NC,5,80.81,,
1018144,97TH ST TOWNHOMES,731 W 97th St,Los Angeles,CA,90044-4609,31080,Metropolitan Statistical Area,Los Angeles,6037,6037240401,43,33.95,-118,93b,75b,Family,Sec 8 NC,5,82.15,,
1018146,HOLIDAY 101 C,751 N Hoover St,Los Angeles,CA,90029-3617,31080,Metropolitan Statistical Area,Los Angeles,6037,6037191420,28,34.08,-118,91b*,91b*,Family,LMSA,47,94,,CA16L000078
1018148,NEW HAMPSHIRE ARMS,819 S New Hampshire Ave,Los Angeles,CA,90005,31080,Metropolitan Statistical Area,Los Angeles,6037,6037212306,34,34.06,-118,84c,97b,Elderly,Sec 8 NC,36,94.14,,
1023088,ACCESSIBLE APARTMENTS NO 1-LOS ANGELES,2628 Brighton Ave,Los Angeles,CA,90018-2752,31080,Metropolitan Statistical Area,Los Angeles,6037,6037222200,37,34.03,-118,87b,87b,Disabled,202/8 NC,12,115.38,,
1023108,CATHAY MANOR,600 N Broadway,Los Angeles,CA,90012-2840,31080,Metropolitan Statistical Area,Los Angeles,6037,6037207102,34,34.06,-118,50c,50c,Elderly,202/8 NC,268,69.84,,
1023118,CASA PAREDES,501 N Soto St,Los Angeles,CA,90033-1972,31080,Metropolitan Statistical Area,Los Angeles,6037,6037203600,34,34.05,-118,82c*,82c*,Disabled,202/8 NC,10,95.43,4% and 9% Tax Credit,
1023145,PICO WOOSTER SR CTZ HSNG,1425 S Wooster St,Los Angeles,CA,90035-3456,31080,Metropolitan Statistical Area,Los Angeles,6037,6037217002,37,34.05,-118,84c,84c,Elderly,202/8 NC,49,131.66,,
1023166,TELACU PLAZA,1033 S Hope St,Los Angeles,CA,90015-1430,31080,Metropolitan Statistical Area,Los Angeles,6037,6037207900,34,34.04,-118,97b,97b,Disabled,202/8 NC,39,117.88,,
1023567,ALICE MANOR,10325 Grandee Ave,Los Angeles,CA,90002-3651,31080,Metropolitan Statistical Area,Los Angeles,6037,6037242700,44,33.94,-118,83c,60c*,Elderly,202/8 NC,60,64.11,,
1023571,FAME ARMS,2420 S Western Ave,Los Angeles,CA,90018-2650,31080,Metropolitan Statistical Area,Los Angeles,6037,6037221500,37,34.03,-118,38c,38c,Disabled,202/8 NC,39,94.39,,
1027072,BOYLE APARTMENTS,427 S Boyle Ave,Los Angeles,CA,90033-3852,31080,Metropolitan Statistical Area,Los Angeles,6037,6037206050,34,34.04,-118,76b,86b*,Family,LMSA,34,73.48,,
1027074,BURLINGTON ARMS,817 S Burlington Ave,Los Angeles,CA,90057-4250,31080,Metropolitan Statistical Area,Los Angeles,6037,6037209403,34,34.05,-118,97b,78c,Elderly,HFDA/8 NC,54,108.49,,
1027078,FINLEY SQUARE,407 E 120th St,Los Angeles,CA,90061-2830,31080,Metropolitan Statistical Area,Los Angeles,6037,6037241002,44,33.92,-118,80c,80c,Family,LMSA,18,74.87,,
1027079,BUCKINGHAM APARTMENTS,4050 Ursula Ave,Los Angeles,CA,90008-2069,31080,Metropolitan Statistical Area,Los Angeles,6037,6037236202,37,34.01,-118,57c*,57c*,Family,Sec 8 SR,83,89.9,,
1027081,CARTER HOUSE,449 W 78th St,Los Angeles,CA,90003-2773,31080,Metropolitan Statistical Area,Los Angeles,6037,6037237720,37,33.97,-118,89c,73c,Disabled,PRAC/811,20,64.69,,
1027092,FREEMAN VILLA,1229 S Westmoreland Ave,Los Angeles,CA,90006-3473,31080,Metropolitan Statistical Area,Los Angeles,6037,6037213402,34,34.05,-118,78c,90b,Elderly,HFDA/8 NC,41,89.61,4% Tax Credit,
1027093,1309 SECOND AVENUE APARTMENTS,1309 2nd Ave,Los Angeles,CA,90019-4562,31080,Metropolitan Statistical Area,Los Angeles,6037,6037218120,34,34.05,-118,87b,87b,Family,PD/8 Existing,20,99.85,9% Tax Credit,
1027097,FREEWAY REDEVELOPMENT,2827 Wabash Ave,Los Angeles,CA,90033-2604,31080,Metropolitan Statistical Area,Los Angeles,6037,6037203200,34,34.05,-118,92c,98a,Family,LMSA,93,96.58,,CA16M000220
1027098,STEEL PLAZA,1711 W 3rd St,Los Angeles,CA,90017-1162,31080,Metropolitan Statistical Area,Los Angeles,6037,6037208401,34,34.06,-118,93b,93b,Elderly,PRAC/202,65,55.88,,
1027103,LA PRO XXXII APARTMENTS,1348 Ingraham St,Los Angeles,CA,90017-2316,31080,Metropolitan Statistical Area,Los Angeles,6037,6037209102,34,34.05,-118,84b,92b,Elderly,LMSA,113,100.12,,
1027105,LA VILLA HERMOSA,1530 W Jefferson Blvd,Los Angeles,CA,90018-3970,31080,Metropolitan Statistical Area,Los Angeles,6037,6037222500,37,34.03,-118,97c*,77c,Family,Sec 8 NC,59,78.3,,
1027115,SILVERLAKE VILLAGE,3740 Evans St,Los Angeles,CA,90027-3345,31080,Metropolitan Statistical Area,Los Angeles,6037,6037195201,28,34.11,-118,95b,90c,Family,Preservation,79,92.6,4% Tax Credit,
1027124,PILGRIM TOWER,1207 S Vermont Ave,Los Angeles,CA,90006-2744,31080,Metropolitan Statistical Area,Los Angeles,6037,6037213320,34,34.05,-118,95b,95b,Disabled,LMSA,53,88.25,4% Tax Credit,CA16M000211
1027125,MT MORIAH SENIOR VILLA,476 W 43rd St,Los Angeles,CA,90037-2662,31080,Metropolitan Statistical Area,Los Angeles,6037,6037231720,37,34.01,-118,93a,93a,Elderly,PRAC/202,40,38,,
1027127,TURNER APARTMENTS,7000 S Hoover St,Los Angeles,CA,90044-5260,31080,Metropolitan Statistical Area,Los Angeles,6037,6037237600,37,33.98,-118,93c*,97b,Family,PD/8 Existing,31,93.73,9% Tax Credit,
1027130,PLEASANT HILLS HOME,1315 Pleasant Ave,Los Angeles,CA,90033-2363,31080,Metropolitan Statistical Area,Los Angeles,6037,6037203500,34,34.05,-118,86c,62c*,Family,Sec 8 NC,24,69.59,,
1027133,NELD NORTH APARTMENTS,710 W 30th St,Los Angeles,CA,90007-3757,31080,Metropolitan Statistical Area,Los Angeles,6037,6037224700,37,34.03,-118,79b,75c,Family,LMSA,83,105.53,,
1027136,WATTS-ATHENS,717 W 81st St,Los Angeles,CA,90044-5969,31080,Metropolitan Statistical Area,Los Angeles,6037,6037238310,37,33.97,-118,96b,85c,Family,Sec 8 NC,67,85.08,,
1027142,LAS PALMAS,1778 N LAS PALMAS AVE,Los Anegeles,CA,90028,31080,Metropolitan Statistical Area,Los Angeles,6037,6037190202,28,34.1,-118,97b,89b,Elderly,Sec 8 NC,74,108.72,,
1027143,HDR Fund II Apartments,111 S Avenue 63,Los Angeles,CA,90042-3625,31080,Metropolitan Statistical Area,Los Angeles,6037,6037183101,34,34.11,-118,84b,76c,,LMSA,39,73.94,,
1027146,CASA GRIFFIN APARTMENTS,2669 Griffin Ave,Los Angeles,CA,90031-2349,31080,Metropolitan Statistical Area,Los Angeles,6037,6037199201,34,34.08,-118,85b*,91b,Family,LMSA,40,77.94,4% Tax Credit,
1027147,MARTEL PARK,907 N Martel Ave,Los Angeles,CA,90046,31080,Metropolitan Statistical Area,Los Angeles,6037,6037192001,28,34.09,-118,78c*,78c*,Elderly,Sec 8 NC,72,131.24,,
1027153,HDR FUND 1 APARTMENTS,2714 Orchard Ave,Los Angeles,CA,90007-2355,31080,Metropolitan Statistical Area,Los Angeles,6037,6037221820,37,34.03,-118,81b,81b,Family,LMSA,115,104.05,,
1027158,PROGRESSIVE HOME ELDERLY,7010 Denver Ave,Los Angeles,CA,90044-6269,31080,Metropolitan Statistical Area,Los Angeles,6037,6037237600,37,33.98,-118,76c,72b*,Elderly,LMSA,111,65.24,,
1027161,CLARK SENIORS APARTMENTS,1156 S Clark Dr,Los Angeles,CA,90035-1400,31080,Metropolitan Statistical Area,Los Angeles,6037,6037217001,37,34.06,-118,90b,92c,Elderly,HFDA/8 NC,40,136.56,,
1027172,GRANDVIEW TERRACE,3940 Grand View Blvd,Los Angeles,CA,90066-4559,31080,Metropolitan Statistical Area,Los Angeles,6037,6037272302,37,34,-118,96a*,96a*,Elderly,HFDA/8 NC,190,141.97,,
1027178,HOLLYWOODLAND GOWER APARTMENTS,1206 N Gower St,Los Angeles,CA,90038-1876,31080,Metropolitan Statistical Area,Los Angeles,6037,6037190902,28,34.09,-118,92c,91c*,Family,Sec 8 SR,83,95.69,,
1027187,COLUMBIA APARTMENTS,1522 W 11th Pl,Los Angeles,CA,90015-2035,31080,Metropolitan Statistical Area,Los Angeles,6037,6037210010,34,34.05,-118,77c,98b,Family,LMSA,127,90.78,,
1027190,ROBERT FARRELL MANOR,1818 W 71st St,Los Angeles,CA,90047-1857,31080,Metropolitan Statistical Area,Los Angeles,6037,6037237300,37,33.97,-118,69c,69c,Family,Sec 8 NC,35,111.79,,
1027200,ROYAL APARTMENTS I,772 N Van Ness Ave,Los Angeles,CA,90038-3165,31080,Metropolitan Statistical Area,Los Angeles,6037,6037191710,28,34.09,-118,92b*,85c*,Family,LMSA,32,64.58,,CA16M000292
1027212,LELAND COURTS,5234 Melrose Ave,Los Angeles,CA,90038-4356,31080,Metropolitan Statistical Area,Los Angeles,6037,6037192410,28,34.08,-118,70c,70c,Family,Sec 8 SR,70,116.64,,
1027213,SHERIDAN WEST VILLA,621 W 81st St,Los Angeles,CA,90044-5941,31080,Metropolitan Statistical Area,Los Angeles,6037,6037238310,37,33.97,-118,88c,88c,Family,LMSA,35,99.17,,
1027214,GOOD SHEPHERD MANOR,4411 11th Ave,Los Angeles,CA,90043-5445,31080,Metropolitan Statistical Area,Los Angeles,6037,6037234502,37,34,-118,91c,91c,Elderly,LMSA,143,116.01,,
1027215,SILVER LAKE NEW HOPE COURTYARD APARTMENTS,2301 Brier Ave,Los Angeles,CA,90039-3271,31080,Metropolitan Statistical Area,Los Angeles,6037,6037187300,28,34.1,-118,99a,85b,Disabled,PRAC/811,14,70.02,,
1027216,MADISON SENIOR HOUSING,1145 N MADISON AVE,Los Angeles,CA,90029,31080,Metropolitan Statistical Area,Los Angeles,6037,6037191301,28,34.09,-118,96b,96b,Elderly,PRAC/202,69,48.03,,
1027223,MAC ARTHUR PARK TOWERS,450 S Grand View St,Los Angeles,CA,90057-2850,31080,Metropolitan Statistical Area,Los Angeles,6037,6037208801,34,34.06,-118,87b,79b,Elderly,LMSA,182,108.59,4% Tax Credit,
1027226,HANCOCK GARDENS APARTMENTS,303 S Van Ness Ave,Los Angeles,CA,90020-4650,31080,Metropolitan Statistical Area,Los Angeles,6037,6037211701,34,34.07,-118,84b,88b,Elderly,Sec 8 NC,66,108.53,4% Tax Credit,
1027229,HAPPY VALLEY VILLA,3035 Sierra St,Los Angeles,CA,90031-2144,31080,Metropolitan Statistical Area,Los Angeles,6037,6037199202,34,34.08,-118,85b,85b,Family,LMSA,12,79.58,,
1027236,SHERIDAN MANOR,10634 S Central Ave,Los Angeles,CA,90002-3468,31080,Metropolitan Statistical Area,Los Angeles,6037,6037242000,43,33.94,-118,81c,88b,Family,LMSA,47,78.82,,
1027240,SHERIDAN EAST VILLA,120 W 78th St,Los Angeles,CA,90003-2449,31080,Metropolitan Statistical Area,Los Angeles,6037,6037239602,40,33.97,-118,84b,84b,Family,LMSA,24,81.44,,
1027243,SOUTH SIDE APARTMENTS,923 E 79th St,Los Angeles,CA,90001-2917,31080,Metropolitan Statistical Area,Los Angeles,6037,6037239502,40,33.97,-118,89b,91b,Family,PD/8 Existing,20,90.9,,
1027245,WATTSWOOD RELOCATION,6415 Makee Ave,Los Angeles,CA,90001-1768,31080,Metropolitan Statistical Area,Los Angeles,6037,6037533001,40,33.98,-118,84c*,43c*,Family,PD/8 MR,50,66.79,,
1027247,SOUTH CENTRAL SITES,2013 E 92nd St,Los Angeles,CA,90002-2507,31080,Metropolitan Statistical Area,Los Angeles,6037,6037535400,44,33.95,-118,90b,60c,Family,HFDA/8 SR,37,54.96,,
1027249,SHERIDAN SOUTH VILLA,7219 S San Pedro St,Los Angeles,CA,90003-2246,31080,Metropolitan Statistical Area,Los Angeles,6037,6037239601,40,33.97,-118,80c,77c*,Family,LMSA,38,84.84,,
1027250,WESTINGTON,1914 Walgrove Ave,Los Angeles,CA,90066-3032,31080,Metropolitan Statistical Area,Los Angeles,6037,6037272100,37,34,-118,85b,75b,Disabled,202/8 NC,12,101.49,,
1027251,WESTSIDE APARTMENTS,1811 W 36th Pl,Los Angeles,CA,90018-4403,31080,Metropolitan Statistical Area,Los Angeles,6037,6037222002,37,34.02,-118,78c*,86c,Family,LMSA,59,98.87,,
1027254,WILSHIRE TOWERS,616 S Normandie Ave,Los Angeles,CA,90005-2647,31080,Metropolitan Statistical Area,Los Angeles,6037,6037212102,34,34.06,-118,99b,85c,Elderly,LMSA,60,115.3,4% Tax Credit,CA16M000337
1027261,MASSELIN SENIOR HOUSING,404 S Cochran Ave,Los Angeles,CA,90036-3386,31080,Metropolitan Statistical Area,Los Angeles,6037,6037215102,33,34.07,-118,99b,99b,Elderly,PRAC/202,27,63,,
1027264,ANGELUS PLAZA II,200 S Olive St,Los Angeles,CA,90012-5101,31080,Metropolitan Statistical Area,Los Angeles,6037,6037207502,34,34.05,-118,89c,81b,Elderly,Sec 8 NC,330,80.74,4% Tax Credit,
1027266,PRESERVATION II,3012 Halldale Ave,Los Angeles,CA,90018-3181,31080,Metropolitan Statistical Area,Los Angeles,6037,6037222100,37,34.03,-118,81b,68c,Family,LMSA,63,75.24,,CA16M000346
1027268,ARIRANG HOUSING,1725 Whitley Ave,Los Angeles,CA,90028-4808,31080,Metropolitan Statistical Area,Los Angeles,6037,6037190202,28,34.1,-118,84b,84b,Elderly,PRAC/202,74,37.49,,
1027269,ALVARADO GARDENS,1800 N Alvarado St,Los Angeles,CA,90026-1745,31080,Metropolitan Statistical Area,Los Angeles,6037,6037197420,28,34.09,-118,94c,85c,Family,LMSA,48,113.35,,
1027277,LAS TORRES,944 Grattan St,Los Angeles,CA,90015-1139,31080,Metropolitan Statistical Area,Los Angeles,6037,6037210010,34,34.05,-118,82c,82c,Elderly,202/8 NC,104,97.88,,
1027280,HOBART GARDENS,1344 N Hobart Blvd,Los Angeles,CA,90027-5648,31080,Metropolitan Statistical Area,Los Angeles,6037,6037191110,28,34.1,-118,86b,69c,Elderly,LMSA,141,122.27,,
1027287,MID TOWN APARTMENTS,3030 San Marino St,Los Angeles,CA,90006-1559,31080,Metropolitan Statistical Area,Los Angeles,6037,6037213320,34,34.05,-118,81c,80c*,Family,LMSA,119,87.27,,
1027291,MIDTOWN MANOR,528 W 50th St,Los Angeles,CA,90037-3366,31080,Metropolitan Statistical Area,Los Angeles,6037,6037232120,37,34,-118,80c*,80c*,Family,PD/8 Existing,32,88.42,,
1027295,VERMONT SENIORS,3901 S Vermont Ave,Los Angeles,CA,90037-1998,31080,Metropolitan Statistical Area,Los Angeles,6037,6037231220,37,34.02,-118,61c,64c*,Elderly,PRAC/202,138,41.35,,
1027297,AFTON PLACE SENIOR APARTMENTS,6230 Afton Pl,Los Angeles,CA,90028-8256,31080,Metropolitan Statistical Area,Los Angeles,6037,6037190801,28,34.1,-118,85b,87b,Family,Sec 8 SR,68,108.32,4% Tax Credit,
1027301,MID CITY APARTMENTS,7512 S San Pedro St,Los Angeles,CA,90003-2336,31080,Metropolitan Statistical Area,Los Angeles,6037,6037239501,40,33.97,-118,93b,79c*,Family,LMSA,68,80.91,,
1027308,NORMANDIE VILLAS,2633 S Normandie Ave,Los Angeles,CA,90007-2174,31080,Metropolitan Statistical Area,Los Angeles,6037,6037222200,37,34.03,-118,85c,89c,Family,HFDA/8 NC,25,95.31,,
1027309,WITMER MANOR APARTMENT COMPLEX,1501 Miramar St,Los Angeles,CA,90026-6056,31080,Metropolitan Statistical Area,Los Angeles,6037,6037208302,34,34.06,-118,82b,82b,Family,LMSA,237,91.99,4% Tax Credit,
1027317,MONTEREY TERRACE,3800 Monterey Rd,Los Angeles,CA,90032-1459,31080,Metropolitan Statistical Area,Los Angeles,6037,6037201301,34,34.09,-118,92c*,92c*,Family,Sec 8 NC,40,89.69,,
1027322,ST ANDREWS TERRACE,1525 N St Andrews Pl,Los Angeles,CA,90028-6713,31080,Metropolitan Statistical Area,Los Angeles,6037,6037190510,28,34.1,-118,95b,83c,Family,Preservation,24,93.32,,
1027323,MIRAMAR TOWERS,2000 Miramar St,Los Angeles,CA,90057-2307,31080,Metropolitan Statistical Area,Los Angeles,6037,6037208401,34,34.06,-118,88a,69c,Elderly,HFDA/8 NC,156,103.73,,
1027328,HOLLYWOOD GARDENS,5411 3/4 Lemon Grove Ave,Los Angeles,CA,90038-4060,31080,Metropolitan Statistical Area,Los Angeles,6037,6037191720,28,34.09,-118,69c,92b,Family,Sec 8 SR,62,91.15,,
1027340,DORIE MILLER MANOR,945 E 120th St,Los Angeles,CA,90059-2801,31080,Metropolitan Statistical Area,Los Angeles,6037,6037241002,44,33.92,-118,91c,84b*,Family,PD/8 Existing,36,85.84,,
1027347,MOUNT ZION TOWERS,4827 S Central Ave,Los Angeles,CA,90011-5462,31080,Metropolitan Statistical Area,Los Angeles,6037,6037229200,40,34,-118,92b,73c*,Elderly,LMSA,117,98.86,4% Tax Credit,
1027353,HOLLYWOOD EAST APARTMENTS,4829 Lexington Ave,Los Angeles,CA,90029-1661,31080,Metropolitan Statistical Area,Los Angeles,6037,6037191203,28,34.09,-118,86c,76c,Family,LMSA,67,102.56,,
1027356,HOLLYWOOD KNICKERBOCKER,1714 Ivar Ave,Los Angeles,CA,90028-5124,31080,Metropolitan Statistical Area,Los Angeles,6037,6037190201,28,34.1,-118,96b*,70c*,Elderly,LMSA,280,77.39,,
1027357,HOLLYWOODLAND APARTMENTS,977 N Wilton Pl,Los Angeles,CA,90038-3264,31080,Metropolitan Statistical Area,Los Angeles,6037,6037191720,28,34.09,-118,93b,93b,Elderly or disabled,,,,4% Tax Credit,
1027371,SWANSEA PARK APARTMENTS,1015 N Kingsley Dr,Los Angeles,CA,90029-1243,31080,Metropolitan Statistical Area,Los Angeles,6037,6037191620,28,34.09,-118,83b*,38c*,Elderly,Sec 8 SR,38,119.98,4% Tax Credit,CA160036006
1027374,NEW HOPE SENIOR VILLA,5140 S Central Ave,Los Angeles,CA,90011-4764,31080,Metropolitan Statistical Area,Los Angeles,6037,6037228710,40,34,-118,87b,87b,Elderly,PRAC/202,46,46.67,,
1027376,HOUSTON HOMES APARTMENTS,1151 E 20th St,Los Angeles,CA,90011-1266,31080,Metropolitan Statistical Area,Los Angeles,6037,6037226001,40,34.02,-118,80c,70c,Family,LMSA,52,98.4,,
1027388,VILLA DE LA ESPERANZA,1401 S Hope St,Los Angeles,CA,90015-2984,31080,Metropolitan Statistical Area,Los Angeles,6037,6037224010,34,34.04,-118,88b,88b,Elderly,PRAC/202,87,27.41,,
1027396,LINCOLN HEIGHTS APARTMENTS,3333 N Mission Rd,Los Angeles,CA,90031-3160,31080,Metropolitan Statistical Area,Los Angeles,6037,6037199900,34,34.07,-118,95b,77c,Family,LMSA,64,84.83,,
1027398,JEFFERSON CUNNINGHAM,2300 S Victoria Ave,Los Angeles,CA,90016-1861,31080,Metropolitan Statistical Area,Los Angeles,6037,6037218702,37,34.03,-118,92b,92b,Family,Sec 8 NC,30,104.35,,
1027414,OLYMPIC PLAZA SR HSG,2605 W Olympic Blvd,Los Angeles,CA,90006-2802,31080,Metropolitan Statistical Area,Los Angeles,6037,6037213401,34,34.05,-118,96b,71b,Disabled,PRAC/202,88,29.9,,
1027420,TC APARTMENTS,877 N Bunker Hill Ave,Los Angeles,CA,90012-1687,31080,Metropolitan Statistical Area,Los Angeles,6037,6037207103,34,34.06,-118,82c*,53c,Family,HFDA/8 NC,19,92.79,,
1027428,VILLA FLORES,1020 S Flower St,Los Angeles,CA,90015-1471,31080,Metropolitan Statistical Area,Los Angeles,6037,6037207900,34,34.04,-118,99a,69c,Elderly,PRAC/202,74,46.35,,
1027434,TELACU VISTAS,4900 Via Marisol,Los Angeles,CA,90042-5526,31080,Metropolitan Statistical Area,Los Angeles,6037,6037201302,34,34.1,-118,92b,92b,Elderly,PRAC/202,99,48.22,,
1027440,740 S OLIVE STREET APARTMENTS,740 S Olive St,Los Angeles,CA,90014-2616,31080,Metropolitan Statistical Area,Los Angeles,6037,6037207710,34,34.05,-118,65c,86b,Elderly,Sec 8 SR,307,156.04,4% Tax Credit,
1027460,39TH PLACE APARTMENTS,1075 W 39th Pl,Los Angeles,CA,90037-1559,31080,Metropolitan Statistical Area,Los Angeles,6037,6037231220,37,34.01,-118,97b,79c,Family,LMSA,12,81.5,,
1027486,ST JAMES MANOR,615 S Gramercy Pl,Los Angeles,CA,90005-3265,31080,Metropolitan Statistical Area,Los Angeles,6037,6037211704,34,34.06,-118,89c,84c,Elderly,202/8 NC,65,97.75,,
1027496,HOMEWARD BOUND,1045 S Bedford St,Los Angeles,CA,90035-2163,31080,Metropolitan Statistical Area,Los Angeles,6037,6037216401,37,34.06,-118,87b,87b,Disabled,PRAC/811,4,37.26,,
1027500,JESSIE L TERRY MANOR,3100 S Vermont Ave,Los Angeles,CA,90007-3044,31080,Metropolitan Statistical Area,Los Angeles,6037,6037221900,37,34.03,-118,94c,91b,Elderly,LMSA,170,117.73,9% Tax Credit,
1027504,TWO WORLDS ONE APARTMENTS,809 W 23rd St,Los Angeles,CA,90007-2057,31080,Metropolitan Statistical Area,Los Angeles,6037,6037224420,37,34.03,-118,90c*,78c*,Family,LMSA,96,83.67,9% Tax Credit,
1027505,URBAN REHAB #1,9310 S Central Ave,Los Angeles,CA,90002-2018,31080,Metropolitan Statistical Area,Los Angeles,6037,6037240700,43,33.95,-118,88b*,88b*,Family,PD/8 Existing,60,83.29,,
1027506,KERN VILLA APARTMENTS,200 N Kern Ave,Los Angeles,CA,90022,31080,Metropolitan Statistical Area,Los Angeles,6037,6037530500,40,34.04,-118,96b*,89c,Family,Sec 8 NC,48,77,9% Tax Credit,
1027510,TELACU POINTE,3200 FLETCHER DR,Los Angeles,CA,90065,31080,Metropolitan Statistical Area,Los Angeles,6037,6037186401,34,34.12,-118,88c,99a,Elderly,PRAC/202,83,44.54,,
1027511,ADAMS SENIOR HOUSING,1921 W ADAMS BLVD,Los Angeles,CA,90018,31080,Metropolitan Statistical Area,Los Angeles,6037,6037221500,37,34.03,-118,90c,90c,Elderly,PRAC/202,74,46.04,,
1027515,PACE VILLA,3601 S Catalina St,Los Angeles,CA,90007-3943,31080,Metropolitan Statistical Area,Los Angeles,6037,6037222600,37,34.02,-118,91b,75b,Family,Sec 8 NC,16,68.34,,
1027520,LA PRO III,230 W 88th Pl,Los Angeles,CA,90003-3652,31080,Metropolitan Statistical Area,Los Angeles,6037,6037240200,43,33.96,-118,92b*,92b*,Family,LMSA,84,83.18,4% Tax Credit,
1027522,KILGORE MANOR,2411 S Central Ave,Los Angeles,CA,90011-1609,31080,Metropolitan Statistical Area,Los Angeles,6037,6037226420,40,34.02,-118,98b,98b,Elderly,LMSA,51,56.32,,
1027523,LA HACIENDA I,2126 Cambridge St,Los Angeles,CA,90006-4209,31080,Metropolitan Statistical Area,Los Angeles,6037,6037221210,34,34.04,-118,61c*,61c*,Family,HFDA/8 NC,14,80.55,,
1027528,ETHEL ARNOLD BRADLEY GARDENS,7850 S Normandie Ave,Los Angeles,CA,90044-2373,31080,Metropolitan Statistical Area,Los Angeles,6037,6037237800,37,33.97,-118,87b,87c,Family,Sec 8 NC,80,111.63,,
1027529,FAIRFAX SENIOR CIT APARTMENTS,737 S Genesee Ave,Los Angeles,CA,90036-4544,31080,Metropolitan Statistical Area,Los Angeles,6037,6037216300,37,34.06,-118,84c,93b*,Elderly,Sec 8 NC,45,154.7,,
1027533,VAN NUYS APARTMENTS,210 W 7th St,Los Angeles,CA,90014-1834,31080,Metropolitan Statistical Area,Los Angeles,6037,6037207301,34,34.04,-118,72c,80c,Elderly,Sec 8 SR,299,74.29,4% Tax Credit,
1027536,LA HACIENDA II,1630 S Union Ave,Los Angeles,CA,90015-3275,31080,Metropolitan Statistical Area,Los Angeles,6037,6037224200,34,34.04,-118,84c*,59c*,Family,HFDA/8 NC,10,73.2,,
1027558,VILLA MALAGA,4704 Dozier Ave,Los Angeles,CA,90022-1300,31080,Metropolitan Statistical Area,Los Angeles,6037,6037530500,40,34.04,-118,88b,62b,Disabled,PRAC/811,23,45.11,,
1027570,VILLA MARISOL,5301 Via Marisol,Los Angeles,CA,90042-4889,31080,Metropolitan Statistical Area,Los Angeles,6037,6037183702,34,34.1,-118,98b,98b,Elderly,HFDA/8 NC,48,110.48,,
1027576,SILVERCREST HOLLYWOOD,5940 Carlos Ave,Los Angeles,CA,90028-5467,31080,Metropolitan Statistical Area,Los Angeles,6037,6037191000,28,34.1,-118,69c,69c*,Elderly,PRAC/202,98,45.48,,
1027582,LA PRO I,1011 N Cummings St,Los Angeles,CA,90033-1349,31080,Metropolitan Statistical Area,Los Angeles,6037,6037203300,34,34.06,-118,81c,81c,Family,LMSA,104,77.52,,
1027604,VAN NESS TERRACE,1809 S Van Ness Ave,Los Angeles,CA,90019-6257,31080,Metropolitan Statistical Area,Los Angeles,6037,6037221302,34,34.04,-118,86b,86b,Family,Preservation,12,93.23,,
1028119,DUNBAR VILLAGE,4225 S Central Ave,Los Angeles,CA,90011-3000,31080,Metropolitan Statistical Area,Los Angeles,6037,6037228320,40,34.01,-118,,,Family,,,,4% Tax Credit,
1028129,ELEVENTH AVENUE APARTMENTS,6726 11th Ave,Los Angeles,CA,90043-4785,31080,Metropolitan Statistical Area,Los Angeles,6037,6037235202,37,33.98,-118,,,Family,,,,9% Tax Credit,
1028146,HENDERSON HOMES,3804 Wisconsin St,Los Angeles,CA,90037-1173,31080,Metropolitan Statistical Area,Los Angeles,6037,6037231220,37,34.02,-118,,,Family,,,,9% Tax Credit,
1028148,KOREAN YOUTH CENTER APARTMENTS,3987 W 7th St,Los Angeles,CA,90005-5105,31080,Metropolitan Statistical Area,Los Angeles,6037,6037212610,34,34.06,-118,,,Family,,,,9% Tax Credit,
1028166,BROADCAST CENTER,7660 Beverly Blvd,Los Angeles,CA,90036-2734,31080,Metropolitan Statistical Area,Los Angeles,6037,6037214501,33,34.08,-118,,,,,,,4% Tax Credit,
1028174,SUNFLOWER NORTON APARTMENTS,1242 S Norton Ave,Los Angeles,CA,90019-3382,31080,Metropolitan Statistical Area,Los Angeles,6037,6037212900,37,34.05,-118,,,Family,,,,9% Tax Credit,
1028217,OLYMPIA HOTEL,1201 E 7th St,Los Angeles,CA,90021-1505,31080,Metropolitan Statistical Area,Los Angeles,6037,6037206300,34,34.04,-118,,,,,,,9% Tax Credit,
1028222,VENDOME PALMS APARTMENTS,975 N Vendome St,Los Angeles,CA,90026-2860,31080,Metropolitan Statistical Area,Los Angeles,6037,6037195803,28,34.08,-118,,,,,,,4% Tax Credit,
1028229,ROBINSON VILLA,3845 Wisconsin St,Los Angeles,CA,90037-1174,31080,Metropolitan Statistical Area,Los Angeles,6037,6037231220,37,34.02,-118,,,Family,,,,9% Tax Credit,
1028231,SAN FELIPE HOMES,690 N Herbert Ave,Los Angeles,CA,90063-1800,31080,Metropolitan Statistical Area,Los Angeles,6037,6037530902,34,34.04,-118,,,Family,,,,9% Tax Credit,
1028238,GREENVIEW VILLAGE APARTMENTS,825 Green Ave,Los Angeles,CA,90017-4324,31080,Metropolitan Statistical Area,Los Angeles,6037,6037209300,34,34.05,-118,,,Family,,,,9% Tax Credit,
1028248,SHAHEEN/SHEHAB,8209 S Broadway,Los Angeles,CA,90003-2868,31080,Metropolitan Statistical Area,Los Angeles,6037,6037239701,43,33.96,-118,,,Family,,,,9% Tax Credit,
1028264,BIXEL HOUSE APARTMENTS,625 S Bixel St,Los Angeles,CA,90017-2232,31080,Metropolitan Statistical Area,Los Angeles,6037,6037209200,34,34.05,-118,,,,,,,4% and 9% Tax Credit,
1028269,CORONADO PLACE,671 S Coronado St,Los Angeles,CA,90057-3432,31080,Metropolitan Statistical Area,Los Angeles,6037,6037208720,34,34.06,-118,82b,,Family,,,,4% Tax Credit,
1028276,GILBERT LINDSAY APARTMENTS,601 W 40th Pl,Los Angeles,CA,90037-2059,31080,Metropolitan Statistical Area,Los Angeles,6037,6037231720,37,34.01,-118,,,Family,,,,,
1028299,BEVERLY CITY LIGHTS,107 S Carondelet St,Los Angeles,CA,90057-2076,31080,Metropolitan Statistical Area,Los Angeles,6037,6037208502,34,34.07,-118,,,Family,,,,9% Tax Credit,
1028305,CASA BERENDO,1240 N Berendo St,Los Angeles,CA,90029-1676,31080,Metropolitan Statistical Area,Los Angeles,6037,6037191203,28,34.09,-118,,,Family,,,,9% Tax Credit,
1028309,CENTRAL AVENUE VILLAGE SQUARE,1060 E 53rd St,Los Angeles,CA,90011-4656,31080,Metropolitan Statistical Area,Los Angeles,6037,6037229420,40,33.99,-118,,,Family,,,,4% Tax Credit,
1028313,COLDEN OAKS,225 E Colden Ave,Los Angeles,CA,90003-4210,31080,Metropolitan Statistical Area,Los Angeles,6037,6037240600,43,33.95,-118,,,Family,,,,9% Tax Credit,
1028315,CRESCENT COURT,1412 W 12th St,Los Angeles,CA,90015,31080,Metropolitan Statistical Area,Los Angeles,6037,6037210010,34,34.05,-118,,,Family,,,,9% Tax Credit,
1028325,FLORENCE AVENUE VILLA,910 W Florence Ave,Los Angeles,CA,90044-5162,31080,Metropolitan Statistical Area,Los Angeles,6037,6037237710,37,33.97,-118,,,Family,,,,9% Tax Credit,
1028334,CASA ESPERANZA,206 E 23rd St,Los Angeles,CA,90011-1076,31080,Metropolitan Statistical Area,Los Angeles,6037,6037224020,37,34.03,-118,,,Family,,,,9% Tax Credit,
1028339,HOPE WEST APARTMENTS,1231 Wall St,Los Angeles,CA,90015-2613,31080,Metropolitan Statistical Area,Los Angeles,6037,6037226002,34,34.03,-118,,,Family,,,,9% Tax Credit,
1028340,CENTRAL AVENUE VILLA,4051 S Central Ave,Los Angeles,CA,90011-2777,31080,Metropolitan Statistical Area,Los Angeles,6037,6037228310,40,34.01,-118,,,Family,,,,4% Tax Credit,
1028355,DUNNING APARTMENTS,5552 Carlton Way,Los Angeles,CA,90028,31080,Metropolitan Statistical Area,Los Angeles,6037,6037190510,28,34.1,-118,,,Family,,,,9% Tax Credit,
1028360,MARION HOTEL,642 Crocker St,Los Angeles,CA,90021-1002,31080,Metropolitan Statistical Area,Los Angeles,6037,6037206300,34,34.04,-118,,,,,,,9% Tax Credit,
1028362,MARY ANDREWS CLARK RESIDENCE,306 Loma Dr,Los Angeles,CA,90017-1148,31080,Metropolitan Statistical Area,Los Angeles,6037,6037209104,34,34.06,-118,,,,,,,9% Tax Credit,
1028374,ONE WILKINS PLACE APARTMENTS,1071 E 48th St,Los Angeles,CA,90011-5400,31080,Metropolitan Statistical Area,Los Angeles,6037,6037229200,40,34,-118,,,Family,,,,4% Tax Credit,
1028383,LEONIDE APARTMENTS,512 S Main St,Los Angeles,CA,90013-1441,31080,Metropolitan Statistical Area,Los Angeles,6037,6037207302,34,34.05,-118,,,,,,,9% Tax Credit,
1028384,PARKVIEW APARTMENTS,622 S Alvarado St,Los Angeles,CA,90057-3303,31080,Metropolitan Statistical Area,Los Angeles,6037,6037208903,34,34.06,-118,,,,,,,9% Tax Credit,
1028392,PRODUCE PLACE,676 S Central Ave,Los Angeles,CA,90021-1039,31080,Metropolitan Statistical Area,Los Angeles,6037,6037206300,34,34.04,-118,,,,,,,9% Tax Credit,
1028396,ROHIT VILLAS,122 E 120th St,Los Angeles,CA,90061-2400,31080,Metropolitan Statistical Area,Los Angeles,6037,6037241400,44,33.92,-118,,,Family,,,,9% Tax Credit,
1028398,ROSAMEL APARTMENTS,1240 Elden Ave,Los Angeles,CA,90006-3500,31080,Metropolitan Statistical Area,Los Angeles,6037,6037213402,34,34.05,-118,,,,,,,9% Tax Credit,
1028403,SENATOR HOTEL,729 S Main St,Los Angeles,CA,90014-2012,31080,Metropolitan Statistical Area,Los Angeles,6037,6037207301,34,34.04,-118,,,,,,,9% Tax Credit,
1028413,THE CARLTON APARTMENTS,5425 Carlton Way,Los Angeles,CA,90027-4887,31080,Metropolitan Statistical Area,Los Angeles,6037,6037190510,28,34.1,-118,,,Family,,,,9% Tax Credit,
1028421,VILLA ESPERANZA,255 E 28th St,Los Angeles,CA,90011-1458,31080,Metropolitan Statistical Area,Los Angeles,6037,6037224600,40,34.02,-118,,,Family,,,,9% Tax Credit,
1028428,WITMER CITY LIGHTS,319 Witmer St,Los Angeles,CA,90017-1300,31080,Metropolitan Statistical Area,Los Angeles,6037,6037209103,34,34.06,-118,,,Family,,,,9% Tax Credit,
1028434,HOLLYWOOD EL CENTRO APARTMENTS,6211 DE Longpre Ave,Los Angeles,CA,90028-8255,31080,Metropolitan Statistical Area,Los Angeles,6037,6037190801,28,34.1,-118,,,Family,,,,9% Tax Credit,
1028437,PARKER HOTEL,725 Witmer St,Los Angeles,CA,90017-4462,31080,Metropolitan Statistical Area,Los Angeles,6037,6037209300,34,34.05,-118,,,,,,,9% Tax Credit,
1028445,COURTLAND HOTEL,520 Wall St,Los Angeles,CA,90013-2144,31080,Metropolitan Statistical Area,Los Angeles,6037,6037206300,34,34.04,-118,,,,,,,9% Tax Credit,
1028457,ROBERTA STEPHENS VILLAS I + II,1035 E 27th St,Los Angeles,CA,90011-5544,31080,Metropolitan Statistical Area,Los Angeles,6037,6037226420,40,34.02,-118,,,Family,,,,9% Tax Credit,
1028464,CANAAN GARDENS,641 E 27th St,Los Angeles,CA,90011-1561,31080,Metropolitan Statistical Area,Los Angeles,6037,6037226410,40,34.02,-118,,,Family,,,,9% Tax Credit,
1028468,CASA HEIWA,231 E 3rd St,Los Angeles,CA,90013-1494,31080,Metropolitan Statistical Area,Los Angeles,6037,6037206200,34,34.05,-118,,,Family,,,,9% Tax Credit,
1028473,SIMONE HOTEL,520 San Julian St,Los Angeles,CA,90013-1513,31080,Metropolitan Statistical Area,Los Angeles,6037,6037206300,34,34.04,-118,,,,,,,9% Tax Credit,
1028475,ST MARK'S HOTEL,611 E 5th St,Los Angeles,CA,90013-2109,31080,Metropolitan Statistical Area,Los Angeles,6037,6037206200,34,34.04,-118,,,,,,,9% Tax Credit,
1028486,CRESCENT VILLAGE,1709 W 8th St,Los Angeles,CA,90017-2145,31080,Metropolitan Statistical Area,Los Angeles,6037,6037209403,34,34.05,-118,,,Family,,,,9% Tax Credit,
1028487,HART HOTEL,508 E 4th St,Los Angeles,CA,90013-2104,31080,Metropolitan Statistical Area,Los Angeles,6037,6037206200,34,34.04,-118,,,,,,,9% Tax Credit,
1028489,LAS AMERICAS HOTEL,1205 E 6th St,Los Angeles,CA,90021-1209,31080,Metropolitan Statistical Area,Los Angeles,6037,6037206031,34,34.04,-118,,,,,,,9% Tax Credit,
1028495,EDWARD HOTEL,713 E 5th St,Los Angeles,CA,90013-2110,31080,Metropolitan Statistical Area,Los Angeles,6037,6037206200,34,34.04,-118,,,,,,,9% Tax Credit,
1028496,THE SANBORN HOTEL,526 S Main St,Los Angeles,CA,90013-1422,31080,Metropolitan Statistical Area,Los Angeles,6037,6037207302,34,34.05,-118,,,,,,,9% Tax Credit,
1028499,FAME MANOR,3210 W Adams Blvd,Los Angeles,CA,90018-5407,31080,Metropolitan Statistical Area,Los Angeles,6037,6037218900,37,34.03,-118,,,Family,,,,9% Tax Credit,
1028505,FUMBAH MANOR,832 S Lake St,Los Angeles,CA,90057-4086,31080,Metropolitan Statistical Area,Los Angeles,6037,6037209402,34,34.05,-118,,,Family,,,,9% Tax Credit,
1028517,LA BREA/FRANKLIN APARTMENTS,1801 N LA Brea Ave,Los Angeles,CA,90046-8318,31080,Metropolitan Statistical Area,Los Angeles,6037,6037194101,28,34.1,-118,,,Family,,,,9% Tax Credit,
1028520,ARLINGTON RODEO APARTMENTS,3804 Arlington Ave,Los Angeles,CA,90008-1985,31080,Metropolitan Statistical Area,Los Angeles,6037,6037234000,37,34.02,-118,,,Family,,,,9% Tax Credit,
1028526,CASA GLORIA,1450 W Temple St,Los Angeles,CA,90026-6613,31080,Metropolitan Statistical Area,Los Angeles,6037,6037208000,34,34.07,-118,,,Family,,,,9% Tax Credit,
1028531,LAS PALOMAS HOTEL,2201 E 1st St,Los Angeles,CA,90033-3989,31080,Metropolitan Statistical Area,Los Angeles,6037,6037204420,34,34.04,-118,,,,,,,9% Tax Credit,
1028535,MANILA TERRACE APARTMENTS,2328 W Temple St,Los Angeles,CA,90026-4957,31080,Metropolitan Statistical Area,Los Angeles,6037,6037208501,34,34.07,-118,,,Family,,,,9% Tax Credit,
1028539,MARINA APARTMENTS,722 S Coronado St,Los Angeles,CA,90057-3839,31080,Metropolitan Statistical Area,Los Angeles,6037,6037209401,34,34.06,-118,,,Family,,,,9% Tax Credit,
1028543,MERCEDES APARTMENTS,727 S Carondelet St,Los Angeles,CA,90057-3993,31080,Metropolitan Statistical Area,Los Angeles,6037,6037209401,34,34.06,-118,,,Family,,,,9% Tax Credit,
1028545,MIDTOWN GARDENS,400 N Vermont Ave,Los Angeles,CA,90004-3513,31080,Metropolitan Statistical Area,Los Angeles,6037,6037192700,34,34.08,-118,,,,,,,9% Tax Credit,
1028548,NORBO HOTEL DEVELOPMENT,526 E 6th St,Los Angeles,CA,90021-1010,31080,Metropolitan Statistical Area,Los Angeles,6037,6037206300,34,34.04,-118,,,,,,,9% Tax Credit,
1028552,PARADISE ARMS,5200 S Broadway,Los Angeles,CA,90037-3853,31080,Metropolitan Statistical Area,Los Angeles,6037,6037232800,40,34,-118,,,Family,,,,4% Tax Credit,
1028553,PARK PLACE APARTMENTS,2500 W 4th St,Los Angeles,CA,90057-1931,31080,Metropolitan Statistical Area,Los Angeles,6037,6037208802,34,34.06,-118,,,Family,,,,9% Tax Credit,
1028566,ST ANDREWS BUNGALOW COURT,1514 N St Andrews Pl,Los Angeles,CA,90028-6714,31080,Metropolitan Statistical Area,Los Angeles,6037,6037190510,28,34.1,-118,,,,,,,9% Tax Credit,
1028568,VISTA ANGELINA FAMILY APARTMENTS,418 E Edgeware Rd,Los Angeles,CA,90026-5693,31080,Metropolitan Statistical Area,Los Angeles,6037,6037208000,34,34.07,-118,,,Family,,,,4% Tax Credit,
1028574,VILLA DEL PUEBLO,1441 S Hope St,Los Angeles,CA,90015-2911,31080,Metropolitan Statistical Area,Los Angeles,6037,6037224010,34,34.04,-118,,,Family,,,,9% Tax Credit,
1028581,WELDON HOTEL,507 Maple Ave,Los Angeles,CA,90013-1511,31080,Metropolitan Statistical Area,Los Angeles,6037,6037206300,34,34.05,-118,,,,,,,9% Tax Credit,
1028584,YOUNG APARTMENTS,1621 S Grand Ave,Los Angeles,CA,90015-3565,31080,Metropolitan Statistical Area,Los Angeles,6037,6037224010,34,34.04,-118,,,,,,,9% Tax Credit,
1028589,BUDLONG AVENUE APARTMENTS,2727 S Budlong Ave,Los Angeles,CA,90007-2170,31080,Metropolitan Statistical Area,Los Angeles,6037,6037222200,37,34.03,-118,,,Family,,,,9% Tax Credit,
1028618,ROSSMORE HOTEL,905 E 6th St,Los Angeles,CA,90021-1017,31080,Metropolitan Statistical Area,Los Angeles,6037,6037206300,34,34.04,-118,,,,,,,9% Tax Credit,
1028621,GOWER STREET APARTMENTS,1140 N Gower St,Los Angeles,CA,90038-1854,31080,Metropolitan Statistical Area,Los Angeles,6037,6037190902,28,34.09,-118,,,,,,,9% Tax Credit,
1028631,VILLA METROPOLITANO,1328 S Hope St,Los Angeles,CA,90015-2923,31080,Metropolitan Statistical Area,Los Angeles,6037,6037224010,34,34.04,-118,,,,,,,9% Tax Credit,
1028646,HYDE PARK PLACE APARTMENTS,6323 10th Ave,Los Angeles,CA,90043-4100,31080,Metropolitan Statistical Area,Los Angeles,6037,6037234901,37,33.98,-118,,,Family,,,,9% Tax Credit,
1028651,LA TOWN HOMES,2557 S Bronson Ave,Los Angeles,CA,90018-1772,31080,Metropolitan Statistical Area,Los Angeles,6037,6037218702,37,34.03,-118,,,Family,,,,9% Tax Credit,
1028654,ADAMS-CONGRESS APARTMENTS,1801 W Adams Blvd,Los Angeles,CA,90018-2705,31080,Metropolitan Statistical Area,Los Angeles,6037,6037221500,37,34.03,-118,,,Family,,,,9% Tax Credit,
1028660,ATHENS GLEN APARTMENTS,11515 S Budlong Ave,Los Angeles,CA,90044-1268,31080,Metropolitan Statistical Area,Los Angeles,6037,6037602801,43,33.93,-118,,,Family,,,,9% Tax Credit,
1028664,BRYNVIEW TERRACE,6603 Brynhurst Ave,Los Angeles,CA,90043-4395,31080,Metropolitan Statistical Area,Los Angeles,6037,6037234902,37,33.98,-118,,,Family,,,,9% Tax Credit,
1028668,CASA CARONDELET,130 S Carondelet St,Los Angeles,CA,90057-2080,31080,Metropolitan Statistical Area,Los Angeles,6037,6037208502,34,34.07,-118,,,Family,,,,9% Tax Credit,
1028675,NORMANDIE SENIOR HOUSING,6301 S Normandie Ave,Los Angeles,CA,90044-2699,31080,Metropolitan Statistical Area,Los Angeles,6037,6037237402,37,33.98,-118,,,,,,,9% Tax Credit,
1028690,PARKSIDE APARTMENTS,400 W 9th St,Los Angeles,CA,90015-1571,31080,Metropolitan Statistical Area,Los Angeles,6037,6037207900,34,34.04,-118,,,Family,,,,9% Tax Credit,
1028695,EVERGREEN VILLAGE,420 N Evergreen Ave,Los Angeles,CA,90033-3159,31080,Metropolitan Statistical Area,Los Angeles,6037,6037203720,34,34.04,-118,,,Family,,,,9% Tax Credit,
1028707,HUNTINGTON HACIENDA APARTMENTS,4648 Huntington Dr S,Los Angeles,CA,90032-1914,31080,Metropolitan Statistical Area,Los Angeles,6037,6037201401,34,34.09,-118,,,Family,,,,9% Tax Credit,
1028718,LOS ANGELES CITY LIGHTS,1315 W 7th St,Los Angeles,CA,90017-2345,31080,Metropolitan Statistical Area,Los Angeles,6037,6037209102,34,34.05,-118,,,Family,,,,9% Tax Credit,
1028719,SERRANO APARTMENTS,1536 N Serrano Ave,Los Angeles,CA,90027-4854,31080,Metropolitan Statistical Area,Los Angeles,6037,6037190520,28,34.1,-118,,,Family,,,,9% Tax Credit,
1028720,LUISA APARTMENTS,2209 Michigan Ave,Los Angeles,CA,90033-2920,31080,Metropolitan Statistical Area,Los Angeles,6037,6037204420,34,34.05,-118,,,Family,,,,9% Tax Credit,
1028724,MARTHA BRYANT MANOR,8300 S Hoover St,Los Angeles,CA,90044-4945,31080,Metropolitan Statistical Area,Los Angeles,6037,6037238320,43,33.96,-118,,,Family,,,,4% Tax Credit,
1028732,MOREHOUSE APARTMENTS,1750 W Martin Luther King Jr Blvd,Los Angeles,CA,90062-1536,31080,Metropolitan Statistical Area,Los Angeles,6037,6037231500,37,34.01,-118,,,Family,,,,9% Tax Credit,
1028735,UNIVERSITY PARK APARTMENTS,1221 W 29th St,Los Angeles,CA,90007-3199,31080,Metropolitan Statistical Area,Los Angeles,6037,6037221820,37,34.03,-118,,,Family,,,,9% Tax Credit,
1028743,WASHINGTON COURT,12525 Washington Pl,Los Angeles,CA,90066-4883,31080,Metropolitan Statistical Area,Los Angeles,6037,6037272201,37,34,-118,,,Family,,,,9% Tax Credit,
1028749,GRAMERCY COURT,3317 W Washington Blvd,Los Angeles,CA,90018-1251,31080,Metropolitan Statistical Area,Los Angeles,6037,6037218120,37,34.04,-118,,,,,,,9% Tax Credit,
1028751,39 WEST APARTMENTS,3885 S Western Ave,Los Angeles,CA,90062-1121,31080,Metropolitan Statistical Area,Los Angeles,6037,6037231400,37,34.01,-118,,,,,,,9% Tax Credit,
1028764,CAMBRIA APARTMENTS,738 S Union Ave,Los Angeles,CA,90017-2188,31080,Metropolitan Statistical Area,Los Angeles,6037,6037209403,34,34.05,-118,,,Family,,,,9% Tax Credit,
1028766,CASANOVA GARDENS,433 Casanova St,Los Angeles,CA,90012-1257,31080,Metropolitan Statistical Area,Los Angeles,6037,6037980010,34,34.07,-118,,,Family,,,,9% Tax Credit,
1028768,COCHRAN CITY LIGHTS,1315 S Cochran Ave,Los Angeles,CA,90019-2808,31080,Metropolitan Statistical Area,Los Angeles,6037,6037217100,37,34.05,-118,,,Family,,,,9% Tax Credit,
1028780,FIGUEROA COURT APARTMENTS,9130 S Figueroa St,Los Angeles,CA,90003-3952,31080,Metropolitan Statistical Area,Los Angeles,6037,6037240300,43,33.95,-118,,,,,,,9% Tax Credit,
1028783,GARLAND CITY LIGHTS,1209 W 8th St,Los Angeles,CA,90017-4438,31080,Metropolitan Statistical Area,Los Angeles,6037,6037209300,34,34.05,-118,,,Family,,,,9% Tax Credit,
1028793,P & P HOME FOR THE ELDERLY,1030 W 85th St,Los Angeles,CA,90044-3466,31080,Metropolitan Statistical Area,Los Angeles,6037,6037238200,37,33.96,-118,,,Elderly or disabled,,,,9% Tax Credit,
1028799,PLAZA VERMONT,939 W Gage Ave,Los Angeles,CA,90044,31080,Metropolitan Statistical Area,Los Angeles,6037,6037237101,37,33.98,-118,,,Family,,,,9% Tax Credit,
1028810,LOS ALTOS APARTMENTS APARTMENTS,4121 Wilshire Blvd,Los Angeles,CA,90010-3513,31080,Metropolitan Statistical Area,Los Angeles,6037,6037211701,34,34.06,-118,,,,,,,4% Tax Credit,
1028818,MISSION VILLAGE TERRACE,4001 N Mission Rd,Los Angeles,CA,90032-2588,31080,Metropolitan Statistical Area,Los Angeles,6037,6037199110,34,34.07,-118,,,Family,,,,4% Tax Credit,
1028823,THE BOYD HOTEL,224 Boyd St,Los Angeles,CA,90013-1406,31080,Metropolitan Statistical Area,Los Angeles,6037,6037206200,34,34.05,-118,,,,,,,9% Tax Credit,
1028837,PALM VILLAGE,1011 W 91st St,Los Angeles,CA,90044-3360,31080,Metropolitan Statistical Area,Los Angeles,6037,6037600100,43,33.95,-118,,,Elderly or disabled,,,,9% Tax Credit,
1028838,MAIN STREET HOUSING LP,101 W 74th St,Los Angeles,CA,90003-2066,31080,Metropolitan Statistical Area,Los Angeles,6037,6037239601,40,33.97,-118,33c,60c*,Family,Pension Fund,30,60.44,9% Tax Credit,
1028841,PALMER HOUSE,538 Wall St,Los Angeles,CA,90013-1551,31080,Metropolitan Statistical Area,Los Angeles,6037,6037206300,34,34.04,-118,,,,,,,9% Tax Credit,
1028859,PICO GRAMERCY FAMILY HOUSING,1303 S Gramercy Pl,Los Angeles,CA,90019-4607,31080,Metropolitan Statistical Area,Los Angeles,6037,6037221304,34,34.05,-118,,,Family,,,,9% Tax Credit,
1028862,235 BERENDO APARTMENTS,235 S Berendo St,Los Angeles,CA,90004-5754,31080,Metropolitan Statistical Area,Los Angeles,6037,6037211320,34,34.07,-118,,,,,,,9% Tax Credit,
1028894,AVALON-EL SEGUNDO SENIOR APARTMENTS,13232 Avalon Blvd,Los Angeles,CA,90061-2290,31080,Metropolitan Statistical Area,Los Angeles,6037,6037540800,44,33.91,-118,,,,,,,9% Tax Credit,
1028898,WATSON II,3939 Ursula Ave,Los Angeles,CA,90008-2145,31080,Metropolitan Statistical Area,Los Angeles,6037,6037236202,37,34.02,-118,,,Family,,,,4% Tax Credit,
1028910,CASA VERDE APARTMENTS,1552 Schrader Blvd,Los Angeles,CA,90028-7213,31080,Metropolitan Statistical Area,Los Angeles,6037,6037190700,28,34.1,-118,,,Family,,,,9% Tax Credit,
1028914,CHESTNUT VILLAGE,5675 York Blvd,Los Angeles,CA,90042-2550,31080,Metropolitan Statistical Area,Los Angeles,6037,6037183220,34,34.12,-118,,,Family,,,,9% Tax Credit,
1028923,West A Homes,4100 Vermont Ave,Los Angeles,CA,90037-1934,31080,Metropolitan Statistical Area,Los Angeles,6037,6037231710,37,34.01,-118,,,Family,,,,9% Tax Credit,
1028926,COURTLAND CITY LIGHTS,1355 N Cahuenga Blvd,Los Angeles,CA,90028-8137,31080,Metropolitan Statistical Area,Los Angeles,6037,6037190802,28,34.1,-118,,,Family,,,,9% Tax Credit,
1028929,WESTLAKE CITY LIGHTS,509 S Westlake Ave,Los Angeles,CA,90057-5200,31080,Metropolitan Statistical Area,Los Angeles,6037,6037208903,34,34.06,-118,,,Family,,,,9% Tax Credit,
1028940,FOX NORMANDIE APARTMENTS,849 S Normandie Ave,Los Angeles,CA,90005-2159,31080,Metropolitan Statistical Area,Los Angeles,6037,6037212420,34,34.06,-118,,,,,,,9% Tax Credit,
1028944,GRANDVIEW CITY LIGHTS,831 S Grand View St,Los Angeles,CA,90057-4043,31080,Metropolitan Statistical Area,Los Angeles,6037,6037209401,34,34.06,-118,,,Family,,,,9% Tax Credit,
1028946,HARBOR CITY LIGHTS,523 W 127th St,Los Angeles,CA,90044,31080,Metropolitan Statistical Area,Los Angeles,6037,6037291110,43,33.92,-118,,,Family,,,,4% Tax Credit,
1028960,BRYSON FAMILY APARTMENTS,2701 Wilshire Blvd,Los Angeles,CA,90057-3244,31080,Metropolitan Statistical Area,Los Angeles,6037,6037208720,34,34.06,-118,,,Family,,,,9% Tax Credit,
1028965,KENMORE APARTMENTS,1726 N Kenmore Ave,Los Angeles,CA,90027-4057,31080,Metropolitan Statistical Area,Los Angeles,6037,6037189201,28,34.1,-118,,,Family,,,,9% Tax Credit,
1028987,MIRADA TERRACE APARTMENTS,5657 La Mirada Ave,Los Angeles,CA,90038-2236,31080,Metropolitan Statistical Area,Los Angeles,6037,6037190901,28,34.09,-118,,,Family,,,,9% Tax Credit,
1029025,EMPRESS APARTMENTS,514 S Westlake Ave,Los Angeles,CA,90057-2967,31080,Metropolitan Statistical Area,Los Angeles,6037,6037208903,34,34.06,-118,,,Family,,,,9% Tax Credit,
1029027,SENDEROS,2141 Estrella Ave,Los Angeles,CA,90007-2055,31080,Metropolitan Statistical Area,Los Angeles,6037,6037224420,37,34.03,-118,,,Family,,,,9% Tax Credit,
1029028,FEDORA APARTMENTS,836 Fedora St,Los Angeles,CA,90005-2166,31080,Metropolitan Statistical Area,Los Angeles,6037,6037212305,34,34.06,-118,,,,,,,9% Tax Credit,
1029030,FIGUEROA OAKS,10210 S Figueroa St,Los Angeles,CA,90003-4458,31080,Metropolitan Statistical Area,Los Angeles,6037,6037240402,43,33.94,-118,,,Family,,,,9% Tax Credit,
1029042,GWEN BOLDEN MANOR,1302 E 41st St,Los Angeles,CA,90011-3355,31080,Metropolitan Statistical Area,Los Angeles,6037,6037228220,40,34.01,-118,,,Family,,,,9% Tax Credit,
1029047,SYCAMORE VILLAGE,523 S Rampart Blvd,Los Angeles,CA,90057-2622,31080,Metropolitan Statistical Area,Los Angeles,6037,6037208720,34,34.06,-118,,,Family,,,,9% Tax Credit,
1029082,WILSHIRE COURTYARD,2848 Sunset Pl,Los Angeles,CA,90005-3940,31080,Metropolitan Statistical Area,Los Angeles,6037,6037212204,34,34.06,-118,,,,,,,9% Tax Credit,
1029088,WESTERN CARTLON APARTMENTS,5443 Carlton Way,Los Angeles,CA,90027-4814,31080,Metropolitan Statistical Area,Los Angeles,6037,6037190510,28,34.1,-118,85c,93b,Family,,,,4% Tax Credit,
1029092,EUGENE THOMAS MANOR,2208 S Western Ave,Los Angeles,CA,90018-1360,31080,Metropolitan Statistical Area,Los Angeles,6037,6037221500,37,34.04,-118,,,,,,,9% Tax Credit,
1029094,HEAVENLY VISION SENIOR HOUSING LP,9500 S Broadway,Los Angeles,CA,90003-4053,31080,Metropolitan Statistical Area,Los Angeles,6037,6037240500,43,33.95,-118,,,Elderly or disabled,,,,9% Tax Credit,
1029095,IROLO APARTMENTS,770 Irolo St,Los Angeles,CA,90005-2370,31080,Metropolitan Statistical Area,Los Angeles,6037,6037212410,34,34.06,-118,,,,811 PRA DEMO,12,111.17,9% Tax Credit,
1029115,ADAMS CITY LIGHTS,4471 W Adams Blvd,Los Angeles,CA,90016-3063,31080,Metropolitan Statistical Area,Los Angeles,6037,6037218702,37,34.03,-118,,,Family,,,,9% Tax Credit,
1029116,ALEGRIA,2737 W Sunset Blvd,Los Angeles,CA,90026-2181,31080,Metropolitan Statistical Area,Los Angeles,6037,6037195600,28,34.08,-118,,,Family,,,,4% Tax Credit,
1029117,AMISTAD,1953 Estrella Ave,Los Angeles,CA,90007-1378,31080,Metropolitan Statistical Area,Los Angeles,6037,6037224420,37,34.03,-118,,,Family,,,,9% Tax Credit,
1029120,AVALON TERRACE NICOLET,4027 Nicolet Ave,Los Angeles,CA,90008-2219,31080,Metropolitan Statistical Area,Los Angeles,6037,6037236202,37,34.01,-118,,,Family,,,,9% Tax Credit,
1029121,BENTON GREEN APARTMENTS,528 N Benton Way,Los Angeles,CA,90026-3873,31080,Metropolitan Statistical Area,Los Angeles,6037,6037195802,28,34.08,-118,,,Family,,,,4% Tax Credit,
1029124,BRANDON APARTMENTS,735 Hartford Ave,Los Angeles,CA,90017-4472,31080,Metropolitan Statistical Area,Los Angeles,6037,6037209300,34,34.05,-118,,,,,,,9% Tax Credit,
1029134,MAYUR TOWN HOMES,5846 Carlton Way,Los Angeles,CA,90028-6679,31080,Metropolitan Statistical Area,Los Angeles,6037,6037191000,28,34.1,-118,,,Family,,,,9% Tax Credit,
1029143,DEWEY HOTEL,721 S Main St,Los Angeles,CA,90014-2363,31080,Metropolitan Statistical Area,Los Angeles,6037,6037207301,34,34.04,-118,,,,,,,9% Tax Credit,
1029144,DON CARLOS APARTMENTS,5226 Hollywood Blvd,Los Angeles,CA,90027-4963,31080,Metropolitan Statistical Area,Los Angeles,6037,6037190520,28,34.1,-118,,,Elderly or disabled,,,,9% Tax Credit,
1029173,HOPE VILLAGE,1031 S Hope St,Los Angeles,CA,90015-1585,31080,Metropolitan Statistical Area,Los Angeles,6037,6037207900,34,34.04,-118,,,Family,,,,4% Tax Credit,
1029181,LINCOLN HOTEL,549 Ceres Ave,Los Angeles,CA,90013-1716,31080,Metropolitan Statistical Area,Los Angeles,6037,6037206300,34,34.04,-118,,,,,,,9% Tax Credit,
1029183,MAGNOLIA CITY LIGHTS,2885 Leeward Ave,Los Angeles,CA,90005-1139,31080,Metropolitan Statistical Area,Los Angeles,6037,6037212204,34,34.06,-118,,,Family,,,,4% Tax Credit,
1029187,MARYLAND APARTMENTS,1340 Maryland St,Los Angeles,CA,90017-2034,31080,Metropolitan Statistical Area,Los Angeles,6037,6037209200,34,34.06,-118,,,,,,,9% Tax Credit,
1029190,SHERATON TOWN HOUSE,2961 Wilshire Blvd,Los Angeles,CA,90010,31080,Metropolitan Statistical Area,Los Angeles,6037,6037211120,34,34.06,-118,,,Family,,,,9% Tax Credit,
1029209,SYCAMORE PARK APARTMENTS,250 S Avenue 50,Los Angeles,CA,90042-4449,31080,Metropolitan Statistical Area,Los Angeles,6037,6037183820,34,34.1,-118,,,Family,,,,9% Tax Credit,
1029221,SALVATION ARMY WESTWOOD TRANSITIONAL VILLAGE,1341 S Sepulveda Blvd,Los Angeles,CA,90025-3481,31080,Metropolitan Statistical Area,Los Angeles,6037,6037701100,33,34.05,-118,,,Family,,,,9% Tax Credit,
1029227,TOLTON COURT,2806 E Washington Blvd,Los Angeles,CA,90023-4217,31080,Metropolitan Statistical Area,Los Angeles,6037,6037205120,34,34.02,-118,,,Family,,,,9% Tax Credit,
1029244,SOUTHERN HOTEL,412 E 5th St,Los Angeles,CA,90013-1561,31080,Metropolitan Statistical Area,Los Angeles,6037,6037206300,34,34.04,-118,,,,,,,9% Tax Credit,
1029249,VISTA NUEVA APARTMENTS,130 S La Fayette Park Pl,Los Angeles,CA,90057-1343,31080,Metropolitan Statistical Area,Los Angeles,6037,6037208620,34,34.07,-118,,,,,,,9% Tax Credit,
1029255,TOTLON/MONTCLAIR COURT,4200 Montclair St,Los Angeles,CA,90018-4809,31080,Metropolitan Statistical Area,Los Angeles,6037,6037219300,37,34.03,-118,,,Family,,,,9% Tax Credit,
1029267,BARNSDALL COURT APARTMENTS,1632 N Normandie Ave,Los Angeles,CA,90027-5147,31080,Metropolitan Statistical Area,Los Angeles,6037,6037191201,28,34.1,-118,,,Family,,,,4% Tax Credit,
1029275,CASA RAMPART APARTMENTS,401 S Rampart Blvd,Los Angeles,CA,90057-1717,31080,Metropolitan Statistical Area,Los Angeles,6037,6037208720,34,34.07,-118,,,,,,,9% Tax Credit,
1029284,ADAMS SENIOR GARDENS,1755 W Adams Blvd,Los Angeles,CA,90018-2760,31080,Metropolitan Statistical Area,Los Angeles,6037,6037221500,37,34.03,-118,,,Elderly or disabled,,,,9% Tax Credit,
1029296,PARK LANE FAMILY APARTMENTS,4508 W Martin Luther King Jr Blvd,Los Angeles,CA,90016-5965,31080,Metropolitan Statistical Area,Los Angeles,6037,6037236203,37,34.02,-118,,,Family,,,,9% Tax Credit,
1029314,AMISTAD APARTMENTS,2037 Lincoln Park Ave,Los Angeles,CA,90031-2792,31080,Metropolitan Statistical Area,Los Angeles,6037,6037199120,34,34.07,-118,,,,,,,9% Tax Credit,
1029315,TM CHAMBERS MANORS,2620 Menlo Ave,Los Angeles,CA,90007-6901,31080,Metropolitan Statistical Area,Los Angeles,6037,6037221810,37,34.03,-118,,,Elderly or disabled,,,,9% Tax Credit,
1029316,APPLE TREE VILLAGE,9229 Sepulveda Eastway,Los Angeles,CA,90045,31080,Metropolitan Statistical Area,Los Angeles,6037,6037278001,43,33.95,-118,,,,,,,9% Tax Credit,
1029342,ELYSIAN CITY LIGHTS,1370 Allison Ave,Los Angeles,CA,90026-4496,31080,Metropolitan Statistical Area,Los Angeles,6037,6037197600,34,34.07,-118,,,Family,,,,9% Tax Credit,
1029352,HOLLYWOOD WESTERN APARTMENTS,1672 N Western Ave,Los Angeles,CA,90027-4853,31080,Metropolitan Statistical Area,Los Angeles,6037,6037190510,28,34.1,-118,,,Family,,,,9% Tax Credit,
1029359,LA PRIMAVERA APARTMENTS,1330 S Olive St,Los Angeles,CA,90015-3051,31080,Metropolitan Statistical Area,Los Angeles,6037,6037224010,34,34.04,-118,,,,,,,9% Tax Credit,
1029384,GATEWAY CITY LIGHTS,523 1/2 W El Segundo Blvd,Los Angeles,CA,90061,31080,Metropolitan Statistical Area,Los Angeles,6037,6037291110,43,33.92,-118,,,Family,,,,9% Tax Credit,
1029389,GRANDVIEW NINE APARTMENTS,2300 James M Wood Blvd,Los Angeles,CA,90006-2068,31080,Metropolitan Statistical Area,Los Angeles,6037,6037209510,34,34.05,-118,,,Family,,,,4% Tax Credit,
1029391,HALE-MORRIS-LEWIS SENIOR MANOR,1307 W 105th St,Los Angeles,CA,90044-1763,31080,Metropolitan Statistical Area,Los Angeles,6037,6037600202,43,33.94,-118,,,Elderly or disabled,,,,4% Tax Credit,
1029392,RIVERS HOTEL,1226 E 7th St,Los Angeles,CA,90021,31080,Metropolitan Statistical Area,Los Angeles,6037,6037226002,34,34.04,-118,,,,,,,9% Tax Credit,
1029393,HAPPY VALLEY CITY LIGHTS,2580 N Soto St,Los Angeles,CA,90032-1472,31080,Metropolitan Statistical Area,Los Angeles,6037,6037201401,34,34.08,-118,,,Family,,,,9% Tax Credit,
1029402,SAN LUCAS SENIOR HOUSING,1221 W 7th St,Los Angeles,CA,90017-2394,31080,Metropolitan Statistical Area,Los Angeles,6037,6037209102,34,34.05,-118,,,Elderly or disabled,,,,4% Tax Credit,
1029415,MEERA TOWN HOMES,740 Valencia St,Los Angeles,CA,90017-4317,31080,Metropolitan Statistical Area,Los Angeles,6037,6037209300,34,34.05,-118,,,Family,,,,9% Tax Credit,
1029418,ST GEORGE HOTEL,115 E 3rd St,Los Angeles,CA,90013-1301,31080,Metropolitan Statistical Area,Los Angeles,6037,6037207302,34,34.05,-118,,,,,,,9% Tax Credit,
1029438,BROWNSTONE HOTEL,425 E 5th St,Los Angeles,CA,90013,31080,Metropolitan Statistical Area,Los Angeles,6037,6037206200,34,34.04,-118,,,,,,,9% Tax Credit,
1029480,ML SHEPARD MANOR SENIOR HOUISNG,2330 Santa Ana S,Los Angeles,CA,90059-1434,31080,Metropolitan Statistical Area,Los Angeles,6037,6037243100,44,33.93,-118,,,Elderly or disabled,,,,9% Tax Credit,
1029481,WILSHIRE CITY LIGHTS,716 S Carondelet St,Los Angeles,CA,90057-5028,31080,Metropolitan Statistical Area,Los Angeles,6037,6037209401,34,34.06,-118,,,Family,,,,9% Tax Credit,
1029487,AMISTAD PLAZA,6050 S Western Ave,Los Angeles,CA,90047-1464,31080,Metropolitan Statistical Area,Los Angeles,6037,6037237202,37,33.98,-118,,,Family,,,,4% Tax Credit,
1029497,EASTSIDE VILLAGE FAMILY APARTMENTS,2250 E 111th St,Los Angeles,CA,90059-2000,31080,Metropolitan Statistical Area,Los Angeles,6037,6037243100,44,33.93,-118,,,Family,,,,9% Tax Credit,
1029499,EUGENE HOTEL,558 Stanford Ave,Los Angeles,CA,90013,31080,Metropolitan Statistical Area,Los Angeles,6037,6037206300,34,34.04,-118,,,,,,,9% Tax Credit,
1029500,ALEGRIA APARTMENTS,801 W 23rd St,Los Angeles,CA,90007-2056,31080,Metropolitan Statistical Area,Los Angeles,6037,6037224420,37,34.03,-118,,,Family,,,,9% Tax Credit,
1029501,FAME WEST 25TH STREET,1940 W 25th St,Los Angeles,CA,90018-2181,31080,Metropolitan Statistical Area,Los Angeles,6037,6037221500,37,34.03,-118,,,Family,,,,9% Tax Credit,
1029505,HOLLYVIEW SENIOR APARTMENTS,5411 Hollywood Blvd,Los Angeles,CA,90027-3424,31080,Metropolitan Statistical Area,Los Angeles,6037,6037190402,28,34.1,-118,,,Elderly or disabled,,,,9% Tax Credit,
1029508,BROADWAY VISTAS,9800 S Broadway,Los Angeles,CA,90003-4168,31080,Metropolitan Statistical Area,Los Angeles,6037,6037240500,43,33.95,-118,,,Family,,,,9% Tax Credit,
1029515,PLAZA DE LEON APARTMENTS,630 S Alvarado St,Los Angeles,CA,90057-3334,31080,Metropolitan Statistical Area,Los Angeles,6037,6037208903,34,34.06,-118,,,Family,,,,9% Tax Credit,
1029518,CASA FIGUEROA APARTMENTS,7800 S Figueroa St,Los Angeles,CA,90003-2742,31080,Metropolitan Statistical Area,Los Angeles,6037,6037237720,37,33.97,-118,,,Family,,,,9% Tax Credit,
1029535,WISCONSIN III APARTMENTS,3790 Wisconsin St,Los Angeles,CA,90007-4235,31080,Metropolitan Statistical Area,Los Angeles,6037,6037231220,37,34.02,-118,,,Family,,,,4% Tax Credit,
1029537,ALISO VILLAGE APARTMENTS PHASE I,1400 Gabriel Garcia Marquez St,Los Angeles,CA,90033-2748,31080,Metropolitan Statistical Area,Los Angeles,6037,6037206032,34,34.05,-118,,,Family,,,,9% Tax Credit,
1029543,BALDWIN HILLS APARTMENTS,4063 Nicolet Ave,Los Angeles,CA,90008-2267,31080,Metropolitan Statistical Area,Los Angeles,6037,6037236202,37,34.01,-118,,,,,,,4% Tax Credit,
1029549,BENTLEY CITY LIGHTS,420 Witmer St,Los Angeles,CA,90017-1396,31080,Metropolitan Statistical Area,Los Angeles,6037,6037209103,34,34.06,-118,,,Family,,,,9% Tax Credit,
1029550,EL CENTRO LORETTO APARTMENTS,1021 N Hoover St,Los Angeles,CA,90029-3086,31080,Metropolitan Statistical Area,Los Angeles,6037,6037191410,28,34.09,-118,,,Family,,,,4% Tax Credit,
1029553,BURLINGTON CITY LIGHTS,456 S Burlington Ave,Los Angeles,CA,90057-3006,31080,Metropolitan Statistical Area,Los Angeles,6037,6037208904,34,34.06,-118,,,Family,,,,9% Tax Credit,
1029554,EMERALD PARK,212 Lucas Ave,Los Angeles,CA,90026-6148,31080,Metropolitan Statistical Area,Los Angeles,6037,6037208000,34,34.06,-118,,,Family,,,,9% Tax Credit,
1029569,CASTELAR APARTMENTS,601 N Hill St,Los Angeles,CA,90012,31080,Metropolitan Statistical Area,Los Angeles,6037,6037207102,34,34.06,-118,,,Family,,,,9% Tax Credit,
1029571,CESAR CHAVEZ GARDENS,521 W Cesar E Chavez Ave,Los Angeles,CA,90012-2155,31080,Metropolitan Statistical Area,Los Angeles,6037,6037207102,34,34.06,-118,,,Family,,,,4% Tax Credit,
1029584,LOS GIRASOLES,952 S Record Ave,Los Angeles,CA,90023-2555,31080,Metropolitan Statistical Area,Los Angeles,6037,6037531301,40,34.02,-118,,,Family,,,,9% Tax Credit,
1029587,MARYLAND HEIGHTS,1337 W 5th St,Los Angeles,CA,90017-2041,31080,Metropolitan Statistical Area,Los Angeles,6037,6037209200,34,34.06,-118,,,Family,,,,9% Tax Credit,
1029615,SANTEE COURT ONE,700 S Los Angeles St,Los Angeles,CA,90014-2108,31080,Metropolitan Statistical Area,Los Angeles,6037,6037226002,34,34.04,-118,,,,,,,4% Tax Credit,
1029621,SKYLINE VILLAGE,444 Lucas Ave,Los Angeles,CA,90017-2050,31080,Metropolitan Statistical Area,Los Angeles,6037,6037209200,34,34.06,-118,,,Family,,,,4% Tax Credit,
1029628,LAS BRISAS APARTMENTS,115 E 88th St,Los Angeles,CA,90003-3472,31080,Metropolitan Statistical Area,Los Angeles,6037,6037240200,43,33.96,-118,,,Family,,,,9% Tax Credit,
1029631,SUNSET CITY LIGHTS,2014 W Sunset Blvd,Los Angeles,CA,90026,31080,Metropolitan Statistical Area,Los Angeles,6037,6037195720,28,34.08,-118,,,Family,,,,9% Tax Credit,
1029635,TEMPLE CITY LIGHTS,306 N Alvarado St,Los Angeles,CA,90026-5461,31080,Metropolitan Statistical Area,Los Angeles,6037,6037208501,34,34.07,-118,,,Family,,,,9% Tax Credit,
1029638,HARVARD HEIGHTS APARTMENTS HOMES,950 S Harvard Blvd,Los Angeles,CA,90006-6262,31080,Metropolitan Statistical Area,Los Angeles,6037,6037213201,34,34.05,-118,,,Family,,,,9% Tax Credit,
1029660,EMERALD TERRACE APARTMENTS,1345 Emerald Dr,Los Angeles,CA,90026-2136,31080,Metropolitan Statistical Area,Los Angeles,6037,6037208000,34,34.06,-118,,,Family,,,,9% Tax Credit,
1029661,VERMONT CITY LIGHTS,4215 S Vermont Ave,Los Angeles,CA,90037-2492,31080,Metropolitan Statistical Area,Los Angeles,6037,6037231600,37,34.01,-118,,,Family,,,,9% Tax Credit,
1029683,WEST ANGELES VILLAS,6030 Crenshaw Blvd,Los Angeles,CA,90043-3984,31080,Metropolitan Statistical Area,Los Angeles,6037,6037234902,37,33.99,-118,,,Elderly or disabled,,,,4% Tax Credit,
1029687,WITMER/COLUMBIA PLACE,1304 W 7th St,Los Angeles,CA,90017-2219,31080,Metropolitan Statistical Area,Los Angeles,6037,6037209300,34,34.05,-118,,,Family,,,,9% Tax Credit,
1029697,CASA SHALOM,1308 S New Hampshire Ave,Los Angeles,CA,90006-4555,31080,Metropolitan Statistical Area,Los Angeles,6037,6037221220,34,34.05,-118,,,Family,,,,4% Tax Credit,
1029732,LITTLE TOKYO DEVELOPMENT,375 E 2nd St,Los Angeles,CA,90012-4239,31080,Metropolitan Statistical Area,Los Angeles,6037,6037206200,34,34.05,-118,,,Family,,,,4% Tax Credit,
1029733,ALAMEDA TERRACE,11917 S Figueroa St,Los Angeles,CA,90061-1413,31080,Metropolitan Statistical Area,Los Angeles,6037,6037241300,43,33.92,-118,,,Family,,,,9% Tax Credit,
1029744,L A COLORADO TERRACE,2455 Colorado Blvd,Los Angeles,CA,90041-1170,31080,Metropolitan Statistical Area,Los Angeles,6037,6037181000,34,34.14,-118,88b,92b,Family,,,,4% Tax Credit,
1029793,EAST LA COMMUNITY CORP,1074 S Rowan Ave,Los Angeles,CA,90023-2454,31080,Metropolitan Statistical Area,Los Angeles,6037,6037531301,40,34.02,-118,,,Family,,,,4% Tax Credit,
1029794,BROADWAY CITY LIGHTS,8000 S Broadway,Los Angeles,CA,90003-2460,31080,Metropolitan Statistical Area,Los Angeles,6037,6037239701,43,33.97,-118,,,Family,,,,9% Tax Credit,
1029817,CORONITA FAMILY APARTMENTS,204 Lucas Ave,Los Angeles,CA,90026-6969,31080,Metropolitan Statistical Area,Los Angeles,6037,6037208000,34,34.06,-118,,,Family,,,,9% Tax Credit,
1029836,GATEWAYS SRO HOUSING,444 N Hoover St,Los Angeles,CA,90004-2391,31080,Metropolitan Statistical Area,Los Angeles,6037,6037195903,28,34.08,-118,,,,,,,9% Tax Credit,
1029842,GRAND & VENICE FAMILY HOUSING,1500 S Grand Ave,Los Angeles,CA,90015-5400,31080,Metropolitan Statistical Area,Los Angeles,6037,6037224010,34,34.04,-118,,,Family,,,,9% Tax Credit,
1029848,HARVARD GLENMARY,8711 S Harvard Blvd,Los Angeles,CA,90047-3351,31080,Metropolitan Statistical Area,Los Angeles,6037,6037238400,43,33.96,-118,,,Elderly or disabled,,,,4% Tax Credit,
1029861,LAGUNA SENIOR APARTMENTS,4201 W Sunset Blvd,Los Angeles,CA,90029-2149,31080,Metropolitan Statistical Area,Los Angeles,6037,6037195400,28,34.09,-118,,,Elderly or disabled,,,,4% Tax Credit,
1029896,NEW TERMINAL HOTEL,901 E 7th St,Los Angeles,CA,90021-1407,31080,Metropolitan Statistical Area,Los Angeles,6037,6037206300,34,34.04,-118,,,,,,,9% Tax Credit,
1029903,PASCUAL REYES TOWNHOMES,1413 Connecticut St,Los Angeles,CA,90015,31080,Metropolitan Statistical Area,Los Angeles,6037,6037210010,34,34.05,-118,,,Family,,,,9% Tax Credit,
1029904,PALOMAR APARTMENTS,5473 Santa Monica Blvd,Los Angeles,CA,90029-2357,31080,Metropolitan Statistical Area,Los Angeles,6037,6037191120,28,34.09,-118,,,Elderly or disabled,,,,9% Tax Credit,
1029907,PICO/GRAMERCY FAMILY APARTMENTS,3201 W Pico Blvd,Los Angeles,CA,90019,31080,Metropolitan Statistical Area,Los Angeles,6037,6037213100,34,34.05,-118,,,Family,,,,4% Tax Credit,
1029936,ST ANNE'S TRANSITION HOUSING & CHILD CARE DEVELOPMENT,155 N Occidental Blvd,Los Angeles,CA,90026-4641,31080,Metropolitan Statistical Area,Los Angeles,6037,6037208610,34,34.07,-118,,,,,,,9% Tax Credit,
1029959,TRIANGLE SQUARE APARTMENTS,1602 Ivar Ave,Los Angeles,CA,90028-6353,31080,Metropolitan Statistical Area,Los Angeles,6037,6037190700,28,34.1,-118,,,Elderly or disabled,,,,4% Tax Credit,
1029960,TIDES SENIOR APARTMENTS,623 S Rampart Blvd,Los Angeles,CA,90057-3254,31080,Metropolitan Statistical Area,Los Angeles,6037,6037208720,34,34.06,-118,,,Elderly or disabled,,,,9% Tax Credit,
1029969,VIEWS AT 270,1516 N Western Ave,Los Angeles,CA,90027-5625,31080,Metropolitan Statistical Area,Los Angeles,6037,6037190510,28,34.1,-118,,,Family,,,,4% Tax Credit,
1029979,YANKEE HOTEL,501 E 7th St,Los Angeles,CA,90014-2445,31080,Metropolitan Statistical Area,Los Angeles,6037,6037206300,34,34.04,-118,,,,,,,9% Tax Credit,
1029989,METROPOLITAN LOFTS,1040 S Flower St,Los Angeles,CA,90015,31080,Metropolitan Statistical Area,Los Angeles,6037,6037207900,34,34.04,-118,,,,,,,4% Tax Credit,
1029993,SANTOS PLAZA APARTMENTS,3837 S Western Ave,Los Angeles,CA,90062-1295,31080,Metropolitan Statistical Area,Los Angeles,6037,6037231400,37,34.02,-118,,,,,,,9% Tax Credit,
1029994,TESORO DEL VALLE,2301 Humboldt St,Los Angeles,CA,90031-3493,31080,Metropolitan Statistical Area,Los Angeles,6037,6037199000,34,34.08,-118,,,Family,,,,9% Tax Credit,
1029995,CHANCELLOR,3191 W 7th St,Los Angeles,CA,90005-1684,31080,Metropolitan Statistical Area,Los Angeles,6037,6037212303,34,34.06,-118,,,,,,,4% Tax Credit,
1029998,SECURITY BUILDING LOFTS,510 S Spring St,Los Angeles,CA,90013-2399,31080,Metropolitan Statistical Area,Los Angeles,6037,6037207302,34,34.05,-118,,,,,,,4% Tax Credit,
1030000,MAIN STREET VISTAS,5950 S Main St,Los Angeles,CA,90003-1271,31080,Metropolitan Statistical Area,Los Angeles,6037,6037239202,40,33.99,-118,,,Family,,,,9% Tax Credit,
1030001,FIGUEROA PLACE,1320 W Sunset Blvd,Los Angeles,CA,90026-3991,31080,Metropolitan Statistical Area,Los Angeles,6037,6037197600,34,34.07,-118,,,Family,,,,9% Tax Credit,
1030003,BROADWAY VILLAGE APARTMENTS II,5101 S Broadway,Los Angeles,CA,90037-3871,31080,Metropolitan Statistical Area,Los Angeles,6037,6037231900,40,34,-118,,,Family,,,,4% Tax Credit,
1030008,FLORES DEL VALLE APARTMENTS,222 N Avenue 23,Los Angeles,CA,90031,31080,Metropolitan Statistical Area,Los Angeles,6037,6037199000,34,34.08,-118,,,Family,,,,9% Tax Credit,
1030009,MANSI TOWN HOMES,4520 S Figueroa St,Los Angeles,CA,90037-2678,31080,Metropolitan Statistical Area,Los Angeles,6037,6037232120,37,34,-118,,,Family,,,,9% Tax Credit,
1030014,LORENA TERRACE APARTMENTS,611 S Lorena St,Los Angeles,CA,90023-1666,31080,Metropolitan Statistical Area,Los Angeles,6037,6037204810,34,34.03,-118,,,Family,,,,4% Tax Credit,
1030019,VICTOR CLOTHING APARTMENTS,242 S Broadway,Los Angeles,CA,90012-3625,31080,Metropolitan Statistical Area,Los Angeles,6037,6037207301,34,34.05,-118,,,Family,,,,4% Tax Credit,
1030034,WILSHIRE VERMONT STATION,3183 Wilshire Blvd,Los Angeles,CA,90010-1211,31080,Metropolitan Statistical Area,Los Angeles,6037,6037211120,34,34.06,-118,,,,,,,4% Tax Credit,
1030036,WITMER HEIGHTS APARTMENTS HOMES,116 Witmer St,Los Angeles,CA,90026-6968,31080,Metropolitan Statistical Area,Los Angeles,6037,6037208302,34,34.06,-118,,,Family,,,,9% Tax Credit,
1030531,TRI-CITY HOUSING,511 S Mariposa Ave,Los Angeles,CA,90020-2854,31080,Metropolitan Statistical Area,Los Angeles,6037,6037212102,34,34.07,-118,,,,,,,4% Tax Credit,
1030533,PRESERVATION V,833 S Carondelet St,Los Angeles,CA,90057-3963,31080,Metropolitan Statistical Area,Los Angeles,6037,6037209401,34,34.06,-118,83c*,95c,Elderly,LMSA,69,64.29,4% Tax Credit,CA16M000355
1030747,ACADEMY HALL,12010 S Vermont Ave,Los Angeles,CA,90044-2975,31080,Metropolitan Statistical Area,Los Angeles,6037,6037291110,43,33.92,-118,,,,,,,4% Tax Credit,
1030749,ALEXANDRIA HOUSE APARTMENTS,510 S Alexandria Ave,Los Angeles,CA,90020-5509,31080,Metropolitan Statistical Area,Los Angeles,6037,6037212102,34,34.07,-118,,,,,,,4% Tax Credit,
1030768,STOVALL VILLA,535 W 41st St,Los Angeles,CA,90037-4487,31080,Metropolitan Statistical Area,Los Angeles,6037,6037231720,37,34.01,-118,90b,,Elderly,PRAC/202,31,53.76,,
1030772,PICO VETERAN SENIOR HOUSING,10961 W Pico Blvd,Los Angeles,CA,90064-2161,31080,Metropolitan Statistical Area,Los Angeles,6037,6037267800,37,34.04,-118,96b,97b,Elderly,PRAC/202,45,56.38,,
1030773,CASA LUCERNA,1025 S Kern Ave,Los Angeles,CA,90022-3041,31080,Metropolitan Statistical Area,Los Angeles,6037,6037531602,40,34.02,-118,,,Elderly or disabled,,,,4% Tax Credit,
1030778,ABBEY APARTMENTS,605 S San Pedro St,Los Angeles,CA,90014,31080,Metropolitan Statistical Area,Los Angeles,6037,6037206300,34,34.04,-118,,,,,,,4% Tax Credit,
1030790,BARBIZON HOTEL APARTMENTS,1927 W 6th St,Los Angeles,CA,90057-5222,31080,Metropolitan Statistical Area,Los Angeles,6037,6037208903,34,34.06,-118,,,Family,,,,4% Tax Credit,
1030803,BRONSON COURTS,1227 N Bronson Ave,Los Angeles,CA,90038,31080,Metropolitan Statistical Area,Los Angeles,6037,6037190902,28,34.09,-118,,,Family,,,,9% Tax Credit,
1030811,CARONDELET COURT APARTMENTS HOMES,816 S Carondelet St,Los Angeles,CA,90057-5103,31080,Metropolitan Statistical Area,Los Angeles,6037,6037209401,34,34.06,-118,,,Family,,,,9% Tax Credit,
1030818,MANITOU VISTAS I,3414 Manitou Ave,Los Angeles,CA,90031-2643,31080,Metropolitan Statistical Area,Los Angeles,6037,6037199120,34,34.07,-118,,,Family,,,,9% Tax Credit,
1030822,MARIPOSA PLACE APARTMENTS,5030 Santa Monica Blvd,Los Angeles,CA,90029-2412,31080,Metropolitan Statistical Area,Los Angeles,6037,6037191500,28,34.09,-118,,,Family,,,,4% Tax Credit,
1030823,CLINTON FAMILY APARTMENTS - LOS ANGELES,2114 Clinton St,Los Angeles,CA,90026-4543,31080,Metropolitan Statistical Area,Los Angeles,6037,6037195710,28,34.07,-118,,,Family,,,,9% Tax Credit,
1030833,CORTEZ CITY LIGHTS,1612 Cortez St,Los Angeles,CA,90026-6974,31080,Metropolitan Statistical Area,Los Angeles,6037,6037208302,34,34.07,-118,,,Family,,,,9% Tax Credit,
1030851,SAN PEDRO APARTMENTS,235 S San Pedro St,Los Angeles,CA,90012-3966,31080,Metropolitan Statistical Area,Los Angeles,6037,6037206200,34,34.05,-118,,,Family,,,,4% Tax Credit,
1030859,SEVEN MAPLES,2618 W 7th St,Los Angeles,CA,90057-3858,31080,Metropolitan Statistical Area,Los Angeles,6037,6037209401,34,34.06,-118,,,Elderly or disabled,,,,9% Tax Credit,
1030881,THE ARDMORE,959 S Ardmore Ave,Los Angeles,CA,90006-1484,31080,Metropolitan Statistical Area,Los Angeles,6037,6037213201,34,34.05,-118,,,Family,,,,9% Tax Credit,
1030903,KERNWOOD TERRACE APARTMENTS,337 S Mednik Ave,Los Angeles,CA,90022-1839,31080,Metropolitan Statistical Area,Los Angeles,6037,6037531603,40,34.04,-118,76c,69c,Elderly,HFDA/8 NC,51,91.88,,
1030914,LYNDON HOTEL,413 E 7th St,Los Angeles,CA,90014-2306,31080,Metropolitan Statistical Area,Los Angeles,6037,6037206300,34,34.04,-118,,,,,,,9% Tax Credit,
1030928,MIMMIM TOWN HOMES,5417 S Figueroa St,Los Angeles,CA,90037-4460,31080,Metropolitan Statistical Area,Los Angeles,6037,6037232700,37,33.99,-118,,,Family,,,,9% Tax Credit,
1030934,MORGAN PLACE,7301 Crenshaw Blvd,Los Angeles,CA,90043-4968,31080,Metropolitan Statistical Area,Los Angeles,6037,6037235202,37,33.97,-118,,,Elderly or disabled,,,,4% Tax Credit,
1030939,NORTHWEST GATEWAY APARTMENTS,1304 W 2nd St,Los Angeles,CA,90026-7003,31080,Metropolitan Statistical Area,Los Angeles,6037,6037208000,34,34.06,-118,,,,,,,4% Tax Credit,
1030968,SICHEL FAMILY APARTMENTS,1805 Sichel St,Los Angeles,CA,90031-1284,31080,Metropolitan Statistical Area,Los Angeles,6037,6037199900,34,34.06,-118,,,Family,,,,9% Tax Credit,
1030974,THE ALEXANDRIA HOTEL,501 S Spring St,Los Angeles,CA,90013-2310,31080,Metropolitan Statistical Area,Los Angeles,6037,6037207301,34,34.05,-118,,,,,,,4% Tax Credit,
1030976,THE HOBART,924 S Hobart Blvd,Los Angeles,CA,90006-1480,31080,Metropolitan Statistical Area,Los Angeles,6037,6037212501,34,34.05,-118,,,Family,,,,9% Tax Credit,
1030987,UNION POINT APARTMENTS,420 Union Dr,Los Angeles,CA,90017-1682,31080,Metropolitan Statistical Area,Los Angeles,6037,6037209102,34,34.06,-118,,,Family,,,,9% Tax Credit,
1031036,YALE TERRACE APARTMENTS,716 Yale St,Los Angeles,CA,90012-3896,31080,Metropolitan Statistical Area,Los Angeles,6037,6037207102,34,34.06,-118,,,Family,,,,9% Tax Credit,
1031175,ROSSLYN LOFTS,101 W 5th St,Los Angeles,CA,90013-1417,31080,Metropolitan Statistical Area,Los Angeles,6037,6037207302,34,34.05,-118,,,,,,,4% Tax Credit,
1031177,ADAMS & CENTRAL MIXED USE DEVELOPMENT,1011 E Adams Blvd,Los Angeles,CA,90011-5926,31080,Metropolitan Statistical Area,Los Angeles,6037,6037226420,40,34.02,-118,,,Family,,,,4% Tax Credit,
1031179,IMANI FE APARTMENTS,10424 S Central Ave,Los Angeles,CA,90002-3300,31080,Metropolitan Statistical Area,Los Angeles,6037,6037242000,43,33.94,-118,,,Family,,,,9% Tax Credit,
1031181,RITTENHOUSE SQUARE,1100 E 33rd St,Los Angeles,CA,90011-2969,31080,Metropolitan Statistical Area,Los Angeles,6037,6037228210,40,34.01,-118,,,Elderly or disabled,,,,9% Tax Credit,
1031183,TOWNE SQUARE,11650 Towne Ave,Los Angeles,CA,90061-2957,31080,Metropolitan Statistical Area,Los Angeles,6037,6037241001,43,33.93,-118,84c,87c*,,,,,9% Tax Credit,
1031185,INNES HEIGHTS APARTMENTS,1245 Innes Ave,Los Angeles,CA,90026-1798,31080,Metropolitan Statistical Area,Los Angeles,6037,6037197700,34,34.07,-118,,,,,,,9% Tax Credit,
1031189,CENTRAL VILLAGE APARTMENTS,1315 E 21st St,Los Angeles,CA,90011-1247,31080,Metropolitan Statistical Area,Los Angeles,6037,6037227010,40,34.02,-118,,,Family,,,,4% Tax Credit,
1031191,MIRAMAR CITY LIGHTS,1417 W 3rd St,Los Angeles,CA,90017-1496,31080,Metropolitan Statistical Area,Los Angeles,6037,6037208302,34,34.06,-118,,,Family,,,,9% Tax Credit,
1031198,FULLER AVENUE SR HOUSING,1627 N Fuller Ave,Los Angeles,CA,90046-3568,31080,Metropolitan Statistical Area,Los Angeles,6037,6037189905,28,34.1,-118,89b,89b,Elderly,202/8 NC,88,123.8,,
1031200,BRICKER,1671 N Western Ave,Los Angeles,CA,90027-4861,31080,Metropolitan Statistical Area,Los Angeles,6037,6037190510,28,34.1,-118,,,Elderly or disabled,,,,9% Tax Credit,
1031202,HOLLYWOOD BUNGALOW COURTS,1721 N Kingsley Dr,Los Angeles,CA,90027-3701,31080,Metropolitan Statistical Area,Los Angeles,6037,6037190401,28,34.1,-118,,,,,,,4% Tax Credit,
1031210,MIRAMAR VILLAGE,240 S Westlake Ave,Los Angeles,CA,90057-2400,31080,Metropolitan Statistical Area,Los Angeles,6037,6037208401,34,34.06,-118,,,Family,,,,9% Tax Credit,
1031212,ROSA PARKS VILLAS,2507 S Bronson Ave,Los Angeles,CA,90018-1973,31080,Metropolitan Statistical Area,Los Angeles,6037,6037218702,37,34.03,-118,,,Elderly or disabled,,,,9% Tax Credit,
1031214,ANGELUS PLAZA,255 S Hill St,Los Angeles,CA,90012-3500,31080,Metropolitan Statistical Area,Los Angeles,6037,6037207502,34,34.05,-118,98b,63c,Elderly,Sec 8 NC,757,71.96,4% Tax Credit,
1031218,ROSEWOOD GARDENS APARTMENTS,504 N Berendo St,Los Angeles,CA,90004-3054,31080,Metropolitan Statistical Area,Los Angeles,6037,6037192610,34,34.08,-118,,,Elderly or disabled,,,,9% Tax Credit,
1031220,BONNIE BRAE APARTMENTS HOMES,505 S Bonnie Brae St,Los Angeles,CA,90057-5228,31080,Metropolitan Statistical Area,Los Angeles,6037,6037208903,34,34.06,-118,,,Family,,,,4% Tax Credit,
1031222,LA BREA GARDENS,5120 Exposition Blvd,Los Angeles,CA,90016-5288,31080,Metropolitan Statistical Area,Los Angeles,6037,6037220100,37,34.02,-118,85c*,71b,Family,LMSA,185,99.49,4% Tax Credit,
1031224,CHARLES COBB APARTMENTS,521 S San Pedro St,Los Angeles,CA,90013-2148,31080,Metropolitan Statistical Area,Los Angeles,6037,6037206300,34,34.04,-118,,,,,,,4% Tax Credit,
1031230,FIGUEROA SENIOR HOUSING,5503 S Figueroa St,Los Angeles,CA,90037-4069,31080,Metropolitan Statistical Area,Los Angeles,6037,6037232700,37,33.99,-118,,,Elderly or disabled,,,,4% Tax Credit,
1031232,HOOVER SENIORS,6212 S Hoover St,Los Angeles,CA,90044-5480,31080,Metropolitan Statistical Area,Los Angeles,6037,6037237101,37,33.98,-118,89b,85b,Elderly,PRAC/202,37,59.62,,
1031236,ARDMORE CITY LIGHTS,737 S Ardmore Ave,Los Angeles,CA,90005,31080,Metropolitan Statistical Area,Los Angeles,6037,6037212410,34,34.06,-118,,,Family,,,,9% Tax Credit,
1031238,BROADWAY VILLAGE APARTMENTS I,254 W 78th St,Los Angeles,CA,90003-2450,31080,Metropolitan Statistical Area,Los Angeles,6037,6037239602,40,33.97,-118,,,Family,,,,9% Tax Credit,
1031239,BROADWAY PLAZA APARTMENTS,901 S Broadway,Los Angeles,CA,90015-2085,31080,Metropolitan Statistical Area,Los Angeles,6037,6037207900,34,34.04,-118,66c,66c,,,,,4% Tax Credit,
1031259,NORTH HOLLYWOOD ACCESSIBLE APARTMENTS,12145 BURBANK BLVD,Los Angeles,CA,91607,31080,Metropolitan Statistical Area,Los Angeles,6037,6037123800,29,34.17,-118,98b,79c,Disabled,PRAC/811,12,54.79,,
1031463,ALISO VILLAGE APARTMENTS PHASE II,205 E Elmyra St,Los Angeles,CA,90012-1817,31080,Metropolitan Statistical Area,Los Angeles,6037,6037206010,34,34.05,-118,,,Family,,,,9% Tax Credit,
1031473,STOCKER ST/54TH ST/VICTORIA MANOR APARTMENTS,STOCKER ST,Los Angeles,CA,90043,31080,Metropolitan Statistical Area,Los Angeles,6037,6037703200,37,33.99,-118,,,Family,,,,9% Tax Credit,
1031562,LEEWARD APARTMENTS,2911 Leeward Ave,Los Angeles,CA,90005-5305,31080,Metropolitan Statistical Area,Los Angeles,6037,6037212204,34,34.06,-118,,,,,,,4% Tax Credit,
1031580,SOMERVILE APARTMENTS PHASES I & II,1068 E 42nd Pl,Los Angeles,CA,90011-3095,31080,Metropolitan Statistical Area,Los Angeles,6037,6037228600,40,34.01,-118,,,Family,,,,9% Tax Credit,
1031622,MILAN TOWN HOMES,10006 S Broadway,Los Angeles,CA,90003-5500,31080,Metropolitan Statistical Area,Los Angeles,6037,6037240500,43,33.95,-118,,,Family,,,,9% Tax Credit,
1031624,LAS MARGARITAS APARTMENTS,115 N Soto St,Los Angeles,CA,90033-2932,31080,Metropolitan Statistical Area,Los Angeles,6037,6037204420,34,34.04,-118,,,Family,,,,9% Tax Credit,
1031626,CORONADO PLAZA,2614 W 7th St,Los Angeles,CA,90057-3640,31080,Metropolitan Statistical Area,Los Angeles,6037,6037209401,34,34.06,-118,,,Family,,,,9% Tax Credit,
1031630,CUATRO VIENTOS,5331 Huntington Dr N,Los Angeles,CA,90032-1871,31080,Metropolitan Statistical Area,Los Angeles,6037,6037201120,34,34.09,-118,,,Family,,,,9% Tax Credit,
1031632,EPWORTH APARTMENTS,6525 S Normandie Ave,Los Angeles,CA,90044-2662,31080,Metropolitan Statistical Area,Los Angeles,6037,6037237402,37,33.98,-118,,,,,,,9% Tax Credit,
1031634,CROSSINGS ON 29TH STREET,828 E 29th St,Los Angeles,CA,90011-6010,31080,Metropolitan Statistical Area,Los Angeles,6037,6037226700,40,34.02,-118,,,Family,,,,9% Tax Credit,
1031636,MENLO PARK,831 W 70th St,Los Angeles,CA,90044-5156,31080,Metropolitan Statistical Area,Los Angeles,6037,6037237500,37,33.98,-118,,,Family,,,,9% Tax Credit,
1031681,MAYA TOWN HOMES,306 W 120th St,Los Angeles,CA,90061,31080,Metropolitan Statistical Area,Los Angeles,6037,6037241400,44,33.92,-118,,,Family,,,,9% Tax Credit,
1031687,LORENA HEIGHTS APARTMENTS,3327 Sabina St,Los Angeles,CA,90023,31080,Metropolitan Statistical Area,Los Angeles,6037,6037204810,34,34,-118,80c,52c,Family,,,,9% Tax Credit,
1031689,WADSWORTH PARK APARTMENTS,1033 E 43rd St,Los Angeles,CA,90011,31080,Metropolitan Statistical Area,Los Angeles,6037,6037228600,40,34.01,-118,94b,94b,Family,Sec 8 NC,21,67.43,4% and 9% Tax Credit,
1031693,MOSAIC APARTMENTS,1521 W Pico Blvd,Los Angeles,CA,90015,31080,Metropolitan Statistical Area,Los Angeles,6037,6037210010,34,34.04,-118,,,Family,,,,9% Tax Credit,
1031695,ANDALUCIA HEIGHTS,458 Hartford Ave,Los Angeles,CA,90017,31080,Metropolitan Statistical Area,Los Angeles,6037,6037209103,34,34.06,-118,,,Family,,,,9% Tax Credit,
1031703,JUANITA VILLAS,335 N Juanita Ave,Los Angeles,CA,90004,31080,Metropolitan Statistical Area,Los Angeles,6037,6037192700,34,34.08,-118,,,,,,,9% Tax Credit,
1031709,GLASSELL PARK COMMUNITY HOUSING,3000 Verdugo Rd,Los Angeles,CA,90065-2181,31080,Metropolitan Statistical Area,Los Angeles,6037,6037186404,34,34.11,-118,,,Family,,,,9% Tax Credit,
1031710,LAS ALTURAS RHF SENIOR HOUSING,3525 WHITTIER BLVD,Los Angeles,CA,90023,31080,Metropolitan Statistical Area,Los Angeles,6037,6037204910,34,34.03,-118,82b,77b,Elderly,PRAC/811,74,38.06,,
1031719,FORD APARTMENTS,1000 E 7th St,Los Angeles,CA,90021,31080,Metropolitan Statistical Area,Los Angeles,6037,6037226002,34,34.04,-118,,,,,,,4% and 9% Tax Credit,
1031734,BROADWOOD TERRACE,5005 S Main St,Los Angeles,CA,90037-4601,31080,Metropolitan Statistical Area,Los Angeles,6037,6037231900,40,34,-118,83b,44c,Disabled,PRAC/202,79,32.77,9% Tax Credit,
1031736,MONTECITO APARTMENTS,6650 Franklin Ave,Los Angeles,CA,90028-4789,31080,Metropolitan Statistical Area,Los Angeles,6037,6037190202,28,34.1,-118,74c,63c,Elderly,,,,4% Tax Credit,
1032074,28TH ST YMCA RESIDENCES,1006 E 28th St,Los Angeles,CA,90011-5951,31080,Metropolitan Statistical Area,Los Angeles,6037,6037226700,40,34.02,-118,,,,,,,9% Tax Credit,
1032082,LA PRO II APARTMENTS,10311 S Western Ave,Los Angeles,CA,90047-4290,31080,Metropolitan Statistical Area,Los Angeles,6037,6037238000,43,33.94,-118,,,,,,,9% Tax Credit,
1032096,MY TOWN HOMES,12015 S Figueroa St,Los Angeles,CA,90061-1336,31080,Metropolitan Statistical Area,Los Angeles,6037,6037291110,43,33.92,-118,,,Family,,,,9% Tax Credit,
1032104,MENLO FAMILY HOUSING,1230 Menlo Ave,Los Angeles,CA,90006-3593,31080,Metropolitan Statistical Area,Los Angeles,6037,6037213402,34,34.05,-118,,,Family,,,,4% Tax Credit,
1032140,PWC FAMILY HOUSING,153 Glendale Blvd,Los Angeles,CA,90026-7090,31080,Metropolitan Statistical Area,Los Angeles,6037,6037208302,34,34.06,-118,,,Family,,,,9% Tax Credit,
1032142,THE GORDON,1555 Gordon St,Los Angeles,CA,90028-3306,31080,Metropolitan Statistical Area,Los Angeles,6037,6037191000,28,34.1,-118,,,Family,,,,9% Tax Credit,
1032158,BONNIE BRAE VILLAGE,208 S Bonnie Brae St,Los Angeles,CA,90057-5508,31080,Metropolitan,Los Angeles,6037,6037208401,34,34.06,-118,,,Elderly or disabled,,,,4% Tax Credit,
1032170,JEFFERSON BOULEVARD & FIFTH AVENUE APARTMENTS,2401 W Jefferson Blvd,Los Angeles,CA,90018-3766,31080,Metropolitan Statistical Area,Los Angeles,6037,6037219010,37,34.03,-118,,,Family,,,,9% Tax Credit,
1032172,ASBURY APARTMENTS,2501 W 6th St,Los Angeles,CA,90057-3107,31080,Metropolitan Statistical Area,Los Angeles,6037,6037208802,34,34.06,-118,,,,,,,4% Tax Credit,
1032184,FAR EAST BUILDING,347 E 1st St,Los Angeles,CA,90012-3901,31080,Metropolitan Statistical Area,Los Angeles,6037,6037206200,34,34.05,-118,,,Elderly or disabled,,,,4% Tax Credit,
1032193,BUCKINGHAM SENIOR APARTMENTS,4020 Buckingham Rd,Los Angeles,CA,90008-2369,31080,Metropolitan Statistical Area,Los Angeles,6037,6037236100,37,34.01,-118,,,Elderly or disabled,,,,4% Tax Credit,
1032206,WOODS FAMILY,5051 E 3rd St,Los Angeles,CA,90022-2059,31080,Metropolitan Statistical Area,Los Angeles,6037,6037530400,40,34.03,-118,,,Family,,,,9% Tax Credit,
1032207,SUNRISE APARTMENTS,5111 S Main St,Los Angeles,CA,90037-3839,31080,Metropolitan Statistical Area,Los Angeles,6037,6037231900,40,34,-118,,,Elderly or disabled,,,,9% Tax Credit,
1032208,RENATO APARTMENTS,527 San Julian St,Los Angeles,CA,90013,31080,Metropolitan Statistical Area,Los Angeles,6037,6037206300,34,34.04,-118,,,,,,,9% Tax Credit,
1032213,NORMANDIE TERRACE,540 S Normandie Ave,Los Angeles,CA,90020-3012,31080,Metropolitan Statistical Area,Los Angeles,6037,6037212102,34,34.06,-118,,,Family,,,,9% Tax Credit,
1032215,METRO AT HOLLYWOOD,5555 Hollywood Blvd,Los Angeles,CA,90028-6814,31080,Metropolitan Statistical Area,Los Angeles,6037,6037190301,28,34.1,-118,,,Elderly or disabled,,,,4% Tax Credit,
1032222,RAINBOW APARTMENTS,635 S San Pedro St,Los Angeles,CA,90014,31080,Metropolitan Statistical Area,Los Angeles,6037,6037206300,34,34.04,-118,,,,,,,9% Tax Credit,
1032250,MCCOY PLAZA A,9305 Firth Blvd,Los Angeles,CA,90002,31080,Metropolitan Statistical Area,Los Angeles,6037,6037242300,44,33.95,-118,,,Family,,,,9% Tax Credit,
1032252,CORONEL VILLAGE,935 S Boyle Ave,Los Angeles,CA,90023-1275,31080,Metropolitan Statistical Area,Los Angeles,6037,6037206050,34,34.04,-118,,,Elderly or disabled,,,,4% Tax Credit,
1032256,HARVARD CIRCLE,952 N Harvard Blvd,Los Angeles,CA,90029-3579,31080,Metropolitan Statistical Area,Los Angeles,6037,6037191620,28,34.09,-118,,,Family,,,,9% Tax Credit,
1032800,STEP UP ON VINE,1057 Vine St,Los Angeles,CA,90038-2744,31080,Metropolitan Statistical Area,Los Angeles,6037,6037191810,28,34.09,-118,,,,,,,9% Tax Credit,
1032801,DEL REY SQUARE SENIOR HOUSING,11976 Culver Blvd,Los Angeles,CA,90066-7441,31080,Metropolitan Statistical Area,Los Angeles,6037,6037275200,37,34,-118,99,98,Elderly or disabled,,,,4% Tax Credit,
1032802,ENCANTO COURT,1345 W 105th St,Los Angeles,CA,90044-1790,31080,Metropolitan Statistical Area,Los Angeles,6037,6037600202,43,33.94,-118,,,Elderly or disabled,,,,4% Tax Credit,
1032803,HOLLYWOOD & VINE APARTMENTS,1600 Vine St,Los Angeles,CA,90028-8818,31080,Metropolitan Statistical Area,Los Angeles,6037,6037190700,28,34.1,-118,,,Family,,,,4% Tax Credit,
1032804,NEW CARVER APARTMENTS,1624 S Hope St,Los Angeles,CA,90015-4119,31080,Metropolitan Statistical Area,Los Angeles,6037,6037224010,34,34.04,-118,,,,,,,TCEP,
1032805,THE VILLAS AT GOWER,1726 N Gower St,Los Angeles,CA,90028-5352,31080,Metropolitan Statistical Area,Los Angeles,6037,6037191000,28,34.1,-118,,,,,,,9% Tax Credit,
1032806,BOYLE HOTEL APARTMENTS,1781 E 1st St,Los Angeles,CA,90033-3469,31080,Metropolitan Statistical Area,Los Angeles,6037,6037206032,34,34.05,-118,,,Family,,,,9% Tax Credit,
1032807,DOLORES FRANCES APARTMENTS,1809 W 11th St,Los Angeles,CA,90006-3735,31080,Metropolitan Statistical Area,Los Angeles,6037,6037209520,34,34.05,-118,,,,,,,4% Tax Credit,
1032808,CENTRAL CITY FAMILY HOUSING,1810 W 12th St,Los Angeles,CA,90006-4180,31080,Metropolitan Statistical Area,Los Angeles,6037,6037209820,34,34.05,-118,,,Family,,,,4% Tax Credit,
1032810,HDR PORTFOLIOS,2747 Newell St,Los Angeles,CA,90039-3815,31080,Metropolitan Statistical Area,Los Angeles,6037,6037187200,28,34.1,-118,,,Family,,,,4% Tax Credit,
1032811,JEFFERSON PARK TERRACE,3023 S Western Ave,Los Angeles,CA,90018-3458,31080,Metropolitan Statistical Area,Los Angeles,6037,6037222001,37,34.03,-118,,,Family,,,,9% Tax Credit,
1032812,MIJA TOWNHOMES,4501 S Figueroa St,Los Angeles,CA,90037-4540,31080,Metropolitan Statistical Area,Los Angeles,6037,6037232120,37,34,-118,,,Family,,,,9% Tax Credit,
1032814,NEW GENESIS APARTMENTS,458 S Main St,Los Angeles,CA,90013-1320,31080,Metropolitan Statistical Area,Los Angeles,6037,6037207302,34,34.05,-118,,,,,,,9% Tax Credit,
1032815,36TH ST & BROADWAY APARTMENTS,4775 S Broadway,Los Angeles,CA,90037-3200,31080,Metropolitan Statistical Area,Los Angeles,6037,6037231900,40,34,-118,,,,,,,4% Tax Credit,
1032816,VERMONT AVENUE APARTMENTS,4915 S Vermont Ave,Los Angeles,CA,90037-4477,31080,Metropolitan Statistical Area,Los Angeles,6037,6037232300,37,34,-118,,,Family,,,,9% Tax Credit,
1032817,LINDA VISTA SENIOR APARTMENTS,630 S St Louis St,Los Angeles,CA,90023,31080,Metropolitan Statistical Area,Los Angeles,6037,6037204600,34,34.04,-118,,,Elderly or disabled,,,,4% Tax Credit,
1032818,MACARTHUR PARK APARTMENTS PHASE A,681 S Bonnie Brae St,Los Angeles,CA,90057-3735,31080,Metropolitan Statistical Area,Los Angeles,6037,6037208902,34,34.06,-118,,,Family,,,,4% Tax Credit,
1032821,CHINATOWN METRO APARTMENTS,808 N Spring St,Los Angeles,CA,90012-4405,31080,Metropolitan Statistical Area,Los Angeles,6037,6037207103,34,34.06,-118,,,Elderly or disabled,,,,4% Tax Credit,
1032822,YOUNG BURLINGTON APARTMENTS,820 S Burlington Ave,Los Angeles,CA,90057-4827,31080,Metropolitan Statistical Area,Los Angeles,6037,6037209403,34,34.05,-118,,,,,,,9% Tax Credit,
1032823,WESTMINSTER PARK PLAZA APARTMENTS,9300 Maie Ave,Los Angeles,CA,90002-2384,31080,Metropolitan Statistical Area,Los Angeles,6037,6037242300,44,33.95,-118,,,Family,,,,4% Tax Credit,
1032824,THE SERRANO,979 S Serrano Ave,Los Angeles,CA,90006-1175,31080,Metropolitan Statistical Area,Los Angeles,6037,6037213201,34,34.05,-118,,,Family,,,,9% Tax Credit,
1102045,NEW HAMPSHIRE FAMILY HOUSING,1053 S New Hampshire Ave,Los Angeles,CA,90006-2121,31080,Metropolitan Statistical Area,Los Angeles,6037,6037213320,34,34.05,-118,,,Family,,,,9% Tax Credit,
1102048,NEW PERSHING APARTMENTS,108 E 5th St,Los Angeles,CA,90013-1928,31080,Metropolitan Statistical Area,Los Angeles,6037,6037207302,34,34.05,-118,,,Elderly or disabled,,,,9% Tax Credit,
1102050,ROSSLYN HOTEL APARTMENTS,112 E 5th St,Los Angeles,CA,90013-1416,31080,Metropolitan Statistical Area,Los Angeles,6037,6037207302,34,34.05,-118,,,Elderly or disabled,,,,9% Tax Credit,
1102052,VERMONT VILLAS,16304 S VERMONT AVE,Los Angeles,CA,90247,31080,Metropolitan Statistical Area,Los Angeles,6037,6037291210,43,33.88,-118,,,Elderly or disabled,,,,9% Tax Credit,
1102054,NAVY VILLAGE (AKA BLUE BUTTERFLY VILLAGE),2213 BLUE BUTTERFLY WAY,Los Angeles,CA,90732,31080,Metropolitan Statistical Area,Los Angeles,6037,6037670326,33,33.78,-118,,,Elderly or disabled,,,,9% Tax Credit,
1102056,PARCEL M-GRAND AVENUE APARTMENTS,225 S Grand Ave Apt 410,Los Angeles,CA,90012-4423,31080,Metropolitan Statistical Area,Los Angeles,6037,6037207502,34,34.05,-118,,,,,,,4% Tax Credit,
1102058,TEAGUE TERRACE (AKA EAGLE VISTA),4260 Eagle Rock Blvd,Los Angeles,CA,90065-4480,31080,Metropolitan Statistical Area,Los Angeles,6037,6037186201,34,34.12,-118,,,Elderly or disabled,,,,4% Tax Credit,
1102060,HOLLENBECK TERRACE APARTMENTS,610 S St Louis St,Los Angeles,CA,90023-1298,31080,Metropolitan Statistical Area,Los Angeles,6037,6037204600,34,34.04,-118,,,Elderly or disabled,,,,9% Tax Credit,
1102062,VILLA NUEVA,658 S Ferris Ave,Los Angeles,CA,90022-2556,31080,Metropolitan Statistical Area,Los Angeles,6037,6037531604,40,34.02,-118,,,,,,,4% Tax Credit,
1102064,LAUREL VILLAGE,9700 LAUREL CANYON BLVD,Los Angeles,CA,91331,31080,Metropolitan Statistical Area,Los Angeles,6037,6037104821,29,34.25,-118,,,,,,,4% Tax Credit,
1102595,BURLINGTON FAMILY APARTMENTS,415 S Burlington Ave,Los Angeles,CA,90057-3268,31080,Metropolitan Statistical Area,Los Angeles,6037,6037208904,34,34.06,-118,,,Elderly or disabled,,,,9% Tax Credit,
1102599,BROADWAY VILLAS,9413 S Spring St,Los Angeles,CA,90003-4066,31080,Metropolitan Statistical Area,Los Angeles,6037,6037240500,43,33.95,-118,,,Elderly or disabled,,,,4% Tax Credit,
1102967,THE BERENDOS,226 N Berendo St,Los Angeles,CA,90004-4704,31080,Metropolitan Statistical Area,Los Angeles,6037,6037211202,34,34.08,-118,,,Elderly or disabled,,,,4% Tax Credit,
1102970,LDK SENIOR APARTMENTS,900 Crenshaw Blvd,Los Angeles,CA,90019-1978,31080,Metropolitan Statistical Area,Los Angeles,6037,6037212702,34,34.06,-118,,,Elderly or disabled,,,,4% Tax Credit,
1102972,PALOMA TERRACE,5000 S Main St,Los Angeles,CA,90037-4549,31080,Metropolitan Statistical Area,Los Angeles,6037,6037229300,40,34,-118,,,Family,,,,9% Tax Credit,
1102974,GATEWAY APARTMENTS,13368 BEACH AVE,Los Angeles,CA,90292,31080,Metropolitan Statistical Area,Los Angeles,6037,6037275400,37,33.99,-118,,,Elderly or disabled,,,,9% Tax Credit,
1103417,THE PARK PLAZA,960 W 62nd Pl,Los Angeles,CA,90044-5474,31080,Metropolitan Statistical Area,Los Angeles,6037,6037237101,37,33.98,-118,,,Family,,,,4% Tax Credit,
1103809,LAS ALTURAS,3535 Whittier Blvd,Los Angeles,CA,90023-1763,31080,Metropolitan Statistical Area,Los Angeles,6037,6037204910,34,34.03,-118,,,Elderly or disabled,,,,9% Tax Credit,
1103895,MACARTHUR PARK APARTMENTS PHASE B,676 S ALVARADO ST,Los Angeles,CA,90057,31080,Metropolitan Statistical Area,Los Angeles,6037,6037208903,34,34.06,-118,,,,,,,,
1103942,BESWICK SENIOR APARTMENTS,3553 Beswick St,Los Angeles,CA,90023-3053,31080,Metropolitan Statistical Area,Los Angeles,6037,6037204920,34,34.02,-118,,,Elderly or disabled,,,,9% Tax Credit,
1104033,GATEWAYS APARTMENTS,505 S San Pedro St,Los Angeles,CA,90013-2594,31080,Metropolitan Statistical Area,Los Angeles,6037,6037206300,34,34.04,-118,,,,,,,9% Tax Credit,
1104280,TERRACINA APARTMENTS,1226 W Imperial Hwy,Los Angeles,CA,90044-1355,31080,Metropolitan Statistical Area,Los Angeles,6037,6037600304,43,33.93,-118,,,Family,,,,9% Tax Credit,
1104420,CONCORD APARTMENTS,1801 N Alexandria Ave,Los Angeles,CA,90027-4031,31080,Metropolitan Statistical Area,Los Angeles,6037,6037189201,28,34.1,-118,,,Elderly or disabled,,,,4% Tax Credit,
1104460,BLOSSOM PLAZA,900 N Broadway,Los Angeles,CA,90012-1894,31080,Metropolitan Statistical Area,Los Angeles,6037,6037206010,34,34.06,-118,,,,,,,,
1104498,LOTUS GARDEN,719 Yale St,Los Angeles,CA,90012-3763,31080,Metropolitan Statistical Area,Los Angeles,6037,6037207102,34,34.06,-118,,,Family,,,,9% Tax Credit,
1104591,AVALON APARTMENTS,13218 Avalon Blvd,Los Angeles,CA,90061-2360,31080,Metropolitan Statistical Area,Los Angeles,6037,6037540800,44,33.91,-118,,,Elderly or disabled,,,,9% Tax Credit,
1104721,VERMONT MANZANITA,1225 S Vermont Ave,Los Angeles,CA,90006-2729,31080,Metropolitan Statistical Area,Los Angeles,6037,6037213320,34,34.05,-118,,,Family,,,,9% Tax Credit,
1104781,VERMONT CITY LIGHTS II,500 S Union Ave,Los Angeles,CA,90017-1067,31080,Metropolitan Statistical Area,Los Angeles,6037,6037209102,34,34.06,-118,,,,,,,,
1105020,THE WHITTIER,3555 Whittier Blvd,Los Angeles,CA,90023-1758,31080,Metropolitan Statistical Area,Los Angeles,6037,6037204910,34,34.03,-118,,,Family,,,,9% Tax Credit,
1105523,PLAYA SENIOR AFFORDABLE HOUSING,12481 W Fielding Cir Apt 122,Los Angeles,CA,90094-2935,31080,Metropolitan Statistical Area,Los Angeles,6037,6037275602,43,33.98,-118,,,Elderly or disabled,,,,9% Tax Credit,
1105589,SLAUSON STATION APARTMENTS,1717 E 61st St,Los Angeles,CA,90001-1400,31080,Metropolitan Statistical Area,Los Angeles,6037,6037532700,40,33.99,-118,,,Family,,,,4% Tax Credit,
1105644,THE SIX (AKA CARONDELET APTS),811 S Carondelet St,Los Angeles,CA,90057-3532,31080,Metropolitan Statistical Area,Los Angeles,6037,6037209401,34,34.06,-118,,,Elderly or disabled,,,,,
1105665,TAYLOR YARD APARTMENTS,1311 N San Fernando Rd,Los Angeles,CA,90065-1296,31080,Metropolitan Statistical Area,Los Angeles,6037,6037187102,34,34.09,-118,,,Family,,,,4% Tax Credit,
1105676,CRENSHAW FAMILY APARTMENTS,5110 Crenshaw Blvd,Los Angeles,CA,90043-1874,31080,Metropolitan Statistical Area,Los Angeles,6037,6037234501,37,34,-118,,,Family,,,,9% Tax Credit,
1105994,RIO VISTA APARTMENTS,1515 N San Fernando Rd,Los Angeles,CA,90065-1297,31080,Metropolitan Statistical Area,Los Angeles,6037,6037187102,34,34.1,-118,,,Family,,,,9% Tax Credit,
1106313,PROFESSIONAL HOUSING DEVELOPMENT APARTMENTS,1020 S Kingsley Dr,Los Angeles,CA,90006-2476,31080,Metropolitan Statistical Area,Los Angeles,6037,6037213201,34,34.05,-118,77c,69b,Family,LMSA,84,91.77,4% and 9% Tax Credit,
1106326,PRESERVATION IV,1045 W 18th St,Los Angeles,CA,90015-3356,31080,Metropolitan Statistical Area,Los Angeles,6037,6037224200,34,34.04,-118,90b,90b,Family,LMSA,29,72.8,4% Tax Credit,
1106361,CAROLINE SEVERANCE MANOR,2927 Francis Ave,Los Angeles,CA,90005-1766,31080,Metropolitan Statistical Area,Los Angeles,6037,6037212202,34,34.06,-118,,,,,,,9% Tax Credit,
1106595,STEVENSON MANOR,1230 Cole Ave,Los Angeles,CA,90038-1555,31080,Metropolitan Statistical Area,Los Angeles,6037,6037190802,28,34.09,-118,93c,74c*,Elderly,Sec 8 NC,61,93.45,4% Tax Credit,
1106613,UNIVERSITY GARDENS APARTMENTS,1250 W Jefferson Blvd,Los Angeles,CA,90007-2924,31080,Metropolitan Statistical Area,Los Angeles,6037,6037222600,37,34.03,-118,73c,80c,Family,PD/8 Existing,113,107.66,4% Tax Credit,
1106678,SOUTH BAY VILLA,13111 S San Pedro St,Los Angeles,CA,90061-2760,31080,Metropolitan Statistical Area,Los Angeles,6037,6037540902,44,33.91,-118,83c,69c*,Family,Sec 8 NC,80,108.93,9% Tax Credit,
1106727,MISSION PLAZA,2218 Parkside Ave,Los Angeles,CA,90031-2935,31080,Metropolitan Statistical Area,Los Angeles,6037,6037199120,34,34.07,-118,91c,99a,Family,Preservation,132,86.77,9% Tax Credit,
1106812,LA PRO APARTMENTS,249 N Juanita Ave,Los Angeles,CA,90004,31080,Metropolitan Statistical Area,Los Angeles,6037,6037211122,34,34.08,-118,,,,,,,4% Tax Credit,
1106843,ST ANDREWS ARMS,1511 S St Andrews Pl,Los Angeles,CA,90019-4851,31080,Metropolitan Statistical Area,Los Angeles,6037,6037221304,34,34.05,-118,92c,75c,Family,Preservation,27,83.21,9% Tax Credit,
1106908,CASA DE LAS HERMANITAS,2801 E 2nd St,Los Angeles,CA,90033-4144,31080,Metropolitan Statistical Area,Los Angeles,6037,6037204300,34,34.04,-118,95b,95b,Elderly,HFDA/8 NC,88,102.91,4% Tax Credit,
1106923,IMPERIAL HIGHWAY APARTMENTS,1746 E 117th St,Los Angeles,CA,90059-2556,31080,Metropolitan Statistical Area,Los Angeles,6037,6037540700,44,33.93,-118,85b,88b,Family,PD/8 SR,46,62.34,4% Tax Credit,
1106939,WASHINGTON COURT APARTMENTS,1717 E 103rd St,Los Angeles,CA,90002-2931,31080,Metropolitan Statistical Area,Los Angeles,6037,6037242200,44,33.94,-118,58c*,73c*,Family,LMSA,102,101.47,4% Tax Credit,
1107378,TRES LOMAS APARTMENTS,4343 Toland Way,Los Angeles,CA,90041-3455,31080,Metropolitan Statistical Area,Los Angeles,6037,6037186201,34,34.12,-118,74c,98b,Elderly,Sec 8 NC,45,73.7,4% Tax Credit,
1107379,CURTIS JOHNSON APARTMENTS,897 W Vernon Ave,Los Angeles,CA,90037-3037,31080,Metropolitan Statistical Area,Los Angeles,6037,6037231710,37,34,-118,95b,83c,Family,LMSA,48,84.92,4% Tax Credit,
1107629,SONYA GARDENS,8621 Denver Ave,Los Angeles,CA,90044-5751,31080,Metropolitan Statistical Area,Los Angeles,6037,6037240300,43,33.96,-118,97b,87b,Family,LMSA,60,71.18,9% Tax Credit,
1107850,DELTA APARTMENTS,825 Forest Ave,Los Angeles,CA,90033-2601,31080,Metropolitan Statistical Area,Los Angeles,6037,6037203710,34,34.05,-118,81c,81c,Family,LMSA,4,95.45,4% Tax Credit,
1108020,ARGYLE APARTMENTS,1600 N Western Ave,Los Angeles,CA,90027-4831,31080,Metropolitan Statistical Area,Los Angeles,6037,6037190510,28,34.1,-118,,,Family,,,,9% Tax Credit,
1108484,PRESERVATION III,6427 S Hoover St,Los Angeles,CA,90044-5355,31080,Metropolitan Statistical Area,Los Angeles,6037,6037237500,37,33.98,-118,81c*,79c,Family,LMSA,9,78.61,4% Tax Credit,CA16L000098
1127136,5400 HOLLYWOOD FAMILY APARTMENTS,5400 Hollywood Blvd,Los Angeles,CA,90027-3406,31080,Metropolitan Statistical Area,Los Angeles,6037,6037190510,28,34.1,-118,,,Elderly or disabled,,,,9% Tax Credit,
1129634,PANAMA HOTEL APARTMENTS,403 E 5th St,Los Angeles,CA,90013-1507,31080,Metropolitan Statistical Area,Los Angeles,6037,6037206200,34,34.04,-118,,,,,,,9% Tax Credit,
1129913,SELMA COMMUNITY HOUSING,1605 N Cherokee Ave,Los Angeles,CA,90028-6234,31080,Metropolitan Statistical Area,Los Angeles,6037,6037190700,28,34.1,-118,,,Family,,,,9% Tax Credit,
1129914,HCHC RECAP I,1924 Argyle Ave,Los Angeles,CA,90068-3967,31080,Metropolitan Statistical Area,Los Angeles,6037,6037189500,28,34.11,-118,,,Family,,,,4% Tax Credit,
1129915,MARMION WAY APARTMENTS,3500 Marmion Way,Los Angeles,CA,90065,31080,Metropolitan Statistical Area,Los Angeles,6037,6037199000,34,34.09,-118,,,,,,,9% Tax Credit,
1129916,MIRAGE TOWN HOMES,5221 S WERN AVE,Los Angeles,CA,90062,31080,Metropolitan Statistical Area,Los Angeles,6037,6037232500,37,33.99,-118,,,Family,,,,9% Tax Credit,
1129917,SILVER STAR APARTMENTS (FKA WEST VILLAS),6558 West Blvd,Los Angeles,CA,90043-4300,31080,Metropolitan Statistical Area,Los Angeles,6037,6037234902,37,33.98,-118,,,Family,,,,9% Tax Credit,
1130497,THE PASEO AT CALIFORNIAN,1901 W 6th St,Los Angeles,CA,90057-3538,31080,Metropolitan Statistical Area,Los Angeles,6037,6037208903,34,34.06,-118,,,Elderly or disabled,,,,4% Tax Credit,
1146300,PAUL WILLIAMS APARTMENTS,1010 W Jefferson Blvd Ste 1,Los Angeles,CA,90089-0251,31080,Metropolitan Statistical Area,Los Angeles,6037,6037222700,37,34.03,-118,,,Family,,,,4% and 9% Tax Credit,
1146309,PATH METRO VILLAS,345 N Westmoreland Ave,Los Angeles,CA,90004-3570,31080,Metropolitan Statistical Area,Los Angeles,6037,6037192700,34,34.08,-118,,,Elderly or disabled,,,,4% Tax Credit,
1147240,SANTA CECILIA APARTMENTS,117 S Boyle Ave,Los Angeles,CA,90033-3457,31080,Metropolitan Statistical Area,Los Angeles,6037,6037206032,34,34.05,-118,,,Family,,,,9% Tax Credit,
1150552,MAGNOLIA ON LAKE,2220 E 2nd St,Los Angeles,CA,90033-3924,31080,Metropolitan Statistical Area,Los Angeles,6037,6037204420,34,34.04,-118,,,Family,,,,9% Tax Credit,
1150553,STAR APARTMENTS,240 E 6th St,Los Angeles,CA,90014-2177,31080,Metropolitan Statistical Area,Los Angeles,6037,6037206300,34,34.04,-118,,,,,,,9% Tax Credit,
1150554,KNOB HILL APARTMENTS,2403 W 4th St,Los Angeles,CA,90057-2247,31080,Metropolitan Statistical Area,Los Angeles,6037,6037208802,34,34.06,-118,,,,,,,9% Tax Credit,
1154145,KING 1101,1101 W Martin Luther King Jr Blvd,Los Angeles,CA,90037-4401,31080,Metropolitan Statistical Area,Los Angeles,6037,6037231220,37,34.01,-118,,,,,,,9% Tax Credit,
1154148,ATHENS VISTAS,1300 W 105th St,Los Angeles,CA,90044-1872,31080,Metropolitan Statistical Area,Los Angeles,6037,6037600202,43,33.94,-118,,,Elderly or disabled,,,,9% Tax Credit,
1154158,EL SEGUNDO BOULEVARD APARTMENTS,535 W El Segundo Blvd,Los Angeles,CA,90061-1266,31080,Metropolitan Statistical Area,Los Angeles,6037,6037291110,43,33.92,-118,,,,,,,4% Tax Credit,
1154159,127TH STREET APARTMENTS,550 W 127th St,Los Angeles,CA,90044-3977,31080,Metropolitan Statistical Area,Los Angeles,6037,6037291110,43,33.92,-118,,,,,,,4% Tax Credit,
1154931,JAMES WOOD APARTMENTS,1405 James M Wood Blvd,Los Angeles,CA,90015-1280,31080,Metropolitan,Los Angeles,6037,6037209300,34,34.05,-118,,,Family,,,,4% Tax Credit,
1156323,NEW HAMPSHIRE APARTMENTS,1509 S New Hampshire Ave,Los Angeles,CA,90006-4557,31080,Metropolitan,Los Angeles,6037,6037221220,34,34.04,-118,99b,93b,Family,LMSA,6,107.88,,
1160554,WHITTIER & DOWNEY SOUTHEAST,4200 Whittier Blvd,Los Angeles,CA,90023-2060,31080,Metropolitan Statistical Area,Los Angeles,6037,6037531301,40,34.02,-118,,,Family,,,,,
1160903,QUEEN APARTMENTS,2620 Orchard Ave,Los Angeles,CA,90007-2371,31080,Metropolitan,Los Angeles,6037,6037221820,37,34.03,-118,74c,67c*,Family,LMSA,96,92.76,,
1161261,WATTS ATHENS,717 W 81st St,Los Angeles,CA,90044-5969,31080,Metropolitan,Los Angeles,6037,6037238310,37,33.97,-118,,,,,,,4% Tax Credit,
1161262,MOSAIC GARDENS AT WESTLAKE,111 Lucas Ave,Los Angeles,CA,90026-7136,31080,Metropolitan Statistical Area,Los Angeles,6037,6037208302,34,34.06,-118,,,Family,,,,9% Tax Credit,
1161263,CORONEL APARTMENTS,1600 N Serrano Ave,Los Angeles,CA,90027-4806,31080,Metropolitan Statistical Area,Los Angeles,6037,6037190520,28,34.1,-118,,,Family,,,,4% and 9% Tax Credit,
1161264,CRENSHAW VILLAS,2645 Crenshaw Blvd,Los Angeles,CA,90016-3165,31080,Metropolitan Statistical Area,Los Angeles,6037,6037220000,37,34.03,-118,,,Elderly or disabled,,,,9% Tax Credit,
1161265,PRESERVATION II,300 E 51st St,Los Angeles,CA,90011-4553,31080,Metropolitan,Los Angeles,6037,6037229300,40,34,-118,,,Elderly or disabled,,,,4% Tax Credit,
1161266,RHF CRENSHAW GARDENS,3411 Crenshaw Blvd,Los Angeles,CA,90016-4874,31080,Metropolitan Statistical Area,Los Angeles,6037,6037220000,37,34.03,-118,,,Family,,,,9% Tax Credit,
1161267,HARMONY GATES,5220 HARMONY AVE,Los Angeles,CA,91601,31080,,Los Angeles,6037,6037125320,29,34.17,-118,,,Family,,,,4% Tax Credit,
1161268,RICHARD N HOGAN MANOR,5506 S Figueroa St,Los Angeles,CA,90037-4071,31080,Metropolitan,Los Angeles,6037,6037232700,37,33.99,-118,,,Family,,,,9% Tax Credit,
1162223,PRESERVATION I,1156 W Adams Blvd,Los Angeles,CA,90007-2374,31080,Metropolitan,Los Angeles,6037,6037221820,37,34.03,-118,,,,,,,4% Tax Credit,
1162224,LAS BRISAS,200 N Bixel St,Los Angeles,CA,90026-6608,31080,Metropolitan,Los Angeles,6037,6037208000,34,34.06,-118,,,Family,,,,9% Tax Credit,
1162225,BOYLE APARTMENTS AND JEWEL TERRACE APARTMENTS,2950 Van Buren Pl,Los Angeles,CA,90007-2867,31080,Metropolitan Statistical Area,Los Angeles,6037,6037222100,37,34.03,-118,,,,,,,4% Tax Credit,
1001688,COLUMBUS TERRACE APARTMENTS,8606 Columbus Ave,Los Angeles,CA,91343-5909,31080,Metropolitan Statistical Area,Los Angeles,6037,6037117530,29,34.23,-118,99a,97a,Elderly,Sec 8 NC,42,86.47,,
1014563,RAYEN PARK APARTMENTS,15233 Rayen St,Los Angeles,CA,91343-4458,31080,Metropolitan Statistical Area,Los Angeles,6037,6037117510,29,34.23,-118,90c,90c,Elderly,Preservation,84,88.97,,
1018164,ST NICHOLAS HOUSING DEVELOPMENT,10220 Aqueduct Ave,Los Angeles,CA,91343-1546,31080,Metropolitan Statistical Area,Los Angeles,6037,6037109800,29,34.26,-118,86c,89c,Elderly,LMSA,36,95.25,,
1027140,PLUMMER VILLAGE,15450 Plummer St,Los Angeles,CA,91343-2141,31080,Metropolitan Statistical Area,Los Angeles,6037,6037117201,29,34.24,-118,80b,92b*,Elderly,Sec 8 NC,74,84.36,9% Tax Credit,
1027410,COLUMBUS SQUARE,8561 Columbus Ave,Los Angeles,CA,91343-6079,31080,Metropolitan Statistical Area,Los Angeles,6037,6037117530,29,34.23,-118,96b,99b,Elderly,LMSA,64,100.73,4% Tax Credit,
1027525,HOMESTEAD,16020 Gresham St,Los Angeles,CA,91343-4838,31080,Metropolitan Statistical Area,Los Angeles,6037,6037117404,29,34.23,-118,88b,88b,Disabled,PRAC/811,6,92.46,,
1027549,VILLAGE ACQUISITION II,9258 Hayvenhurst Ave,Los Angeles,CA,91343-3607,31080,Metropolitan Statistical Area,Los Angeles,6037,6037117301,29,34.24,-118,90c,90c,Disabled,PRAC/811,6,72.77,,
1027564,VILLAGE CHOICE,16124 Tupper St,Los Angeles,CA,91343-3048,31080,Metropolitan Statistical Area,Los Angeles,6037,6037117202,29,34.24,-118,93c,93c,Disabled,PRAC/811,6,33.89,,
1028595,CASA SEVILLE/MEMORY PARK,8750 Memory Park Ave,Los Angeles,CA,91343-5319,31080,Metropolitan Statistical Area,Los Angeles,6037,6037117520,29,34.23,-118,,,Family,,,,9% Tax Credit,
1028605,DECRO NORDHOFF APARTMENTS,15543 Nordhoff St,Los Angeles,CA,91343-3247,31080,Metropolitan Statistical Area,Los Angeles,6037,6037117201,29,34.24,-118,,,Family,,,,9% Tax Credit,
1028831,OROZCO VILLAS,8920 Orion Ave,Los Angeles,CA,91343-4261,31080,Metropolitan Statistical Area,Los Angeles,6037,6037117405,29,34.23,-118,,,Family,,,,9% Tax Credit,
1029421,MISSION CITY LIGHTS,9121 Sepulveda Blvd,Los Angeles,CA,91343-6968,31080,Metropolitan Statistical Area,Los Angeles,6037,6037117201,29,34.24,-118,,,Family,,,,9% Tax Credit,
1030017,VALLEY VIEW,9015 Orion Ave,Los Angeles,CA,91343-4296,31080,Metropolitan Statistical Area,Los Angeles,6037,6037117405,29,34.23,-118,,,Family,,,,9% Tax Credit,
1030040,WOODLAND TERRACE,15532 Nordhoff St,Los Angeles,CA,91343-3263,31080,Metropolitan Statistical Area,Los Angeles,6037,6037117405,29,34.24,-118,,,,,,,4% Tax Credit,
1030830,ORION GARDENS APARTMENTS,8955 Orion Ave,Los Angeles,CA,91343-4310,31080,Metropolitan Statistical Area,Los Angeles,6037,6037117405,29,34.23,-118,,,Family,,,,9% Tax Credit,
1030843,RAYEN APARTMENTS,15320 Rayen St,Los Angeles,CA,91343-5165,31080,Metropolitan Statistical Area,Los Angeles,6037,6037117520,29,34.23,-118,,,,,,,9% Tax Credit,
1031251,RAINBOW HOMES,15917 Chase St,Los Angeles,CA,91343-6305,31080,Metropolitan Statistical Area,Los Angeles,6037,6037117404,29,34.22,-118,92a,92a,Disabled,PRAC/811,12,128.53,,
1032832,ND SEPULVEDA I,16000 Lassen St,Los Angeles,CA,91343-1685,31080,Metropolitan Statistical Area,Los Angeles,6037,6037117202,29,34.25,-118,,,,,,,9% Tax Credit,
1103952,ND SEPULVEDA II,9700 Woodley Ave,Los Angeles,CA,91343-1944,31080,Metropolitan Statistical Area,Los Angeles,6037,6037117202,29,34.25,-118,,,,,,,9% Tax Credit,
1001374,LANKERSHIM ARMS,7628 Lankershim Blvd,Los Angeles,CA,91605-2887,31080,Metropolitan Statistical Area,Los Angeles,6037,6037121900,29,34.21,-118,97b,97b,Family,Sec 8 NC,56,91.35,,
1014715,RUNNYMEDE HOLIDAY APARTMENTS,11750 Runnymede St,Los Angeles,CA,91605-3221,31080,Metropolitan Statistical Area,Los Angeles,6037,6037122410,29,34.21,-118,64c*,61c,Family,Preservation,22,60.8,,
1018166,CASA LINDA II,11233 Hatteras St,Los Angeles,CA,91601-1249,31080,Metropolitan Statistical Area,Los Angeles,6037,6037124203,29,34.18,-118,93b,93b,Family,HFDA/8 NC,3,75.4,,
1018168,CASA LINDA I,11425 Tiara St,Los Angeles,CA,91601-1124,31080,Metropolitan Statistical Area,Los Angeles,6037,6037124102,29,34.18,-118,86b,86b,Family,HFDA/8 NC,3,77.48,,
1018170,CASA LINDA III,5654 Fulcher Ave,Los Angeles,CA,91601-1945,31080,Metropolitan Statistical Area,Los Angeles,6037,6037124204,29,34.17,-118,96c,96c,Family,HFDA/8 NC,3,76.78,,
1027108,SIMPSON ARBOR APARTMENTS,7507 Simpson Ave,Los Angeles,CA,91605-3225,31080,Metropolitan Statistical Area,Los Angeles,6037,6037122410,29,34.21,-118,99b,99b,Family,LMSA,82,76.4,9% Tax Credit,
1027194,LAS CASITAS III,6845 Hinds Ave,Los Angeles,CA,91605-6068,31080,Metropolitan Statistical Area,Los Angeles,6037,6037123203,29,34.2,-118,91b*,72b,Family,HFDA/8 NC,8,72.89,,
1027202,LAS CASITAS I,11301 Hatteras St,Los Angeles,CA,91601-1294,31080,Metropolitan Statistical Area,Los Angeles,6037,6037124203,29,34.18,-118,86b,60b,Family,HFDA/8 NC,6,99.46,,
1027224,HAMLIN ESTATES,11735 Hamlin St,Los Angeles,CA,91606-2858,31080,Metropolitan Statistical Area,Los Angeles,6037,6037123901,29,34.19,-118,90c,80c,Family,Sec 8 NC,30,72.34,4% Tax Credit,
1027306,NORTH HOLLYWOOD SR CITIZENS,11035 Magnolia Blvd,Los Angeles,CA,91601-3851,31080,Metropolitan Statistical Area,Los Angeles,6037,6037125320,29,34.17,-118,88b,77b,Elderly,202/8 NC,200,76.66,,
1027512,GARDEN VILLAS,5530 Klump Ave,Los Angeles,CA,91601-2494,31080,Metropolitan Statistical Area,Los Angeles,6037,6037125310,29,34.17,-118,97b,99a,Disabled,PRAC/811,24,90.21,,
1027517,GOLDEN YEARS SR,11330 Otsego St,Los Angeles,CA,91601-3793,31080,Metropolitan Statistical Area,Los Angeles,6037,6037125401,29,34.16,-118,97b,88b,Elderly,PRAC/202,90,54.7,,
1028365,HARMONY GATE,5220 Harmony Ave,Los Angeles,CA,91601-5518,31080,Metropolitan Statistical Area,Los Angeles,6037,6037125320,29,34.17,-118,,,,,,,9% Tax Credit,
1028634,HARMONY GARDENS,5239 Harmony Ave,Los Angeles,CA,91601-5532,31080,Metropolitan Statistical Area,Los Angeles,6037,6037125320,29,34.17,-118,,,Family,,,,9% Tax Credit,
1028641,WOODBRIDGE PARK APARTMENTS,11220 Moorpark St,Los Angeles,CA,91602-2647,31080,Metropolitan Statistical Area,Los Angeles,6037,6037143200,30,34.15,-118,,,,,,,4% Tax Credit,
1028736,VANOWEN GARDENS,11754 Vanowen St,Los Angeles,CA,91605-6171,31080,Metropolitan Statistical Area,Los Angeles,6037,6037123203,29,34.19,-118,,,Family,,,,9% Tax Credit,
1029214,PARK PLAZA SENIOR APARTMENTS,6755 Rhodes Ave,Los Angeles,CA,91606-1380,31080,Metropolitan Statistical Area,Los Angeles,6037,6037123304,29,34.19,-118,,,Elderly,,,,9% Tax Credit,
1029453,PARK PLAZA WEST SENIOR APARTMENTS,6750 Whitsett Ave,Los Angeles,CA,91606-1394,31080,Metropolitan Statistical Area,Los Angeles,6037,6037123304,29,34.19,-118,84b,75c,Elderly,,,,4% Tax Credit,
1031257,NOHO SENIOR TERRACES,10747 Magnolia Blvd,Los Angeles,CA,91601-4093,31080,Metropolitan Statistical Area,Los Angeles,6037,6037125320,29,34.16,-118,70c,42c,Elderly,,,,4% Tax Credit,
1031261,COLONIA CORONA APARTMENTS,13036 Sherman Way,Los Angeles,CA,91605-4992,31080,Metropolitan Statistical Area,Los Angeles,6037,6037123420,29,34.2,-118,,,Family,,,,4% Tax Credit,
1031263,SIMPSON VILLAS,6927 Simpson Ave,Los Angeles,CA,91605-6139,31080,Metropolitan Statistical Area,Los Angeles,6037,6037123203,29,34.2,-118,100a,99a,Family,Sec 8 NC,5,66.22,,
1031526,VINELAND AVENUE SENIOR HOUSING,4900 Vineland Ave,Los Angeles,CA,91601-6511,31080,Metropolitan Statistical Area,Los Angeles,6037,6037125401,29,34.16,-118,88c,90b,Elderly,PRAC/202,81,41.55,4% Tax Credit,
1031587,LAS CASITAS II,6923 Morella Ave,Los Angeles,CA,91605-6071,31080,Metropolitan Statistical Area,Los Angeles,6037,6037123203,29,34.2,-118,94a,66c,Family,HFDA/8 NC,8,99.28,,
1032833,NOHO SENIOR VILLAS,5539 Klump Ave,Los Angeles,CA,91601,31080,Metropolitan Statistical Area,Los Angeles,6037,6037125310,29,34.17,-118,,,Elderly or disabled,,,,4% Tax Credit,
1106036,DENNY PLACE & WILLOW WOOD APARTMENTS,5620 Denny Ave,Los Angeles,CA,91601-2102,31080,Metropolitan Statistical Area,Los Angeles,6037,6037124300,29,34.17,-118,,,,,,,4% Tax Credit,
1001380,PLUMMER PARK APARTMENTS,17051 Plummer St,Los Angeles,CA,91325-2540,31080,Metropolitan Statistical Area,Los Angeles,6037,6037115101,30,34.24,-119,67c,58c*,Elderly,Sec 8 NC,40,65.56,,
1009608,PARTHENIA ST SENIOR HOUSING,19455 Parthenia St,Los Angeles,CA,91324-6700,31080,Metropolitan Statistical Area,Los Angeles,6037,6037113401,30,34.23,-119,95b,85c,Elderly,PRAC/202,76,44.23,,
1010055,WHITE OAK GROUP HOME,9205 White Oak Ave,Los Angeles,CA,91325-2335,31080,Metropolitan Statistical Area,Los Angeles,6037,6037115104,30,34.24,-119,86b,86b,Disabled,PRAC/811,6,96.63,,
1012330,DISCOVERING HORIZON,8903 Balboa Blvd,Los Angeles,CA,91325-2608,31080,Metropolitan Statistical Area,Los Angeles,6037,6037115101,30,34.24,-119,90b,90b,Disabled,PRAC/811,12,97.25,,
1018172,OSCAR HOUSE GROUP HOME,18509 San Fernando Mission Blvd,Los Angeles,CA,91326-2434,31080,Metropolitan Statistical Area,Los Angeles,6037,6037111206,30,34.27,-119,96a,96a,Disabled,PRAC/811,6,79.56,,
1027412,NORTHRIDGE PARK,9628 Reseda Blvd,Los Angeles,CA,91324-2057,31080,Metropolitan Statistical Area,Los Angeles,6037,6037115201,30,34.25,-119,96b,96b,Elderly,Sec 8 NC,68,103.42,,
1027464,VISTA DEL SOL,7843 Encino Ave,Los Angeles,CA,91325-4335,31080,Metropolitan Statistical Area,Los Angeles,6037,6037131200,30,34.21,-119,78b,93a,Disabled,PRAC/811,6,50.96,,
1028590,ASHWOOD COURT,19201 Nordhoff St,Los Angeles,CA,91324-3685,31080,Metropolitan Statistical Area,Los Angeles,6037,6037115301,30,34.24,-119,,,Family,,,,9% Tax Credit,
1028639,SOPHIA RIDGE APARTMENTS,9601 Reseda Blvd,Los Angeles,CA,91324-2319,31080,Metropolitan Statistical Area,Los Angeles,6037,6037115201,30,34.24,-119,,,,,,,4% Tax Credit,
1028845,RIDGDECROFT APARTMENTS,9555 Reseda Blvd,Los Angeles,CA,91324-2367,31080,Metropolitan Statistical Area,Los Angeles,6037,6037115201,30,34.24,-119,91c,54c*,Family,,,,4% Tax Credit,
1028852,WHITE OAK-LASSEN APARTMENTS,9907 White Oak Ave,Los Angeles,CA,91325-4800,31080,Metropolitan Statistical Area,Los Angeles,6037,6037111302,30,34.25,-119,,,Family,,,,9% Tax Credit,
1028868,BALBOA PLACE APARTMENTS,16915 Napa St,Los Angeles,CA,91343-5641,31080,Metropolitan Statistical Area,Los Angeles,6037,6037117302,30,34.23,-119,,,,,,,4% Tax Credit,
1031264,HEADWAY HOUSE,8500 Shirley Ave,Los Angeles,CA,91324-4149,31080,Metropolitan Statistical Area,Los Angeles,6037,6037113401,30,34.22,-119,84a,57b,Disabled,PRAC/811,4,29.53,,
1031265,VISTA HOMES,9530 Donna Ave,Los Angeles,CA,91324-1815,31080,Metropolitan Statistical Area,Los Angeles,6037,6037115301,30,34.24,-119,95a,95a,Disabled,PRAC/811,12,82.3,,
1001421,PLEDGERVILLE SENIOR CITIZENS VILLA,11060 Norris Ave,Los Angeles,CA,91331-2403,31080,Metropolitan Statistical Area,Los Angeles,6037,6037104320,29,34.27,-118,75c,59c*,Elderly,202/8 NC,93,98.5,,
1018190,TELACU LAS FLORES,12793 Mercer St,Los Angeles,CA,91331-1383,31080,Metropolitan Statistical Area,Los Angeles,6037,6037104203,29,34.28,-118,82c,91b,Elderly,PRAC/202,74,51.52,,
1027352,VAN NUYS PIERCE PARK APARTMENTS,12700 Van Nuys Blvd,Los Angeles,CA,91331-1603,31080,Metropolitan Statistical Area,Los Angeles,6037,6037104105,29,34.28,-118,86c,60c*,Family,PD/8 SR,430,74.61,4% Tax Credit,
1028337,HILLVIEW VILLAGE,12408 Van Nuys Blvd,Los Angeles,CA,91331-1313,31080,Metropolitan Statistical Area,Los Angeles,6037,6037104105,29,34.28,-118,,,,,,,9% Tax Credit,
1031280,OSBORNE GARDENS APARTMENTS,12360 Osborne St,Los Angeles,CA,91331-2163,31080,Metropolitan Statistical Area,Los Angeles,6037,6037104704,29,34.26,-118,,,Family,,,,4% Tax Credit,
1031281,LAKEVIEW TERRACE,12500 Filmore St,Los Angeles,CA,91331-1221,31080,Metropolitan Statistical Area,Los Angeles,6037,6037104204,29,34.28,-118,94b,96b,Family,LMSA,74,106.45,4% Tax Credit,
1032837,OSBORNE PLACE APARTMENTS,12232 Osborne Pl,Los Angeles,CA,91331-2176,31080,Metropolitan Statistical Area,Los Angeles,6037,6037104703,29,34.26,-118,,,,,,,9% Tax Credit,
1000066,PALMDALE DESERT CLUB APARTMENTS,37902 20th St E,Palmdale,CA,93550-5454,31080,Metropolitan Statistical Area,Los Angeles,6037,6037910603,25,34.57,-118,94c,82c*,Family,Sec 8 NC,80,63.65,,
1001433,RIDGEVIEW VILLAGE APARTMENTS,200 E Avenue R Apt 11208,Palmdale,CA,93550-2614,31080,Metropolitan Statistical Area,Los Angeles,6037,6037910404,25,34.57,-118,93b,93b*,Family,,,,,
1001441,DESERT VIEW APARTMENTS,38633 10th St E,Palmdale,CA,93550-3885,31080,Metropolitan Statistical Area,Los Angeles,6037,6037910501,25,34.59,-118,93c*,84b*,Family,Sec 8 NC,55,58.35,,
1014740,PALMDALE APARTMENTS,38002 15th St E,Palmdale,CA,93550-5171,31080,Metropolitan Statistical Area,Los Angeles,6037,6037910502,25,34.57,-118,99c*,91b,Family,LMSA,58,68.12,,
1018194,VILLAGE GARDENS,1020 E Avenue R,Palmdale,CA,93550-1951,31080,Metropolitan Statistical Area,Los Angeles,6037,6037910504,25,34.57,-118,94b*,69c*,Family,Sec 8 NC,80,58.53,,
1027112,PALMDALE GARDENS APARTMENTS,38601 10th St E,Palmdale,CA,93550-3806,31080,Metropolitan Statistical Area,Los Angeles,6037,6037910501,25,34.58,-118,93b*,83b,Elderly,Sec 8 NC,76,68.11,,
1027166,STANRIDGE HOMES #3,38940 Stanridge Ave,Palmdale,CA,93550-3243,31080,Metropolitan Statistical Area,Los Angeles,6037,6037910201,25,34.59,-118,62c,71a,Family,Sec 8 NC,5,40.98,,
1027186,STANRIDGE HOMES #2,38905 Stanridge Ave,Palmdale,CA,93550-3242,31080,Metropolitan Statistical Area,Los Angeles,6037,6037910201,25,34.59,-118,79c*,89a,Family,Sec 8 NC,6,41.48,,
1027206,STANRIDGE HOMES #1,38941 Stanridge Ave,Palmdale,CA,93550-3242,31080,Metropolitan Statistical Area,Los Angeles,6037,6037910201,25,34.59,-118,96b,79b,Family,Sec 8 NC,6,40.95,,
1027450,EAST 35TH STREET APARTMENTS,37929 35th St E,Palmdale,CA,93550-5659,31080,Metropolitan Statistical Area,Los Angeles,6037,6037910605,25,34.57,-118,92b,95c,Family,Sec 8 NC,48,59.93,,
1028239,LONGHORN PAVILION,36523 25th St E,Palmdale,CA,93550-4497,31080,Metropolitan Statistical Area,Los Angeles,6037,6037910707,25,34.55,-118,,,Family,,,,9% Tax Credit,
1028912,CASABLANCA APARTMENTS,4160 E Avenue R,Palmdale,CA,93552-4588,31080,Metropolitan Statistical Area,Los Angeles,6037,6037910711,25,34.57,-118,91c,82c*,Family,,,,9% Tax Credit,
1029108,SIERRA VIEW GARDENS,37850 20th St E,Palmdale,CA,93550-5417,31080,Metropolitan Statistical Area,Los Angeles,6037,6037910603,25,34.57,-118,,,Elderly or disabled,,,,9% Tax Credit,
1030846,DESERT SENIOR LIVING,38780 Orchid View Pl,Palmdale,CA,93550-6510,31080,Metropolitan Statistical Area,Los Angeles,6037,6037910502,25,34.59,-118,,,Elderly or disabled,,,,9% Tax Credit,
1031028,WHISPERING PALMS APARTMENTS,38250 9th St E,Palmdale,CA,93550-4600,31080,Metropolitan Statistical Area,Los Angeles,6037,6037910501,25,34.58,-118,,,Elderly or disabled,,,,4% Tax Credit,
1031283,PALO VERDE APARTMENTS,38235 10th St E,Palmdale,CA,93550-4722,31080,Metropolitan Statistical Area,Los Angeles,6037,6037910501,25,34.58,-118,,,Elderly or disabled,,,,9% Tax Credit,
1031284,SUMMER TERRACE,38530 Tierra Subida Ave,Palmdale,CA,93551-4726,31080,Metropolitan Statistical Area,Los Angeles,6037,6037910401,25,34.58,-118,,,Elderly or disabled,,,,9% Tax Credit,
1032529,WRIGHT BROTHERS COURT,38832 4th St E,Palmdale,CA,93550-3341,31080,Metropolitan Statistical Area,Los Angeles,6037,6037910201,25,34.59,-118,,,Family,,,,4% Tax Credit,
1032838,PALMDALIA APARTMENTS,38040 11th St E,Palmdale,CA,93550-5392,31080,Metropolitan Statistical Area,Los Angeles,6037,6037910501,25,34.57,-118,91b,91b,Family,LMSA,64,73.04,4% Tax Credit,
1106421,THE ARBOR AT PALMDALE,1000 E Avenue Q,Palmdale,CA,93550-3811,31080,Metropolitan Statistical Area,Los Angeles,6037,6037910501,25,34.59,-118,97b*,87b*,Family,Sec 8 NC,90,52.53,4% Tax Credit,
1108066,TWIN PALMS APARTMENTS,1105 E Avenue Q,Palmdale,CA,93550,31080,Metropolitan Statistical Area,Los Angeles,6037,6037910101,25,34.57,-118,,,Family,,,,9% Tax Credit,
1154762,QUEENS TWELVE,547 E Avenue Q12,Palmdale,CA,93550-2369,31080,Metropolitan Statistical Area,Los Angeles,6037,6037910403,25,34.58,-118,81c,68c,Family,Sec 8 NC,8,43.69,,
1162229,COURSON ARTS COLONY EAST,939 E Avenue Q12,Palmdale,CA,93550-5306,31080,Metropolitan Statistical Area,Los Angeles,6037,6037910501,25,34.58,-118,,,Family,,,,9% Tax Credit,
1018200,PARTHENIA MANOR,14920 Parthenia St,Los Angeles,CA,91402-2731,31080,Metropolitan Statistical Area,Los Angeles,6037,6037120107,29,34.23,-118,93b,93b,Elderly,Preservation,88,87.47,,
1023169,VILLAGE ACQUISITION,8033 Matilija Ave,Los Angeles,CA,91402-6126,31080,Metropolitan Statistical Area,Los Angeles,6037,6037120400,29,34.22,-118,89b,72c,Disabled,202/8 SR,6,109.59,,
1023577,RIDGEVIEW MANOR,14610 Gledhill St,Los Angeles,CA,91402,31080,Metropolitan Statistical Area,Los Angeles,6037,6037119320,29,34.24,-118,86c,80c,Disabled,202/8 NC,39,110.71,,
1027120,PANORAMA CITY I,14424 Plummer St,Los Angeles,CA,91402-1185,31080,Metropolitan Statistical Area,Los Angeles,6037,6037119342,29,34.24,-118,99b*,94c,Family,Sec 8 NC,27,84.8,,
1027234,CASA PANORAMA TOWER,14555 Osborne St,Los Angeles,CA,91402-1820,31080,Metropolitan Statistical Area,Los Angeles,6037,6037120105,29,34.23,-118,95b,95c,Elderly,HFDA/8 NC,153,91.65,,
1027373,CEDROS RAYEN APARTMENTS,9009 Cedros Ave,Los Angeles,CA,91402-1663,31080,Metropolitan Statistical Area,Los Angeles,6037,6037120108,29,34.23,-118,90b,69b,Family,Sec 8 NC,70,96.07,,
1028394,REGENCY 50,14540 Blythe St,Los Angeles,CA,91402-6028,31080,Metropolitan Statistical Area,Los Angeles,6037,6037120030,29,34.22,-118,,,Family,,,,9% Tax Credit,
1028692,PARTHENIA COURT,14825 Parthenia St,Los Angeles,CA,91402,31080,Metropolitan Statistical Area,Los Angeles,6037,6037120108,29,34.23,-118,,,Family,,,,9% Tax Credit,
1029165,HERITAGE PARK ON WOODMAN,7840 Woodman Ave,Los Angeles,CA,91402-6243,31080,Metropolitan Statistical Area,Los Angeles,6037,6037120400,29,34.21,-118,,,Elderly or disabled,,,,4% Tax Credit,
1030755,ASTURIAS SENIOR APARTMENTS,9628 Van Nuys Blvd,Los Angeles,CA,91402-1047,31080,Metropolitan Statistical Area,Los Angeles,6037,6037119310,29,34.25,-118,,,Elderly or disabled,,,,9% Tax Credit,
1030767,CANTABRIA SENIOR APARTMENTS,9640 Van Nuys Blvd,Los Angeles,CA,91402-6789,31080,Metropolitan Statistical Area,Los Angeles,6037,6037119310,29,34.25,-118,,,Elderly or disabled,,,,9% Tax Credit,
1031286,BLYTHE STREET APARTMENTS,14607 Blythe St,Los Angeles,CA,91402-6863,31080,Metropolitan Statistical Area,Los Angeles,6037,6037120030,29,34.22,-118,,,Family,,,,9% Tax Credit,
1031287,ANDALUCIA SENIOR APARTMENTS,8101 Sepulveda Blvd,Los Angeles,CA,91402-4304,31080,Metropolitan Statistical Area,Los Angeles,6037,6037127520,29,34.22,-118,,,Elderly or disabled,,,,9% Tax Credit,
1032842,WILLIS AVENUE APARTMENTS,14731 Rayen St,Los Angeles,CA,91402-1605,31080,Metropolitan Statistical Area,Los Angeles,6037,6037120108,29,34.23,-118,,,,,,,9% Tax Credit,
1105633,TOBIAS TERRACE APARTMENTS,9247 Van Nuys Blvd,Los Angeles,CA,91402-1846,31080,Metropolitan Statistical Area,Los Angeles,6037,6037119320,29,34.24,-118,,,Family,,,,9% Tax Credit,
1105800,MONTECITO TERRACES,14655 Blythe St,Los Angeles,CA,91402-5998,31080,Metropolitan Statistical Area,Los Angeles,6037,6037120030,29,34.22,-118,,,Elderly or disabled,,,,9% Tax Credit,
1107680,PANORAMA VIEW APARTMENTS,9248 Van Nuys Blvd,Los Angeles,CA,91402-1416,31080,Metropolitan Statistical Area,Los Angeles,6037,6037119341,29,34.24,-118,93b,93b,Elderly,LMSA,87,86.38,9% Tax Credit,
1000068,HFL ASHTABULA HOMES,389 E Ashtabula St,Pasadena,CA,91104-4202,31080,Metropolitan Statistical Area,Los Angeles,6037,6037462001,27,34.16,-118,97b,97b,Family,PRAC/811,20,63.17,,
1008851,CASA D'ORO II,1115 N Chester Ave,Pasadena,CA,91104-2946,31080,Metropolitan Statistical Area,Los Angeles,6037,6037462400,27,34.17,-118,99a,77a*,Disabled,PRAC/811,6,69.34,,
1008969,PASADENA ACCESSIBLE APARTMENTS,915 E Rio Grande St,Pasadena,CA,91104-2419,31080,Metropolitan Statistical Area,Los Angeles,6037,6037461400,27,34.17,-118,97b,97b,Disabled,PRAC/811,12,67.74,,
1010076,WYNN HOUSE,1920 E Villa St,Pasadena,CA,91107-2333,31080,Metropolitan Statistical Area,Los Angeles,6037,6037462700,27,34.15,-118,88b,93b*,Disabled,PRAC/811,6,69.53,,
1010207,CASA D'ORO I,1370 N Dominion Ave,Pasadena,CA,91104-2708,31080,Metropolitan Statistical Area,Los Angeles,6037,6037461300,27,34.17,-118,90a,83b,Disabled,PRAC/811,6,66.85,,
1014744,VILLA YUCATAN,2186 E Villa St,Pasadena,CA,91107-2415,31080,Metropolitan Statistical Area,Los Angeles,6037,6037462800,27,34.15,-118,96a*,79b,Family,LMSA,14,99.09,,
1014746,GREEN HOTEL,50 E Green St,Pasadena,CA,91105-2043,31080,Metropolitan Statistical Area,Los Angeles,6037,6037463602,27,34.14,-118,49c*,98c,Elderly,LMSA,138,52.1,,
1017203,THE GROVES,700 E Mountain St,Pasadena,CA,91104-4569,31080,Metropolitan Statistical Area,Los Angeles,6037,6037462100,27,34.16,-118,97c,60c*,Family,LMSA,44,109.7,4% Tax Credit,
1018202,MAGNOLIA TOWNHOMES,1172 N Raymond Ave,Pasadena,CA,91103-2665,31080,Metropolitan Statistical Area,Los Angeles,6037,6037462002,27,34.17,-118,83c,77c,Family,Sec 8 NC,5,85.6,,
1018204,HUDSON GARDENS,1255 N Hudson Ave,Pasadena,CA,91104-2868,31080,Metropolitan Statistical Area,Los Angeles,6037,6037462100,27,34.17,-118,91c,91c,Elderly,HFDA/8 NC,41,113.69,,
1018206,ALLEN HOUSE,1808 Las Lunas St,Pasadena,CA,91107-2303,31080,Metropolitan Statistical Area,Los Angeles,6037,6037462700,27,34.16,-118,84b,89b,Disabled,PRAC/811,6,71.15,,
1018208,ROSEWOOD COURT,1888 N Fair Oaks Ave,Pasadena,CA,91103-1660,31080,Metropolitan Statistical Area,Los Angeles,6037,6037461502,27,34.18,-118,97a*,97a*,Elderly,PRAC/202,64,49.47,,
1018210,WAGNER HOUSE,1894 Wagner St,Pasadena,CA,91107-2341,31080,Metropolitan Statistical Area,Los Angeles,6037,6037462700,27,34.15,-118,99a,99a,Disabled,PRAC/811,6,78.81,,
1018211,VILLA APARTMENTS,2089 E Villa St,Pasadena,CA,91107-2434,31080,Metropolitan Statistical Area,Los Angeles,6037,6037462800,27,34.15,-118,95b,80b,Disabled,PRAC/811,5,85.71,,
1018212,DUDLEY HOUSE,2131 E Dudley St,Pasadena,CA,91104-4122,31080,Metropolitan Statistical Area,Los Angeles,6037,6037462500,27,34.16,-118,77b,77b,Disabled,PRAC/811,6,70.52,,
1018213,SIERRA ROSE,3057 E Del Mar Blvd,Pasadena,CA,91107,31080,Metropolitan Statistical Area,Los Angeles,6037,6037463200,27,34.14,-118,97b,97b,Disabled,PRAC/811,6,81.12,,
1018214,WASHINGTON TOWNHOUSES,529 E Washington Blvd,Pasadena,CA,91104-2263,31080,Metropolitan Statistical Area,Los Angeles,6037,6037461501,27,34.17,-118,81b,48c*,Family,LMSA,20,89.16,,
1018215,NORTHWEST MANOR I,985 N Raymond Ave,Pasadena,CA,91103-2609,31080,Metropolitan Statistical Area,Los Angeles,6037,6037462002,27,34.16,-118,91c*,50c*,Family,LMSA,44,100,4% Tax Credit,
1023116,CROWN HOUSE,3055 E Del Mar Blvd,Pasadena,CA,91107-4425,31080,Metropolitan Statistical Area,Los Angeles,6037,6037463200,27,34.14,-118,85b,72b,Disabled,202/8 NC,10,128.09,,
1027101,LA PINTORESCA,1275 LA Pintoresca Dr,Pasadena,CA,91103-2276,31080,Metropolitan Statistical Area,Los Angeles,6037,6037462002,27,34.17,-118,96b,96b,Elderly,PD/8 SR,64,106.67,,
1027126,PILGRIM TOWER NORTH,560 E Villa St,Pasadena,CA,91101-1158,31080,Metropolitan Statistical Area,Los Angeles,6037,6037462201,27,34.15,-118,90b,61c,Elderly,LMSA,205,117.38,4% Tax Credit,
1027128,PILGRIM TOWER EAST,440 N Madison Ave,Pasadena,CA,91101-1433,31080,Metropolitan Statistical Area,Los Angeles,6037,6037462201,27,34.15,-118,85b,94b,Elderly,HFDA/8 NC,158,115.39,,
1027239,SILVERCREST-PASADENA,975 E Union St,Pasadena,CA,91106-1710,31080,Metropolitan Statistical Area,Los Angeles,6037,6037462302,27,34.15,-118,99b,68c*,Elderly,PRAC/202,74,44.17,,
1027276,COMMUNITY ARMS APARTMENTS,169 E Orange Grove Blvd,Pasadena,CA,91103-3432,31080,Metropolitan Statistical Area,Los Angeles,6037,6037462002,27,34.16,-118,85b,86c,Elderly,LMSA,131,58.57,4% Tax Credit,
1027424,TELACU COURTYARD,42 E Walnut St,Pasadena,CA,91103-3844,31080,Metropolitan Statistical Area,Los Angeles,6037,6037461902,27,34.15,-118,94b,94b,Elderly,PRAC/202,69,53.7,,
1027432,CONCORD PASADENA,275 Cordova St,Pasadena,CA,91101-2415,31080,Metropolitan Statistical Area,Los Angeles,6037,6037463602,27,34.14,-118,76b,76b,Elderly,Old 202,149,93.83,,
1027550,VILLA RAYMOND,455 N Raymond Ave,Pasadena,CA,91103-3702,31080,Metropolitan Statistical Area,Los Angeles,6037,6037461901,27,34.15,-118,64c,93a,Family,LMSA,37,109.44,,CA16M000270
1028382,PARKE LOS ROBLES,626 N Los Robles Ave,Pasadena,CA,91101-1006,31080,Metropolitan Statistical Area,Los Angeles,6037,6037462201,27,34.16,-118,,,Family,,,,9% Tax Credit,
1028433,HOLLY STREET VILLAGE,151 E Holly St,Pasadena,CA,91103-3910,31080,Metropolitan Statistical Area,Los Angeles,6037,6037461902,27,34.15,-118,,,,,,,4% Tax Credit,
1028502,VILLA LOS ROBLES,473 N Los Robles Ave,Pasadena,CA,91101-1357,31080,Metropolitan Statistical Area,Los Angeles,6037,6037461901,27,34.15,-118,,,Family,,,,9% Tax Credit,
1028580,WASHINGTON VILLA APARTMENTS,264 E Washington Blvd,Pasadena,CA,91104-2195,31080,Metropolitan Statistical Area,Los Angeles,6037,6037462001,27,34.17,-118,,,Family,,,,9% Tax Credit,
1028937,EUCLID VILLA TRANSITION HOUSING,154 S Euclid Ave,Pasadena,CA,91101-4666,31080,Metropolitan Statistical Area,Los Angeles,6037,6037463602,27,34.14,-118,,,Family,,,,9% Tax Credit,
1029610,ORANGE GROVE GARDENS,252 E Orange Grove Blvd,Pasadena,CA,91104-5306,31080,Metropolitan Statistical Area,Los Angeles,6037,6037461901,27,34.16,-118,,,Family,,,,9% Tax Credit,
1106504,KINGS VILLAGES,1141 N Fair Oaks Ave,Pasadena,CA,91103-2513,31080,Metropolitan Statistical Area,Los Angeles,6037,6037461600,27,34.17,-118,69c*,87c*,Family,PD/8 Existing,313,121.05,4% Tax Credit,
1127167,HERITAGE SQUARE,762 N Fair Oaks Ave,Pasadena,CA,91103-3083,31080,Metropolitan Statistical Area,Los Angeles,6037,6037462002,27,34.16,-118,,,,,,,9% Tax Credit,
1032330,HARSHFIELD TERRACE,6709 Columbia Way,Quartz Hill,CA,93536-1295,31080,Metropolitan Statistical Area,Los Angeles,6037,6037901205,23,34.65,-118,99b,95b,Elderly,PRAC/202,74,37.69,,
1008979,FIESTA HOUSE SENIOR APARTMENTS,6639 Darby Ave,Los Angeles,CA,91335-0901,31080,Metropolitan Statistical Area,Los Angeles,6037,6037132700,30,34.19,-119,89b,93b,Elderly,PRAC/202,49,40.8,,
1014764,SHERMAN WAY BILTMORE,17930 Sherman Way,Los Angeles,CA,91335-4732,31080,Metropolitan Statistical Area,Los Angeles,6037,6037132300,30,34.2,-119,95b,98c,Family,Preservation,67,87.2,,
1014766,SHERMAN PARK APARTMENTS,17960 Sherman Way,Los Angeles,CA,91335-4722,31080,Metropolitan Statistical Area,Los Angeles,6037,6037132300,30,34.2,-119,92b,93b,Elderly,Preservation,134,102.11,,
1014768,KITTRIDGE GARDENS II,6540 Wilbur Ave,Los Angeles,CA,91335-5927,31080,Metropolitan Statistical Area,Los Angeles,6037,6037132502,30,34.19,-119,80c*,87c*,Family,Preservation,78,98.48,,
1017881,SHERMAN ARMS APARTMENTS,17760 Sherman Way,Los Angeles,CA,91335-3361,31080,Metropolitan Statistical Area,Los Angeles,6037,6037132300,30,34.2,-119,92b,96c,Elderly,Sec 8 NC,74,105.23,,
1023167,TLC HOMES I,7937 Lindley Ave,Los Angeles,CA,91335-2122,31080,Metropolitan Statistical Area,Los Angeles,6037,6037131400,30,34.21,-119,83c,51b,Disabled,202/8 NC,12,89.53,,
1027220,RESEDA MANOR,7725 Reseda Blvd,Los Angeles,CA,91335-2864,31080,Metropolitan Statistical Area,Los Angeles,6037,6037131010,30,34.21,-119,77c*,86c*,Elderly,HFDA/8 NC,40,103.23,,
1027225,RESEDA PARK APARTMENTS,6505 Reseda Blvd,Los Angeles,CA,91335-6123,31080,Metropolitan Statistical Area,Los Angeles,6037,6037133100,30,34.19,-119,81b,95c*,Elderly,LMSA,136,105.21,,
1027299,RESEDA EAST,18450 Ingomar St,Los Angeles,CA,91335-2001,31080,Metropolitan Statistical Area,Los Angeles,6037,6037131400,30,34.21,-119,70c,99b,Elderly,HFDA/8 NC,70,103.11,,
1027311,MENORAH HOUSE,19206 Sherman Way,Los Angeles,CA,91335-3701,31080,Metropolitan Statistical Area,Los Angeles,6037,6037132501,30,34.2,-119,92b,63b*,Elderly,Sec 8 NC,50,75.38,,
1027448,NEW VISIONS,7927 Lindley Ave,Los Angeles,CA,91335-2122,31080,Metropolitan Statistical Area,Los Angeles,6037,6037131400,30,34.21,-119,90b,54b,Disabled,PRAC/811,12,35.71,,
1027507,VALVERDE,7600 Vanalden Ave,Los Angeles,CA,91335-1752,31080,Metropolitan Statistical Area,Los Angeles,6037,6037131600,30,34.21,-119,81b,81b,Disabled,202/8 NC,12,96.63,,
1027521,KITTRIDGE GARDENS I,6640 Wilbur Ave,Los Angeles,CA,91335-5153,31080,Metropolitan Statistical Area,Los Angeles,6037,6037132502,30,34.19,-119,93b*,91b*,Family,Preservation,128,99.21,,
1028649,KITTRIDGE PARK VILLA,18303 Kittridge St,Los Angeles,CA,91335-6137,31080,Metropolitan Statistical Area,Los Angeles,6037,6037132700,30,34.19,-119,,,,,,,4% Tax Credit,
1031299,RESEDA VILLAGE,7939 Reseda Blvd,Los Angeles,CA,91335-1969,31080,Metropolitan Statistical Area,Los Angeles,6037,6037131010,30,34.21,-119,,,Family,,,,9% Tax Credit,
1032400,SHERMAN VILLAGE APARTMENTS,18900 Sherman Way,Los Angeles,CA,91335-2603,31080,Metropolitan Statistical Area,Los Angeles,6037,6037132501,30,34.2,-119,,,Family,,,,9% Tax Credit,
1032855,CANBY WOODS,7248 Canby Ave,Los Angeles,CA,91335,31080,Metropolitan Statistical Area,Los Angeles,6037,6037131800,30,34.2,-119,,,Elderly or disabled,,,,4% Tax Credit,
1032857,CORAL WOOD COURT APARTMENTS,8039 Reseda Blvd,Los Angeles,CA,91335-1373,31080,Metropolitan Statistical Area,Los Angeles,6037,6037131010,30,34.22,-119,83c,91c,Family,,,,4% Tax Credit,
1103892,RIVERWALK AT RESEDA,18425 Kittridge St,Los Angeles,CA,91335-6232,31080,Metropolitan Statistical Area,Los Angeles,6037,6037132700,30,34.19,-119,,,Family,,,,9% Tax Credit,
1023131,NEW HORIZONS I,15756 Parthenia St,Los Angeles,CA,91343-7609,31080,Metropolitan Statistical Area,Los Angeles,6037,6037117404,29,34.23,-118,98a,98a,Disabled,202/8 NC,6,154.08,,
1023133,NEW HORIZONS II,15746 Parthenia St,Los Angeles,CA,91343-7610,31080,Metropolitan Statistical Area,Los Angeles,6037,6037117404,29,34.23,-118,89b,99a,Disabled,202/8 NC,6,151.71,,
1023135,NEW HORIZONS III,15713 Parthenia St,Los Angeles,CA,91343-7606,31080,Metropolitan Statistical Area,Los Angeles,6037,6037117404,29,34.23,-118,91a,94a,Disabled,202/8 NC,6,148.84,,
1023174,WEST VALLEY TLC,8808 Woodley Ave,Los Angeles,CA,91343-4732,31080,Metropolitan Statistical Area,Los Angeles,6037,6037117404,29,34.23,-118,79b,85b,Disabled,202/8 SR,6,84.29,,
1027310,NEW OPPORTUNITIES FOR LIVING,16102 Acre St,Los Angeles,CA,91343-4824,31080,Metropolitan Statistical Area,Los Angeles,6037,6037117404,29,34.23,-118,83b,68c,Disabled,PRAC/811,12,53.39,,
1027442,DICKENS SENIOR HOUSING,14559 Dickens St,Los Angeles,CA,91403,31080,Metropolitan Statistical Area,Los Angeles,6037,6037141304,30,34.15,-118,99b,95b,Elderly,PRAC/202,82,47.1,,
1028645,4334-4346 MATILIJA APARTMENTS,4334 Matilija Ave,Los Angeles,CA,91423-3660,31080,Metropolitan Statistical Area,Los Angeles,6037,6037141102,30,34.15,-118,,,,,,,4% Tax Credit,
1028647,WILLS PARK SOUTH,4553 Willis Ave,Los Angeles,CA,91403-2791,31080,Metropolitan Statistical Area,Los Angeles,6037,6037141303,30,34.15,-118,83b,,Family,,,,4% Tax Credit,
1028650,WILLIS PARK WEST,4573 Willis Ave,Los Angeles,CA,91403-2799,31080,Metropolitan Statistical Area,Los Angeles,6037,6037141303,30,34.15,-118,85c,,Family,,,,4% Tax Credit,
1028652,NATICK APARTMENTS,4701 Natick Ave,Los Angeles,CA,91403-2742,31080,Metropolitan Statistical Area,Los Angeles,6037,6037141303,30,34.16,-118,90c*,80c*,,,,,4% Tax Credit,
1028721,SHERMAN OAKS GARDENS & VILLAS,5415 Sepulveda Blvd,Los Angeles,CA,91411-3479,31080,Metropolitan Statistical Area,Los Angeles,6037,6037128801,30,34.17,-118,,,Family,,,,4% Tax Credit,
1028791,ORANGEWOOD COURT APARTMENTS,5050 Sepulveda Blvd,Los Angeles,CA,91403-1546,31080,Metropolitan Statistical Area,Los Angeles,6037,6037128910,30,34.16,-118,95b,78c*,Family,,,,4% Tax Credit,
1028830,NEW YORKER APARTMENTS,13951 Moorpark St,Los Angeles,CA,91423-3453,31080,Metropolitan Statistical Area,Los Angeles,6037,6037141201,30,34.15,-118,,,,,,,4% Tax Credit,
1028846,VISTA DEL MONTE APARTMENTS,4621 Vista del Monte Ave,Los Angeles,CA,91403-2985,31080,Metropolitan Statistical Area,Los Angeles,6037,6037141304,30,34.15,-118,,,,,,,4% Tax Credit,
1028856,DICKENS COURT,14955 Dickens St,Los Angeles,CA,91403-3461,31080,Metropolitan Statistical Area,Los Angeles,6037,6037141302,30,34.15,-118,82a,85b,Family,,,,4% Tax Credit,
1029200,NOBLE SENIOR HOUSING,15100 Moorpark St,Los Angeles,CA,91403-5472,31080,Metropolitan Statistical Area,Los Angeles,6037,6037141302,30,34.15,-118,,,Elderly or disabled,,,,9% Tax Credit,
1001714,PENDLETON ARMS,8400 Laurel Canyon Blvd,Los Angeles,CA,91352-3863,31080,Metropolitan Statistical Area,Los Angeles,6037,6037121010,29,34.22,-118,93b,93b,Family,Sec 8 NC,56,89.27,,
1014548,SUNLAND PARK APARTMENTS,10836 Roycroft St,Los Angeles,CA,91352-1652,31080,Metropolitan Statistical Area,Los Angeles,6037,6037102107,28,34.24,-118,79c*,82b*,Family,Preservation,120,88.8,,
1027336,STRATHERN COURT,11100 Strathern St,Los Angeles,CA,91352-3931,31080,Metropolitan Statistical Area,Los Angeles,6037,6037122121,29,34.22,-118,91b,91b,Family,Sec 8 NC,92,98.16,,
1028083,VILLA DEL SOL APARTMENTS,11971 Allegheny St,Los Angeles,CA,91352-1837,31080,Metropolitan Statistical Area,Los Angeles,6037,6037121222,29,34.24,-118,,,Family,,,,4% Tax Credit,
1028579,VINELAND PLACE,7843 Vineland Ave,Los Angeles,CA,91352-4555,31080,Metropolitan Statistical Area,Los Angeles,6037,6037122120,29,34.21,-118,,,Family,,,,9% Tax Credit,
1031676,GLENOAKS GARDENS,8925 Glenoaks Blvd,Los Angeles,CA,91352-2002,31080,Metropolitan Statistical Area,Los Angeles,6037,6037121102,28,34.23,-118,,,,,,,9% Tax Credit,
1032938,PALM VILLAGE SENIOR APARTMENTS,9050 Laurel Canyon Blvd,Los Angeles,CA,91352-1600,31080,Metropolitan Statistical Area,Los Angeles,6037,6037121210,29,34.23,-118,79b,79b,Elderly,PRAC/202,57,39.62,,
1027075,BURNS MANOR,8155 Foothill Blvd,Los Angeles,CA,91040-2967,31080,Metropolitan Statistical Area,Los Angeles,6037,6037103102,28,34.26,-118,97b,98b,Elderly,202/8 NC,81,73.2,4% Tax Credit,
1000090,GLENOAKS TOWNHOMES,14300 Foothill Blvd,Los Angeles,CA,91342-7501,31080,Metropolitan Statistical Area,Los Angeles,6037,6037106405,29,34.32,-118,79c,90c*,Family,Sec 8 NC,48,87.87,,
1001731,ASTORIA GARDENS,13997 Astoria St,Los Angeles,CA,91342-2963,31080,Metropolitan Statistical Area,Los Angeles,6037,6037106408,29,34.31,-118,93b,89c*,Family,LMSA,136,62.72,,
1009566,OLIVE MANOR,13155 BROMONT AVE,Los Angeles,CA,91342,31080,Metropolitan Statistical Area,Los Angeles,6037,6037106407,29,34.31,-118,71b,71b,Elderly,PRAC/202,80,72.27,,
1010072,RANCH HOUSE GROUP HOME,13655 Woodcock Ave,Los Angeles,CA,91342-1146,31080,Metropolitan Statistical Area,Los Angeles,6037,6037106510,29,34.32,-118,95b,95b,Disabled,PRAC/811,6,102.04,,
1017982,VALLEY VILLAGE HARDING,12920 Altano St,Los Angeles,CA,91342,31080,Metropolitan Statistical Area,Los Angeles,6037,6037106112,29,34.31,-118,81b,68c,Disabled,PRAC/811,6,67.97,,
1017984,ASTORIA HOUSE,14185 Astoria St,Los Angeles,CA,91342-4250,31080,Metropolitan Statistical Area,Los Angeles,6037,6037106403,29,34.31,-118,81b,87a,Disabled,PRAC/811,6,57.32,,
1018098,SILVERCREST LAKE VIEW TERRACE,11850 Foothill Blvd,Los Angeles,CA,91342-0835,31080,Metropolitan Statistical Area,Los Angeles,6037,6037104108,29,34.27,-118,76b,76b,Elderly,PRAC/202,72,44.79,,
1023104,CASA OLIVO,14109 Hubbard St,Los Angeles,CA,91342-4713,31080,Metropolitan Statistical Area,Los Angeles,6037,6037107010,29,34.3,-118,90b,90b,Disabled,202/8 NC,10,96.19,,
1023170,VALLEY VILLAGE #2,12769 Gladstone Ave,Los Angeles,CA,91342-4839,31080,Metropolitan Statistical Area,Los Angeles,6037,6037106113,29,34.3,-118,93a,93a,Disabled,202/8 SR,3,102.61,,
1023171,VALLEY VILLAGE #3,13450 Bradley Ave,Los Angeles,CA,91342-7604,31080,Metropolitan Statistical Area,Los Angeles,6037,6037106510,29,34.32,-118,84c,84c,Disabled,202/8 SR,3,99.87,,
1023569,CASA VALLE,14440 Bledsoe St,Los Angeles,CA,91342,31080,Metropolitan Statistical Area,Los Angeles,6037,6037106405,29,34.32,-118,87b,87b,Disabled,202/8 NC,10,116.51,,
1023581,VALLEY COMMITTEE HOUSE,13290 Bradley Ave,Los Angeles,CA,91342-1203,31080,Metropolitan Statistical Area,Los Angeles,6037,6037106520,29,34.31,-118,73b,90b,Disabled,202/8 NC,10,103.42,,
1028866,ASTORIA PLACE TOWNHOMES,13230 Bromont Ave,Los Angeles,CA,91342-4320,31080,Metropolitan Statistical Area,Los Angeles,6037,6037106407,29,34.31,-118,,,Family,,,,9% Tax Credit,
1028995,MOUNTAIN VIEW MANOR APARTMENTS,12960 Dronfield Ave,Los Angeles,CA,91342-4311,31080,Metropolitan Statistical Area,Los Angeles,6037,6037106114,29,34.31,-118,,,Elderly or disabled,,,,4% Tax Credit,
1029280,WILLOW TREE VILLAGES,12000 Foothill Blvd,Los Angeles,CA,91342-8217,31080,Metropolitan Statistical Area,Los Angeles,6037,6037104108,29,34.28,-118,,,Family,,,,9% Tax Credit,
1030852,EL DORADO FAMILY APARTMENTS,12129 El Dorado Ave,Los Angeles,CA,91342-5232,31080,Metropolitan Statistical Area,Los Angeles,6037,6037106648,29,34.29,-118,,,Family,,,,9% Tax Credit,
1030899,BONITA RANCH APARTMENTS,14164 Foothill Blvd,Los Angeles,CA,91342-8016,31080,Metropolitan Statistical Area,Los Angeles,6037,6037106405,29,34.32,-118,92c,96b,Family,Sec 8 NC,48,89.84,,
1032949,OAKRIDGE FAMILY HOMES,15455 Glenoaks Blvd,Los Angeles,CA,91342,31080,Metropolitan Statistical Area,Los Angeles,6037,6037106406,29,34.32,-118,,,Family,,,,4% Tax Credit,
1105190,SEVEN PALMS APARTMENTS,12831 San Fernando Rd,Los Angeles,CA,91342-7810,31080,Metropolitan Statistical Area,Los Angeles,6037,6037106604,29,34.3,-118,,,,,,,4% Tax Credit,
1105288,FOOTHILL TERRACE,13751 Hubbard St,Los Angeles,CA,91342-4315,31080,Metropolitan Statistical Area,Los Angeles,6037,6037106114,29,34.31,-118,93c,81b,Family,Sec 8 NC,40,82.46,4% and 9% Tax Credit,
1018001,APPERSON STREET APARTMENTS,7412 Apperson St,Los Angeles,CA,91042-1826,31080,Metropolitan Statistical Area,Los Angeles,6037,6037101210,28,34.26,-118,93b,93a,Family,Sec 8 NC,5,101.91,,
1027090,FOOTHILL GARDENS,7687 Foothill Blvd,Los Angeles,CA,91042-2146,31080,Metropolitan Statistical Area,Los Angeles,6037,6037101110,28,34.26,-118,96a,100a,Elderly,Sec 8 NC,53,91.27,,
1027538,TUJUNGA GARDENS,6643 Foothill Blvd,Los Angeles,CA,91042-2739,31080,Metropolitan Statistical Area,Los Angeles,6037,6037101220,28,34.25,-118,94a,99a,Elderly,Sec 8 NC,53,91.4,,
1105871,DAY STREET APARTMENTS,7639 Day St,Los Angeles,CA,91042-2594,31080,Metropolitan Statistical Area,Los Angeles,6037,6037101400,28,34.25,-118,,,,,,,9% Tax Credit,
1028573,VALLEY VILLAGE APARTMENTS,12111 Chandler Blvd,Los Angeles,CA,91607-4356,31080,Metropolitan Statistical Area,Los Angeles,6037,6037124902,30,34.17,-118,,,Elderly or disabled,,,,9% Tax Credit,
1001783,WOODMAN MANOR APARTMENTS,6712 Woodman Ave,Los Angeles,CA,91401-1033,31080,Metropolitan Statistical Area,Los Angeles,6037,6037123510,29,34.19,-118,83c*,67b,Elderly,Sec 8 NC,100,106.29,,
1018009,HFL VAN NUYS,13457 Vanowen St,Los Angeles,CA,91405-4385,31080,Metropolitan Statistical Area,Los Angeles,6037,6037123510,29,34.19,-118,96b,98b,Disabled,PAC/811,14,71.65,,
1027095,FICKETT TOWERS,14801 Sherman Way,Los Angeles,CA,91405-2229,31080,Metropolitan Statistical Area,Los Angeles,6037,6037127220,29,34.2,-118,93b*,86b,Elderly,LMSA,198,118.89,4% Tax Credit,
1027255,WEST VALLEY TOWERS,14650 Sherman Way,Los Angeles,CA,91405-2245,31080,Metropolitan Statistical Area,Los Angeles,6037,6037127803,29,34.2,-118,86b,80c,Elderly,202/8 NC,97,98.69,4% Tax Credit,
1027382,DORIS FOSTER,14807 Friar St,Los Angeles,CA,91411,31080,Metropolitan Statistical Area,Los Angeles,6037,6037128302,29,34.19,-118,88b,88b,Disabled,202/8 NC,10,57.58,,
1027484,HFL VANOWEN APARTMENTS,14419 Vanowen St,Los Angeles,CA,91405-4059,31080,Metropolitan Statistical Area,Los Angeles,6037,6037127910,29,34.19,-118,94b,100a,Disabled,PRAC/811,24,76.32,,
1027560,VILLA VALLEY APARTMENTS,15950 Sherman Way,Los Angeles,CA,91406-4046,31080,Metropolitan Statistical Area,Los Angeles,6037,6037127604,29,34.2,-118,86c,86c,Elderly,HFDA/8 NC,145,112.15,,
1027587,VPH ADULT RETIREMENT CENTER,15211 Sherman Way,Los Angeles,CA,91405-2048,31080,Metropolitan Statistical Area,Los Angeles,6037,6037127210,29,34.2,-118,90c,90c,Elderly,202/8 NC,84,89.46,4% Tax Credit,
1028685,OXNARD VILLA,14045 Oxnard St,Los Angeles,CA,91401-3860,31080,Metropolitan Statistical Area,Los Angeles,6037,6037128601,29,34.18,-118,,,Family,,,,9% Tax Credit,
1028788,HAZELTINE & WYANDOTTE APARTMENTS,7250 Hazeltine Ave,Los Angeles,CA,91405-5634,31080,Metropolitan Statistical Area,Los Angeles,6037,6037127104,29,34.2,-118,55c,61c,Family,,,,9% Tax Credit,
1028854,WYANDOTTE APARTMENTS,14630 Wyandotte St,Los Angeles,CA,91405-1974,31080,Metropolitan Statistical Area,Los Angeles,6037,6037127220,29,34.2,-118,,,Family,,,,9% Tax Credit,
1028855,PAZ VILLAS,14643 Blythe St,Los Angeles,CA,91402-5947,31080,Metropolitan Statistical Area,Los Angeles,6037,6037120030,29,34.22,-118,,,Family,,,,9% Tax Credit,
1029004,OAK TREE VILLAGE,15231 Sherman Way,Los Angeles,CA,91405-6313,31080,Metropolitan Statistical Area,Los Angeles,6037,6037127210,29,34.2,-118,,,Family,,,,9% Tax Credit,
1029118,ANGELS CITY LIGHTS,13915 Oxnard St,Los Angeles,CA,91401-3885,31080,Metropolitan Statistical Area,Los Angeles,6037,6037128601,29,34.18,-118,,,Family,,,,9% Tax Credit,
1029256,VICTORY GARDENS,13436 Victory Blvd,Los Angeles,CA,91401-1866,31080,Metropolitan Statistical Area,Los Angeles,6037,6037123602,29,34.19,-118,,,,,,,9% Tax Credit,
1029581,CORNERSTONE APARTMENTS,14128 Calvert St,Los Angeles,CA,91401-3473,31080,Metropolitan Statistical Area,Los Angeles,6037,6037128210,29,34.18,-118,,,,,,,9% Tax Credit,
1030013,SATICOY GARDENS,14649 Saticoy St,Los Angeles,CA,91405-1243,31080,Metropolitan Statistical Area,Los Angeles,6037,6037127210,29,34.21,-118,,,Family,,,,4% Tax Credit,
1031412,SHERMAN WAY SENIOR HSG,15864 Sherman Way,Los Angeles,CA,91406-4078,31080,Metropolitan Statistical Area,Los Angeles,6037,6037127400,29,34.2,-118,96b,96b,Elderly,202/8 NC,73,87.85,,
1031414,PARK PLACE APARTMENTS,7970 Woodman Ave,Los Angeles,CA,91402-6316,31080,Metropolitan Statistical Area,Los Angeles,6037,6037120400,29,34.22,-118,,,,,,,4% Tax Credit,
1031724,HFL SEQUOIA APARTMENTS,14402 Hamlin St,Los Angeles,CA,91401-1431,31080,Metropolitan Statistical Area,Los Angeles,6037,6037128102,29,34.19,-118,87c,91a,Disabled,PRAC/811,24,66.35,9% Tax Credit,
1032608,IVY TERRACE,13751 Sherman Way,Los Angeles,CA,91405-2679,31080,Metropolitan Statistical Area,Los Angeles,6037,6037127104,29,34.2,-118,,,Family,,,,4% Tax Credit,
1032610,LA CORUNA SENIOR APARTMENTS,15301 Lanark St,Los Angeles,CA,91406-1432,31080,Metropolitan Statistical Area,Los Angeles,6037,6037127520,29,34.22,-118,,,Elderly or disabled,,,,4% Tax Credit,
1000097,ONE VENICE,1 N Venice Blvd,Los Angeles,CA,90291-4177,31080,Metropolitan Statistical Area,Los Angeles,6037,6037273502,33,33.98,-118,62c*,91b,Elderly,Sec 8 NC,50,168.09,,
1009939,ADDA & PAUL SAFRAN SENIOR HOUSING,151 Ocean Front Walk,Los Angeles,CA,90291-2441,31080,Metropolitan Statistical Area,Los Angeles,6037,6037273402,33,34,-118,75c,68c,Elderly,PRAC/202,63,56.44,,
1027135,NEW VENICE 1B,645 Indiana Ave,Los Angeles,CA,90291-3094,31080,Metropolitan Statistical Area,Los Angeles,6037,6037273200,33,34,-118,96c,91b,,LMSA,11,140.13,,
1027159,NEW VENICE 2B,410 Indiana Ave,Los Angeles,CA,90291-3082,31080,Metropolitan Statistical Area,Los Angeles,6037,6037273300,33,33.99,-118,95b,88b,,LMSA,43,148.59,,
1027282,BREEZES DEL MAR 1A-1D,535 Santa Clara Ave,Los Angeles,CA,90291-3759,31080,Metropolitan Statistical Area,Los Angeles,6037,6037273300,33,33.99,-118,90b,87b,Family,LMSA,62,167.06,,
1027288,NEW VENICE 1D,534 Indiana Ave,Los Angeles,CA,90291-3074,31080,Metropolitan Statistical Area,Los Angeles,6037,6037273300,33,34,-118,99b,99a,,LMSA,13,141.97,,
1027292,BREEZES DEL MAR 2A-2D,673 Santa Clara Ave,Los Angeles,CA,90291,31080,Metropolitan Statistical Area,Los Angeles,6037,6037273200,33,33.99,-118,95b*,95b*,Family,LMSA,113,166.11,,
1027294,NEW VENICE 3C,1408 Linden Ave,Los Angeles,CA,90291-3875,31080,Metropolitan Statistical Area,Los Angeles,6037,6037273600,33,34,-118,92b,94a,,LMSA,10,155.25,,
1027298,NEW VENICE 2D,919 5th Ave,Los Angeles,CA,90291-3068,31080,Metropolitan Statistical Area,Los Angeles,6037,6037273300,33,33.99,-118,98a,90a,,LMSA,26,147.27,,
1027300,NEW VENICE 2C,1002 5th Ave,Los Angeles,CA,90291-3381,31080,Metropolitan Statistical Area,Los Angeles,6037,6037273300,33,33.99,-118,99b,90c*,,LMSA,26,147.6,,
1027302,BREEZES DEL MAR 3A-3C,517 Indiana Ave,Los Angeles,CA,90291-5402,31080,Metropolitan Statistical Area,Los Angeles,6037,6037273300,33,34,-118,88c,93b,Family,LMSA,38,152.52,,
1027304,BREEZES DEL MAR 4A-4C,353 Rennie Ave,Los Angeles,CA,90291-2671,31080,Metropolitan Statistical Area,Los Angeles,6037,6037273300,33,34,-118,91b,90b,Family,LMSA,33,159.89,,
1027316,NEW VENICE 4B,915 7th Ave,Los Angeles,CA,90291-3096,31080,Metropolitan Statistical Area,Los Angeles,6037,6037273200,33,34,-118,97b,94c,,LMSA,15,154.22,,
1027331,NEW VENICE 4C,610 6th Ave,Los Angeles,CA,90291-2652,31080,Metropolitan Statistical Area,Los Angeles,6037,6037273300,33,34,-118,94b,86c,,LMSA,10,153.38,,
1027355,NEW VENICE 1C,509 Sunset Ave,Los Angeles,CA,90291-2683,31080,Metropolitan Statistical Area,Los Angeles,6037,6037273300,33,34,-118,99b*,96b,,LMSA,16,149.01,,
1027480,NEW VENICE 3B,664 Brooks Ave,Los Angeles,CA,90291-3093,31080,Metropolitan Statistical Area,Los Angeles,6037,6037273200,33,34,-118,94b,82c,,LMSA,18,155.95,,
1028372,NAVY BLUE APARTMENTS,102 Navy St,Los Angeles,CA,90291-2584,31080,Metropolitan Statistical Area,Los Angeles,6037,6037273402,33,34,-118,,,,,,,9% Tax Credit,
1028817,TABOR COURTS,345 4th Ave,Los Angeles,CA,90291-8657,31080,Metropolitan Statistical Area,Los Angeles,6037,6037273300,33,34,-118,,,Family,,,,9% Tax Credit,
1018019,COMMUNITY HOUSE,23710 Community St,Los Angeles,CA,91304-3003,31080,Metropolitan Statistical Area,Los Angeles,6037,6037113231,30,34.22,-119,93b,99a,Disabled,PRAC/811,6,40.87,,
1027256,LIBERTY VILLAGE,22439 Marlin Pl,Los Angeles,CA,91307-2622,31080,Metropolitan Statistical Area,Los Angeles,6037,6037135102,30,34.2,-119,83b,83b,Disabled,PRAC/811,12,36.88,,
1027553,VILLAGE ACQUISITION III,23801 Archwood St,Los Angeles,CA,91307-3004,31080,Metropolitan Statistical Area,Los Angeles,6037,6037135203,30,34.19,-119,80b,80b,Disabled,PRAC/811,6,68.28,,
1028860,ROSCOE APARTMENTS,20234 Roscoe Blvd,Los Angeles,CA,91306-1679,31080,Metropolitan Statistical Area,Los Angeles,6037,6037134103,30,34.22,-119,,,Family,,,,9% Tax Credit,
1030961,RUNNYMEDE SPRINGS,20422 Cohasset St,Los Angeles,CA,91306-3058,31080,Metropolitan Statistical Area,Los Angeles,6037,6037134710,30,34.21,-119,,,Family,,,,9% Tax Credit,
1102980,WINNETKA SENIOR APARTMENTS,20750 Sherman Way Unit 128,Los Angeles,CA,91306-3782,31080,Metropolitan Statistical Area,Los Angeles,6037,6037134002,30,34.2,-119,,,Elderly or disabled,,,,4% Tax Credit,
1027156,RANCHO DEL VALLE,6560 Winnetka Ave,Los Angeles,CA,91367-2700,31080,Metropolitan Statistical Area,Los Angeles,6037,6037134901,30,34.19,-119,93b,78b,Disabled,202/8 NC,24,104.42,,
1027394,OWENSMOUTH GARDENS,6300 Owensmouth Ave,Los Angeles,CA,91367-2361,31080,Metropolitan Statistical Area,Los Angeles,6037,6037135114,30,34.18,-119,81c,97b,Elderly,Sec 8 NC,281,116.26,,
